[{"id":1,"pincode":312538,"latitude":24.3158024,"longitude":109.3826264,"order":{"id":"004aafe9-e09e-4f45-95d3-b11d03d48fe9","item":"quisque id justo sit"}},
{"id":2,"pincode":200130,"latitude":13.6095445,"longitude":-15.0608558,"order":{"id":"86de49ad-2a1b-413b-baf4-fa2dad3bd996","item":"in hac"}},
{"id":3,"pincode":400182,"latitude":48.5271841,"longitude":7.7424053,"order":{"id":"521bc36a-c6b5-4ebb-88c9-be94f10977e2","item":"dictumst morbi vestibulum velit id pretium"}},
{"id":4,"pincode":247344,"latitude":40.995233,"longitude":122.064832,"order":{"id":"6465e822-969b-4622-a6e1-b85eb96dc5eb","item":"congue risus semper porta volutpat"}},
{"id":5,"pincode":545080,"latitude":47.9103088,"longitude":-4.1927331,"order":{"id":"536382ff-8db2-4386-877d-56c7c4d0740f","item":"et ultrices posuere"}},
{"id":6,"pincode":157213,"latitude":33.189192,"longitude":120.103473,"order":{"id":"46da414f-afbc-4f9d-8207-f882cf3bf285","item":"faucibus orci"}},
{"id":7,"pincode":274555,"latitude":16.0001974,"longitude":120.6583327,"order":{"id":"299bb841-1773-4654-8b60-ec36d638987a","item":"sed vestibulum sit amet cursus"}},
{"id":8,"pincode":454344,"latitude":14.5694082,"longitude":121.0215733,"order":{"id":"73ca7166-06a2-4830-93c6-cf64a194a3e3","item":"quis augue luctus tincidunt"}},
{"id":9,"pincode":565961,"latitude":5.1886762,"longitude":97.1344608,"order":{"id":"7399ee3b-500a-4179-baa5-d826929f654e","item":"posuere metus vitae ipsum aliquam non"}},
{"id":10,"pincode":405841,"latitude":49.8693962,"longitude":18.7571935,"order":{"id":"51040cf5-121f-48d9-99c6-b6b754533208","item":"cursus vestibulum proin eu"}},
{"id":11,"pincode":144287,"latitude":22.5493001,"longitude":114.1250751,"order":{"id":"027f28ca-0770-4654-94d5-559d8303b798","item":"luctus"}},
{"id":12,"pincode":505466,"latitude":28.7382793,"longitude":69.1963258,"order":{"id":"e93a69fe-e0c1-4419-a3cf-0350996ec4e9","item":"phasellus in"}},
{"id":13,"pincode":407761,"latitude":30.898495,"longitude":118.891482,"order":{"id":"7d1ba2de-7d78-4113-bd59-6dbafe146463","item":"molestie"}},
{"id":14,"pincode":163510,"latitude":27.048088,"longitude":119.28827,"order":{"id":"f34c1a55-569a-481b-a4eb-4e37f6ef16b0","item":"id massa id nisl venenatis lacinia"}},
{"id":15,"pincode":423618,"latitude":"-6.9596","longitude":"113.1965","order":{"id":"d58ace12-ce09-46b9-981d-bd38d2e554fa","item":"eleifend"}},
{"id":16,"pincode":557066,"latitude":49.2211865,"longitude":-68.1518275,"order":{"id":"1840dcfa-9ac3-4e58-90fe-5454e42a903d","item":"luctus et ultrices posuere cubilia curae"}},
{"id":17,"pincode":264402,"latitude":-19.9454604,"longitude":-43.4876311,"order":{"id":"1b3345e0-84be-4fa4-a9bb-e374fa3990ed","item":"sagittis nam congue"}},
{"id":18,"pincode":237152,"latitude":45.742007,"longitude":3.199309,"order":{"id":"7bbbc203-9e8a-41d2-8040-a0840e71358d","item":"dolor morbi vel lectus in"}},
{"id":19,"pincode":394940,"latitude":-33.7974423,"longitude":151.2502275,"order":{"id":"bf2b295c-950b-4b85-b52c-2230b6f8218b","item":"accumsan tellus"}},
{"id":20,"pincode":332203,"latitude":14.5458392,"longitude":121.0044883,"order":{"id":"7860ca2e-29f8-4b08-a454-b96142f51cba","item":"maecenas tristique"}},
{"id":21,"pincode":394577,"latitude":22.928305,"longitude":113.207187,"order":{"id":"e2ae06bf-efd2-472c-b149-328c4241d95e","item":"nunc"}},
{"id":22,"pincode":502598,"latitude":23.5651914,"longitude":58.4201892,"order":{"id":"422793a7-53af-48e2-9ab0-d0874118422d","item":"donec"}},
{"id":23,"pincode":154376,"latitude":5.6763925,"longitude":-73.8066163,"order":{"id":"3b42f0cf-4ed1-44b6-9a2f-62bc40dc17e8","item":"et commodo vulputate justo in blandit"}},
{"id":24,"pincode":409013,"latitude":42.0696235,"longitude":-8.43985,"order":{"id":"d2a2b5ef-b804-49b9-963e-0fe20522e86e","item":"non mauris morbi"}},
{"id":25,"pincode":500551,"latitude":52.4801084,"longitude":48.2090292,"order":{"id":"5a20fc86-afb3-457f-858c-edd7ce3eae88","item":"ipsum aliquam non"}},
{"id":26,"pincode":378520,"latitude":14.72328,"longitude":102.1609718,"order":{"id":"142923a1-9032-407a-b0b0-6305d96f8d73","item":"eget"}},
{"id":27,"pincode":165781,"latitude":14.622814,"longitude":-61.030174,"order":{"id":"af27b00d-008d-4b95-93b4-3e8349d2846b","item":"odio donec vitae nisi nam"}},
{"id":28,"pincode":166590,"latitude":45.437603,"longitude":121.094913,"order":{"id":"53ac89dd-b008-4d7e-98d9-1756b14a9286","item":"iaculis congue vivamus metus arcu adipiscing"}},
{"id":29,"pincode":131583,"latitude":26.4168857,"longitude":105.7581834,"order":{"id":"5408af82-2093-4bc9-b1fa-68e27c8b53e8","item":"condimentum curabitur in"}},
{"id":30,"pincode":418784,"latitude":-31.4753699,"longitude":-64.2123183,"order":{"id":"fc6c0ab0-a03f-4528-89d0-1002733ad78a","item":"ut massa"}},
{"id":31,"pincode":394462,"latitude":49.2389409,"longitude":-121.7658827,"order":{"id":"4c9f233d-ec09-4b25-810e-f75cf9bb6316","item":"platea"}},
{"id":32,"pincode":298699,"latitude":4.956167,"longitude":-76.607349,"order":{"id":"1470ffe9-2821-41eb-8ead-2ea0d0489a1e","item":"nulla"}},
{"id":33,"pincode":163125,"latitude":10.7424589,"longitude":13.8042382,"order":{"id":"7efd8203-4428-47a5-ac8b-ea734cc2c2db","item":"nunc rhoncus dui vel sem"}},
{"id":34,"pincode":223468,"latitude":35.26364,"longitude":116.449839,"order":{"id":"a12dcb47-b7d3-48d3-a631-83e1bd1fc5f6","item":"lectus suspendisse potenti in eleifend"}},
{"id":35,"pincode":252226,"latitude":8.8153071,"longitude":105.0557415,"order":{"id":"b4f5f01b-c7c6-454d-9abd-716ef6388620","item":"tempus semper est quam pharetra"}},
{"id":36,"pincode":576905,"latitude":23.701262,"longitude":117.430061,"order":{"id":"befbacaa-d29b-42fc-897e-ee6217a5a011","item":"interdum venenatis turpis enim blandit mi"}},
{"id":37,"pincode":122892,"latitude":19.4771559,"longitude":-70.6636064,"order":{"id":"0eabb1f9-15d9-4996-8ddd-19b41df18538","item":"metus sapien ut nunc vestibulum ante"}},
{"id":38,"pincode":269514,"latitude":41.4358155,"longitude":-8.3999197,"order":{"id":"f11153bb-3fb7-459e-b66a-c9fb03e340bd","item":"nam dui"}},
{"id":39,"pincode":282731,"latitude":14.5612208,"longitude":121.0481656,"order":{"id":"6341fc17-81c1-4d3d-969e-14a5a473ed62","item":"aliquam augue"}},
{"id":40,"pincode":403114,"latitude":-6.9143251,"longitude":108.8105899,"order":{"id":"3472f01e-7b2f-4d85-aed1-8c726a4cd0b6","item":"et ultrices posuere"}},
{"id":41,"pincode":599345,"latitude":38.895126,"longitude":117.005412,"order":{"id":"6d83d0bc-138d-45a7-9991-632eaf42ac44","item":"eu massa donec dapibus duis"}},
{"id":42,"pincode":234874,"latitude":50.0109884,"longitude":4.1638985,"order":{"id":"4b682add-c0a8-4d6e-9671-48f583815ea4","item":"felis fusce posuere felis sed lacus"}},
{"id":43,"pincode":114796,"latitude":51.9695974,"longitude":15.5383803,"order":{"id":"2bdd2dd1-f8e8-48f2-9a23-e4808755803c","item":"turpis elementum ligula"}},
{"id":44,"pincode":502561,"latitude":12.9235132,"longitude":-85.8396655,"order":{"id":"bba1303d-c6e7-4acf-9415-55065cb1e9d7","item":"vitae nisi nam ultrices libero non"}},
{"id":45,"pincode":456867,"latitude":-9.483333,"longitude":-77.866667,"order":{"id":"66dfd390-233f-49f2-95d4-207d99ff260c","item":"faucibus orci luctus et"}},
{"id":46,"pincode":296469,"latitude":-18.3714305,"longitude":-54.6972774,"order":{"id":"dde9f9f2-4a65-411a-b931-6cd1dbb897bf","item":"lacus purus"}},
{"id":47,"pincode":397118,"latitude":7.8726899,"longitude":-11.3402694,"order":{"id":"d156b797-1bf6-4b8d-97db-789a0b7f9a20","item":"in consequat"}},
{"id":48,"pincode":198999,"latitude":39.505925,"longitude":106.726099,"order":{"id":"762d8795-0aca-4f2e-aa2c-ade7a6464eab","item":"turpis elementum"}},
{"id":49,"pincode":348909,"latitude":49.1879411,"longitude":-124.0025429,"order":{"id":"b9df5363-19df-4299-b803-9c7861f5c2ab","item":"mauris vulputate"}},
{"id":50,"pincode":506585,"latitude":39.7284944,"longitude":-121.8374777,"order":{"id":"8dbd7b73-1f02-4393-827c-ea4086932713","item":"purus aliquet at"}},
{"id":51,"pincode":408214,"latitude":-14.5246488,"longitude":-49.1468996,"order":{"id":"27308d6a-75d7-4aed-9fe1-75d9b5ac3d0a","item":"suspendisse"}},
{"id":52,"pincode":534401,"latitude":31.2348663,"longitude":121.4748751,"order":{"id":"94f03c8a-79b1-4fb9-94a0-cc2cfff82d0a","item":"donec vitae nisi nam ultrices libero"}},
{"id":53,"pincode":481882,"latitude":37.691429,"longitude":118.122323,"order":{"id":"7ff7d0e7-a346-46a5-acc1-2fb876e6e26c","item":"eget nunc donec quis orci eget"}},
{"id":54,"pincode":237672,"latitude":-33.6055625,"longitude":-62.6252102,"order":{"id":"09d987df-52e0-475d-896f-274f071337a9","item":"et ultrices posuere cubilia curae"}},
{"id":55,"pincode":210728,"latitude":-30.2196952,"longitude":-51.0985192,"order":{"id":"abe47251-f1ed-477c-8181-0b1e49dea4fa","item":"duis aliquam convallis"}},
{"id":56,"pincode":356656,"latitude":-5.5844754,"longitude":105.4771084,"order":{"id":"c051014d-e471-4894-8689-ba68cf713741","item":"enim"}},
{"id":57,"pincode":293665,"latitude":48.7764948,"longitude":17.0214389,"order":{"id":"085f4437-9304-42f5-b7b6-8b50f3597df5","item":"mauris vulputate elementum"}},
{"id":58,"pincode":252342,"latitude":-6.147133,"longitude":106.6232359,"order":{"id":"2219dfd7-d0b1-46f8-b0f4-8bfe512e5e95","item":"at turpis a pede posuere nonummy"}},
{"id":59,"pincode":119780,"latitude":16.7903346,"longitude":120.8249088,"order":{"id":"0ba9aeba-71c7-4b3b-aeed-f9ec1a590af0","item":"turpis elementum ligula vehicula consequat morbi"}},
{"id":60,"pincode":302994,"latitude":22.517585,"longitude":113.39277,"order":{"id":"8d992277-5b95-4452-82ec-284ab088e0cf","item":"dis parturient montes nascetur"}},
{"id":61,"pincode":311817,"latitude":-33.4891416,"longitude":151.3248343,"order":{"id":"0d3f9ade-3d06-4907-9899-3fd5fc54bc72","item":"aliquam quis turpis"}},
{"id":62,"pincode":488522,"latitude":53.1913133,"longitude":5.8065627,"order":{"id":"28fd5d46-63c1-4ef0-966d-daaddf026397","item":"eget congue eget semper rutrum nulla"}},
{"id":63,"pincode":205156,"latitude":31.2303904,"longitude":121.4737021,"order":{"id":"79dfe9cb-ceff-4077-b4a3-ef1900d75183","item":"adipiscing molestie hendrerit at vulputate"}},
{"id":64,"pincode":171971,"latitude":-17.5872806,"longitude":48.2219395,"order":{"id":"5b8e6c96-5928-485f-8e42-e2acebd94545","item":"ipsum"}},
{"id":65,"pincode":296156,"latitude":18.0735299,"longitude":-15.9582372,"order":{"id":"48e8b8f4-44d9-492c-a579-5019bac8bafa","item":"velit"}},
{"id":66,"pincode":340604,"latitude":22.7292345,"longitude":-81.2917971,"order":{"id":"edf03d75-7815-49a8-85ba-cc156f9f91df","item":"vel nisl duis ac"}},
{"id":67,"pincode":518385,"latitude":40.210071,"longitude":119.710719,"order":{"id":"59714081-2af8-464e-bb19-c425e1218f53","item":"lorem"}},
{"id":68,"pincode":555222,"latitude":3.809294,"longitude":43.2461055,"order":{"id":"fd78a095-932f-4abe-96c8-2a389bd2299c","item":"dui"}},
{"id":69,"pincode":171072,"latitude":0.5471811,"longitude":-76.1319953,"order":{"id":"cdd1ef26-c4c8-4ae3-8ef7-92fe781af2af","item":"lorem integer tincidunt"}},
{"id":70,"pincode":460794,"latitude":"44.2484","longitude":"111.73948","order":{"id":"e107c1ff-f4cc-441e-815f-90b1498560f1","item":"nunc nisl duis bibendum felis"}},
{"id":71,"pincode":120376,"latitude":0.919645,"longitude":-77.567138,"order":{"id":"560d025c-9875-409d-889e-b88c76838b8c","item":"ultrices libero non mattis pulvinar"}},
{"id":72,"pincode":151197,"latitude":"16.06589","longitude":"22.84308","order":{"id":"b0204ec1-5667-49d9-851a-3091ebe8e809","item":"eget elit sodales scelerisque"}},
{"id":73,"pincode":194675,"latitude":53.09697,"longitude":-113.4729375,"order":{"id":"702b4efb-7850-4569-a6dc-22871714b879","item":"mus vivamus vestibulum sagittis sapien"}},
{"id":74,"pincode":147893,"latitude":-15.6921494,"longitude":46.3336857,"order":{"id":"1764df54-bd51-4e4a-9fa1-4c46c636837d","item":"sed ante vivamus"}},
{"id":75,"pincode":278187,"latitude":9.5384134,"longitude":105.2428853,"order":{"id":"e1c08328-0604-45d2-98bb-06ef814016e7","item":"in sapien iaculis congue vivamus metus"}},
{"id":76,"pincode":469387,"latitude":-7.5691667,"longitude":107.9047222,"order":{"id":"5286609c-b0a8-4914-8d84-7cadab2ee5b5","item":"erat id mauris vulputate elementum"}},
{"id":77,"pincode":464487,"latitude":59.3146154,"longitude":18.0001365,"order":{"id":"5663ff12-c31a-49b8-a144-808fc2fbb31c","item":"consequat metus sapien ut nunc vestibulum"}},
{"id":78,"pincode":281805,"latitude":-6.7115834,"longitude":111.3947978,"order":{"id":"e47da427-46c6-4e3b-89aa-d00fa8e4dac4","item":"turpis a pede posuere"}},
{"id":79,"pincode":242276,"latitude":54.6192996,"longitude":39.8560057,"order":{"id":"d3ce42be-ca36-45d7-b231-b733132b7b1f","item":"commodo placerat praesent blandit nam"}},
{"id":80,"pincode":217938,"latitude":25.9755686,"longitude":89.6367458,"order":{"id":"4d3ec4e3-5e63-4ed1-b920-6a760e524404","item":"euismod scelerisque quam turpis adipiscing lorem"}},
{"id":81,"pincode":368070,"latitude":40.4498285,"longitude":-8.0628862,"order":{"id":"4063dbf3-df35-434a-964c-831f9155b1f2","item":"sapien cursus"}},
{"id":82,"pincode":447322,"latitude":34.931466,"longitude":109.449831,"order":{"id":"cc96ce95-e5eb-4b1a-8a12-57cea5eeafa8","item":"ipsum primis in faucibus"}},
{"id":83,"pincode":529380,"latitude":19.5230587,"longitude":-71.923832,"order":{"id":"4e75f7f0-ab02-46f2-899c-828e7cd92660","item":"lectus suspendisse potenti in eleifend quam"}},
{"id":84,"pincode":156859,"latitude":32.169335,"longitude":119.19095,"order":{"id":"749de26f-4ba6-4adb-8712-431eb742d515","item":"nullam sit amet"}},
{"id":85,"pincode":301729,"latitude":63.8223321,"longitude":20.2753893,"order":{"id":"6765c483-57cb-4193-ae9b-a5dd6a2b3b45","item":"cras in"}},
{"id":86,"pincode":224596,"latitude":"-8.5453","longitude":"115.0752","order":{"id":"10c7e7d0-060a-4c59-b24d-48108ad79f54","item":"ligula suspendisse ornare consequat lectus"}},
{"id":87,"pincode":252737,"latitude":40.562696,"longitude":-8.768226,"order":{"id":"fdea773d-de4d-46c6-8653-818e09744004","item":"dolor vel est"}},
{"id":88,"pincode":312312,"latitude":50.2969058,"longitude":26.8600648,"order":{"id":"11ad8803-3dfd-424b-9208-f61d87af1d23","item":"ut ultrices vel augue"}},
{"id":89,"pincode":524869,"latitude":35.878762,"longitude":14.439284,"order":{"id":"df0484b7-1ccd-4b07-a4b7-24ad40d7d58e","item":"at velit eu est congue"}},
{"id":90,"pincode":254277,"latitude":36.8603732,"longitude":137.4284822,"order":{"id":"78496e68-d059-4db8-89e6-6c1d95cd1f48","item":"magna"}},
{"id":91,"pincode":119999,"latitude":51.5406095,"longitude":14.759662,"order":{"id":"2ef66983-c158-46d4-bab7-08ac13214de3","item":"nisl"}},
{"id":92,"pincode":458594,"latitude":14.4240257,"longitude":120.9428802,"order":{"id":"c041fbbe-e361-4daf-9bd1-391a3a4aba3d","item":"eleifend donec ut dolor"}},
{"id":93,"pincode":539753,"latitude":41.805699,"longitude":123.431472,"order":{"id":"0cc60f96-1982-45e4-a510-c053734e07a8","item":"praesent id massa id"}},
{"id":94,"pincode":544628,"latitude":38.238247,"longitude":114.491954,"order":{"id":"7eba97a7-92a7-4672-8b31-86797d3fa3b4","item":"sagittis sapien cum sociis natoque"}},
{"id":95,"pincode":350339,"latitude":54.2866841,"longitude":48.2335118,"order":{"id":"cf54364a-2d34-414d-bf62-2872cd1a4ce0","item":"vestibulum sit amet"}},
{"id":96,"pincode":166087,"latitude":9.2610914,"longitude":0.7770529,"order":{"id":"ee825d1c-8f6f-40e9-9f0d-a50fd8122851","item":"iaculis"}},
{"id":97,"pincode":482802,"latitude":49.5186415,"longitude":17.9462874,"order":{"id":"114a8511-7f64-4cc6-8e50-517445cda81c","item":"euismod scelerisque quam turpis"}},
{"id":98,"pincode":387241,"latitude":36.0038131,"longitude":-78.9387241,"order":{"id":"fd080bea-8494-437c-a524-a418392c9bd2","item":"pede"}},
{"id":99,"pincode":355766,"latitude":10.7027142,"longitude":123.8022032,"order":{"id":"19e502ff-7a6e-4135-818a-1331dc1ecff5","item":"congue risus semper porta"}},
{"id":100,"pincode":192178,"latitude":53.6362335,"longitude":72.3382061,"order":{"id":"81cc6a78-e858-4d59-8f76-85fccaaebd25","item":"elementum"}},
{"id":101,"pincode":305158,"latitude":36.7146675,"longitude":102.0851431,"order":{"id":"d3415fa6-de25-40c6-8cc7-4ec6edfb3bf6","item":"quis"}},
{"id":102,"pincode":227624,"latitude":24.765091,"longitude":110.506663,"order":{"id":"aaad7a5f-5ca2-450b-a063-af64b9203afd","item":"turpis a pede"}},
{"id":103,"pincode":197168,"latitude":50.0620325,"longitude":35.1582225,"order":{"id":"5ec4a544-a6dc-401e-aafc-07a42e49596c","item":"nulla pede ullamcorper augue a"}},
{"id":104,"pincode":118387,"latitude":37.066667,"longitude":10.116667,"order":{"id":"f7eeb6f6-b3d0-42bb-933d-a472784cf9f3","item":"metus"}},
{"id":105,"pincode":263863,"latitude":41.815997,"longitude":41.7838101,"order":{"id":"a39b1b80-8c74-413d-88a7-1566abf19684","item":"eros viverra eget congue eget semper"}},
{"id":106,"pincode":303065,"latitude":-5.8949347,"longitude":-35.4343604,"order":{"id":"f65cce5d-8ab4-456b-bf09-67d884d31286","item":"lectus"}},
{"id":107,"pincode":413489,"latitude":-54.281149,"longitude":-36.5087385,"order":{"id":"32aa5ed0-6599-46c7-8946-4a39b8241546","item":"integer aliquet"}},
{"id":108,"pincode":466629,"latitude":10.4347941,"longitude":45.0139904,"order":{"id":"9dc776ab-6309-49cc-9084-7bf5a51bfaa2","item":"sed magna at nunc commodo placerat"}},
{"id":109,"pincode":266394,"latitude":"45.00722","longitude":"43.34944","order":{"id":"943a72ac-54a5-45d7-a23b-e31ec9f87c86","item":"augue aliquam"}},
{"id":110,"pincode":283163,"latitude":-16.8093546,"longitude":-70.6954668,"order":{"id":"27e05718-7767-40d4-8fa9-8ae6f37117b4","item":"vel augue vestibulum rutrum rutrum neque"}},
{"id":111,"pincode":595955,"latitude":40.7737307,"longitude":44.2225655,"order":{"id":"ca9279a7-06d0-4cda-9fca-6dcdc9c9becd","item":"sapien dignissim vestibulum vestibulum ante ipsum"}},
{"id":112,"pincode":419048,"latitude":40.570338,"longitude":116.554665,"order":{"id":"132d0faa-ebd5-47a2-8284-4a6619fc715e","item":"primis in"}},
{"id":113,"pincode":297842,"latitude":-7.5009787,"longitude":108.7987084,"order":{"id":"ce11ce7c-312d-49e6-8cca-0d9521d5b1a0","item":"orci vehicula condimentum curabitur"}},
{"id":114,"pincode":127498,"latitude":13.2836618,"longitude":-61.2466754,"order":{"id":"69cac3ed-6397-4dd8-b3be-2534c87046ef","item":"in sagittis"}},
{"id":115,"pincode":579677,"latitude":35.9851018,"longitude":136.1860255,"order":{"id":"d9d38489-9d0a-4dcf-96d6-4a52cee7cc83","item":"consequat"}},
{"id":116,"pincode":103585,"latitude":50.1214779,"longitude":21.9686719,"order":{"id":"c7c3bbb0-489a-40db-8141-f0abfcfec54f","item":"adipiscing lorem vitae mattis"}},
{"id":117,"pincode":474304,"latitude":-8.637081,"longitude":-77.068703,"order":{"id":"578b4924-d9a9-4e1e-ab97-301abe7cb57c","item":"sapien dignissim"}},
{"id":118,"pincode":168682,"latitude":59.1308951,"longitude":31.8512437,"order":{"id":"193575d4-b475-40d1-a5a8-6d3c35292017","item":"nisl nunc nisl duis bibendum felis"}},
{"id":119,"pincode":459051,"latitude":25.5022397,"longitude":103.8059685,"order":{"id":"bbfb4c95-23e1-4c34-afcc-96d66b1b945c","item":"tellus"}},
{"id":120,"pincode":450644,"latitude":35.183333,"longitude":46.1,"order":{"id":"80961ce7-a6db-4db8-847f-cc9d01ce3527","item":"magna ac"}},
{"id":121,"pincode":104987,"latitude":9.1631736,"longitude":-79.1040432,"order":{"id":"390e6b79-3b00-4400-9d92-96476d821671","item":"donec ut mauris"}},
{"id":122,"pincode":119039,"latitude":43.3423246,"longitude":1.2606792,"order":{"id":"f03b6ece-f310-447a-820b-970127e484bc","item":"proin interdum mauris"}},
{"id":123,"pincode":486029,"latitude":40.2251411,"longitude":116.7810211,"order":{"id":"329f6871-ce59-4a7f-87f0-1eba39c31ec5","item":"fermentum donec ut"}},
{"id":124,"pincode":101104,"latitude":-2.5252502,"longitude":101.7523854,"order":{"id":"bb3521a9-ccdc-4de4-99ff-56ec16b2638e","item":"non quam"}},
{"id":125,"pincode":498303,"latitude":-40.2458577,"longitude":175.5482901,"order":{"id":"1d037887-5779-4ce5-b452-6dbd4d3d128a","item":"iaculis justo"}},
{"id":126,"pincode":586015,"latitude":-6.8272662,"longitude":111.2874835,"order":{"id":"99281fa3-7a72-4990-b69a-6d7a6fe41e67","item":"quam turpis adipiscing lorem vitae"}},
{"id":127,"pincode":345968,"latitude":50.4198861,"longitude":4.9246444,"order":{"id":"3510d6cd-d056-4beb-9df2-b7ce6e5f2a45","item":"dapibus dolor vel est donec odio"}},
{"id":128,"pincode":325965,"latitude":17.7409147,"longitude":-91.7660525,"order":{"id":"61575554-c094-4b5c-b8e6-1074a312e963","item":"sit amet"}},
{"id":129,"pincode":142712,"latitude":29.222446,"longitude":94.067389,"order":{"id":"6ee45e22-cdae-4996-82ad-63d45b22a381","item":"viverra"}},
{"id":130,"pincode":314587,"latitude":9.4488704,"longitude":-82.485187,"order":{"id":"a009ee08-09f9-4842-87f5-af2ae7f3b617","item":"luctus et ultrices"}},
{"id":131,"pincode":214924,"latitude":41.7396715,"longitude":-85.9262162,"order":{"id":"c60dbb18-ff04-4406-a20c-3b94b6478cc4","item":"vel"}},
{"id":132,"pincode":410998,"latitude":50.3331127,"longitude":10.2247836,"order":{"id":"6436e798-a6c7-4bb0-83ee-bd7bced1e6ef","item":"rutrum at lorem integer tincidunt"}},
{"id":133,"pincode":519832,"latitude":37.22351,"longitude":120.560079,"order":{"id":"830734b7-e7f1-476a-a230-a61f554bcef1","item":"vel ipsum"}},
{"id":134,"pincode":133315,"latitude":10.789771,"longitude":-74.755201,"order":{"id":"e153f3b9-1156-4973-bfba-49fab7621a21","item":"mus vivamus"}},
{"id":135,"pincode":242831,"latitude":32.637546,"longitude":109.003167,"order":{"id":"ca33eeeb-5821-4ade-82e2-dae91fb73dc2","item":"porttitor lorem id ligula suspendisse"}},
{"id":136,"pincode":520560,"latitude":50.0429768,"longitude":46.8886722,"order":{"id":"43bc4210-f03e-4f0a-8b1e-983abc601db0","item":"sed lacus"}},
{"id":137,"pincode":491927,"latitude":12.6392316,"longitude":-8.0028892,"order":{"id":"03b6f641-a0cb-44c7-a56d-7f929903eab0","item":"ac est lacinia nisi venenatis tristique"}},
{"id":138,"pincode":410811,"latitude":50.5368675,"longitude":16.2335098,"order":{"id":"f9c83e9c-a115-41f1-9267-a4c738b67858","item":"libero non"}},
{"id":139,"pincode":378776,"latitude":-6.576574,"longitude":111.0683954,"order":{"id":"127af8c8-2816-4ab4-bfa6-d351e7391621","item":"dui vel nisl"}},
{"id":140,"pincode":419383,"latitude":30.646759,"longitude":111.276255,"order":{"id":"ada448f5-f4a8-4c78-a55f-1a21a982eb4f","item":"odio consequat varius"}},
{"id":141,"pincode":372351,"latitude":19.4805668,"longitude":-99.2058279,"order":{"id":"1d0275ad-949d-491a-86c7-6da4e5820841","item":"mauris laoreet ut rhoncus aliquet"}},
{"id":142,"pincode":271528,"latitude":39.0709588,"longitude":139.8789088,"order":{"id":"21c2bed5-c1c4-4791-8eda-89eee50674ea","item":"ligula sit amet"}},
{"id":143,"pincode":116846,"latitude":63.4400274,"longitude":10.4024274,"order":{"id":"67eb7905-b923-4027-bb2c-03c224c3fa7c","item":"nunc nisl duis bibendum"}},
{"id":144,"pincode":259628,"latitude":22.9856091,"longitude":-80.5855038,"order":{"id":"b098a913-a887-4e12-b0a2-7f4764a7fa60","item":"consequat"}},
{"id":145,"pincode":329597,"latitude":-1.0233937,"longitude":103.8042382,"order":{"id":"11e68cb2-a80c-4d9d-a503-27a5ff39e6fa","item":"enim"}},
{"id":146,"pincode":402080,"latitude":58.3858079,"longitude":24.4965768,"order":{"id":"81d0cf01-2310-42ec-894b-98e75ee4cbcc","item":"ipsum primis in faucibus orci"}},
{"id":147,"pincode":135758,"latitude":22.333918,"longitude":114.153378,"order":{"id":"f629d12c-112b-468b-b600-683aea5965e6","item":"in lacus curabitur at ipsum ac"}},
{"id":148,"pincode":178715,"latitude":"7.45","longitude":"-11.9","order":{"id":"e978936b-ed81-4a3f-aa1f-5431fec8a186","item":"venenatis non"}},
{"id":149,"pincode":203731,"latitude":49.2696303,"longitude":98.9929867,"order":{"id":"e6aa8414-8e79-4de2-8fc1-623a4776ab22","item":"eget orci"}},
{"id":150,"pincode":586238,"latitude":-7.5450262,"longitude":111.6556388,"order":{"id":"9b37e001-31a6-4258-8597-4b192eb9b04f","item":"integer"}},
{"id":151,"pincode":300446,"latitude":8.7346496,"longitude":39.0085346,"order":{"id":"1abb5861-0738-4bbc-8f97-5e3f42f97fc0","item":"luctus ultricies eu nibh quisque id"}},
{"id":152,"pincode":430369,"latitude":50.003461,"longitude":19.612945,"order":{"id":"7540f6dd-4b84-4a0d-93c7-9489ea613068","item":"sed sagittis nam congue risus"}},
{"id":153,"pincode":117681,"latitude":29.995762,"longitude":120.586109,"order":{"id":"c34e28d2-cc24-4e95-96d1-9c63f7217a32","item":"sed magna at nunc commodo"}},
{"id":154,"pincode":485246,"latitude":4.0510564,"longitude":9.7678687,"order":{"id":"ecfc92a3-d9ce-49b7-8875-2878c0b47cb9","item":"amet nulla"}},
{"id":155,"pincode":109468,"latitude":49.2759132,"longitude":16.4368691,"order":{"id":"31e010a7-1f5a-4cc7-97a9-2f376c8e3732","item":"arcu sed augue aliquam erat volutpat"}},
{"id":156,"pincode":472827,"latitude":27.861901,"longitude":83.5443287,"order":{"id":"ed6df2e4-dfe3-4912-9548-80df1f8161d9","item":"ac"}},
{"id":157,"pincode":187795,"latitude":-29.5904737,"longitude":-51.3738524,"order":{"id":"4ad8172b-3a2f-4011-8775-87d108fa6173","item":"eu tincidunt in leo maecenas pulvinar"}},
{"id":158,"pincode":501436,"latitude":45.3532302,"longitude":15.8650719,"order":{"id":"2a3a1758-8927-4a5e-96c1-3520042893fb","item":"convallis tortor risus"}},
{"id":159,"pincode":190516,"latitude":32.601214,"longitude":119.17604,"order":{"id":"d89873e2-5fde-4319-a557-066509bb7ead","item":"proin"}},
{"id":160,"pincode":375063,"latitude":39.6476577,"longitude":-104.9984484,"order":{"id":"40bfe09b-0bcc-45ad-9ba4-43079f48573d","item":"maecenas tristique est et tempus semper"}},
{"id":161,"pincode":581835,"latitude":54.1794814,"longitude":-7.2314132,"order":{"id":"1cf74f9e-8d84-46a5-bbdc-8caaf22efb0f","item":"elit proin interdum mauris"}},
{"id":162,"pincode":223741,"latitude":-47.2535728,"longitude":-72.5729823,"order":{"id":"0e70ae30-1262-48e7-9cfa-f57e23d1814e","item":"felis ut at dolor quis odio"}},
{"id":163,"pincode":470681,"latitude":-6.6,"longitude":107.083333,"order":{"id":"beab3d9b-9c16-426a-895a-58c1d594cc8a","item":"ultrices"}},
{"id":164,"pincode":274208,"latitude":-6.8866676,"longitude":109.5389573,"order":{"id":"1647452c-2c48-4ac6-b136-fc87f5c68264","item":"eget tempus"}},
{"id":165,"pincode":401495,"latitude":27.335916,"longitude":113.500997,"order":{"id":"0905cd24-40df-4d76-8071-52a6c5cc983b","item":"at turpis"}},
{"id":166,"pincode":596422,"latitude":6.67745,"longitude":-75.811744,"order":{"id":"de720ade-c00e-427c-9f8a-efdfcc52db5f","item":"adipiscing elit proin interdum"}},
{"id":167,"pincode":509620,"latitude":-13.308333,"longitude":-73.583333,"order":{"id":"f23be1c8-139c-44a0-adca-10f946257de1","item":"dui maecenas tristique est et tempus"}},
{"id":168,"pincode":106873,"latitude":41.3926324,"longitude":-8.4901984,"order":{"id":"0a88d6cd-8335-40fd-8667-7cad852501fd","item":"quis"}},
{"id":169,"pincode":216715,"latitude":49.57642,"longitude":21.86815,"order":{"id":"1dc41d46-6741-43b6-9404-cb4a8c9a324e","item":"consectetuer eget rutrum at lorem integer"}},
{"id":170,"pincode":490459,"latitude":"29.46392","longitude":"110.4714","order":{"id":"39aaab27-389b-4781-a9dc-e8cdc7cf5d06","item":"in imperdiet et commodo"}},
{"id":171,"pincode":281373,"latitude":29.099294,"longitude":119.692696,"order":{"id":"cffcf5e7-c0cb-43fd-bbac-33dd78977c26","item":"platea dictumst maecenas ut"}},
{"id":172,"pincode":517332,"latitude":7.8429579,"longitude":3.9368439,"order":{"id":"526cbb95-4dda-4d47-b8f4-fccf3296d7d2","item":"nulla integer pede"}},
{"id":173,"pincode":336364,"latitude":-8.5335529,"longitude":115.1092099,"order":{"id":"97ea831a-d482-44bd-bddd-7f8a5b2ed4dc","item":"at nulla suspendisse potenti"}},
{"id":174,"pincode":242714,"latitude":51.78914,"longitude":21.59133,"order":{"id":"89215682-8e3b-4e7c-a3b2-51cc5587efe2","item":"lorem integer tincidunt ante vel"}},
{"id":175,"pincode":294632,"latitude":49.7053582,"longitude":18.6134596,"order":{"id":"6a5ba2a3-f6e6-4593-a845-68dabd11d0e0","item":"sem sed sagittis nam congue risus"}},
{"id":176,"pincode":428799,"latitude":57.3132065,"longitude":32.0880477,"order":{"id":"b77f95b2-0049-4118-93c5-70677b522bc3","item":"aliquet at feugiat non pretium quis"}},
{"id":177,"pincode":142554,"latitude":-19.009336,"longitude":-57.5977799,"order":{"id":"e9f17446-fcf2-47c7-a5c8-044d8ef8da48","item":"sem"}},
{"id":178,"pincode":582307,"latitude":45.755062,"longitude":130.5921699,"order":{"id":"4cb9455a-ca5d-4305-bf58-a7a1c5836a4a","item":"tincidunt"}},
{"id":179,"pincode":396932,"latitude":-26.9777363,"longitude":-56.828301,"order":{"id":"1ff6ded4-f62c-402b-ad44-f6d299a5afbc","item":"nibh fusce lacus"}},
{"id":180,"pincode":132607,"latitude":23.7321074,"longitude":-103.9832684,"order":{"id":"85ab2e4a-8f2f-4c59-ad70-b44dec7bd2d0","item":"lacus purus aliquet"}},
{"id":181,"pincode":102444,"latitude":22.4033272,"longitude":103.393389,"order":{"id":"88f438be-825e-46d4-9887-bfcb0365cd82","item":"ut ultrices vel"}},
{"id":182,"pincode":384747,"latitude":62.0249648,"longitude":27.2057857,"order":{"id":"967ea8ee-9335-4482-a888-79280478f526","item":"curabitur in libero ut"}},
{"id":183,"pincode":580084,"latitude":38.7080654,"longitude":-9.3872558,"order":{"id":"9f58f9b8-133b-4062-9153-2f3bedd225ae","item":"massa volutpat convallis"}},
{"id":184,"pincode":348554,"latitude":11.5825677,"longitude":108.9912066,"order":{"id":"23a8b4f5-37ae-4674-89e7-c051faba6d4d","item":"sem sed sagittis"}},
{"id":185,"pincode":524540,"latitude":49.145018,"longitude":1.0859715,"order":{"id":"45dae469-9a3a-4b62-93bb-0ac3933a4c8f","item":"sed magna at nunc commodo placerat"}},
{"id":186,"pincode":285949,"latitude":40.505361,"longitude":80.461556,"order":{"id":"1f5c3502-156c-4f01-b535-ca4c9d763abe","item":"ornare consequat lectus in est"}},
{"id":187,"pincode":339160,"latitude":-15.3075834,"longitude":-68.2206477,"order":{"id":"902a270d-7d8d-4077-bd14-cfd3dbbe46e0","item":"mauris"}},
{"id":188,"pincode":108640,"latitude":37.5599805,"longitude":127.0051893,"order":{"id":"7a95e779-40c2-4212-a87e-2e18f518eeb3","item":"morbi a"}},
{"id":189,"pincode":517064,"latitude":49.687421,"longitude":20.7765351,"order":{"id":"d81268c1-30f6-4457-b0f1-a7f601b65a6f","item":"nullam molestie nibh in lectus"}},
{"id":190,"pincode":115179,"latitude":16.0847081,"longitude":120.3954753,"order":{"id":"c801b6aa-6da9-4745-9a89-4244ea139270","item":"sit amet eros suspendisse"}},
{"id":191,"pincode":207643,"latitude":32.060255,"longitude":118.796877,"order":{"id":"4d2a6cdd-b17a-4d3a-ae74-097fe5943edb","item":"ante vivamus tortor duis"}},
{"id":192,"pincode":468517,"latitude":47.7585809,"longitude":29.5339155,"order":{"id":"2a5c94eb-ea9d-4024-ae18-9425423b9107","item":"erat"}},
{"id":193,"pincode":555823,"latitude":27.948308,"longitude":109.599191,"order":{"id":"4f0bb82a-de47-4853-9aac-29e1b211ae47","item":"vulputate luctus cum sociis"}},
{"id":194,"pincode":251212,"latitude":51.035673,"longitude":18.5985286,"order":{"id":"adf299bb-59bd-4cf9-9db7-2af892b59f75","item":"dis parturient montes nascetur ridiculus mus"}},
{"id":195,"pincode":550758,"latitude":25.6765837,"longitude":-100.2602364,"order":{"id":"f843ed60-f434-433d-86a7-19dffab3600e","item":"vestibulum velit id pretium"}},
{"id":196,"pincode":145127,"latitude":"54.01657","longitude":"-124.01982","order":{"id":"c3963bc6-baa3-47c5-b108-595cce138c9f","item":"et tempus semper est quam pharetra"}},
{"id":197,"pincode":476794,"latitude":61.1174188,"longitude":28.5010914,"order":{"id":"84617641-2afc-49e1-8082-adfa7a863142","item":"praesent lectus"}},
{"id":198,"pincode":306709,"latitude":31.015709,"longitude":117.205832,"order":{"id":"df464282-3bef-4415-bd01-db7b9e124e55","item":"non interdum"}},
{"id":199,"pincode":157453,"latitude":28.572029,"longitude":109.482078,"order":{"id":"9dd8886a-c68a-4c25-b85a-2b195df3d507","item":"habitasse"}},
{"id":200,"pincode":340079,"latitude":11.7942415,"longitude":8.8390321,"order":{"id":"ef71d221-de39-4dc3-bd64-b4d6396c2a79","item":"non velit"}},
{"id":201,"pincode":365530,"latitude":21.192457,"longitude":110.397656,"order":{"id":"55e3742c-41fb-4745-959e-81d82927f1bd","item":"elementum ligula"}},
{"id":202,"pincode":552449,"latitude":25.941937,"longitude":117.365052,"order":{"id":"9e138aa1-c315-45d1-bc5a-d2a3a4e3e738","item":"rhoncus aliquet"}},
{"id":203,"pincode":160654,"latitude":-31.646394,"longitude":-63.760259,"order":{"id":"5066909a-074c-49a8-9947-9d2b274b65ae","item":"vivamus tortor duis mattis egestas"}},
{"id":204,"pincode":507745,"latitude":42.9786866,"longitude":141.8352113,"order":{"id":"ecfc4862-6069-464e-97b7-33d4602136df","item":"vulputate elementum nullam varius nulla"}},
{"id":205,"pincode":392831,"latitude":52.664639,"longitude":35.8136035,"order":{"id":"06f9f3a3-9d23-4943-8e83-1a401e727c57","item":"congue"}},
{"id":206,"pincode":481980,"latitude":18.30987,"longitude":-77.901428,"order":{"id":"cf44ca52-2874-4271-829f-716194b17c9e","item":"odio porttitor id consequat in"}},
{"id":207,"pincode":497179,"latitude":43.1508732,"longitude":-79.2056361,"order":{"id":"1b429497-c73d-450e-bb2b-653b173dbb91","item":"aliquet ultrices erat tortor sollicitudin mi"}},
{"id":208,"pincode":330517,"latitude":35.0133672,"longitude":132.2241106,"order":{"id":"ae213b49-c03f-46d8-8692-3dc8b2c3a673","item":"mattis pulvinar nulla"}},
{"id":209,"pincode":285527,"latitude":59.4051316,"longitude":13.5451563,"order":{"id":"82cdcbc4-65ea-4a07-b63d-82b0f00a470b","item":"imperdiet nullam orci pede venenatis non"}},
{"id":210,"pincode":214683,"latitude":-21.0156896,"longitude":-48.7794089,"order":{"id":"418fcd5e-839c-475e-ba5d-f59cd40d887b","item":"pellentesque quisque porta volutpat"}},
{"id":211,"pincode":154627,"latitude":52.5470847,"longitude":6.0237938,"order":{"id":"a10f5911-2392-4721-8646-7dc53df065e1","item":"a"}},
{"id":212,"pincode":268297,"latitude":6.6693528,"longitude":9.1622211,"order":{"id":"74665b9a-4464-4171-9e2d-83befb413ed0","item":"erat curabitur"}},
{"id":213,"pincode":172032,"latitude":-24.2530306,"longitude":-49.7106625,"order":{"id":"4a43a05e-ed15-4c35-ab16-7dda7c8057b7","item":"tempor"}},
{"id":214,"pincode":469168,"latitude":27.867118,"longitude":116.18757,"order":{"id":"83297698-6b7a-4351-af7f-d107716ccd2e","item":"morbi vestibulum velit id pretium iaculis"}},
{"id":215,"pincode":359054,"latitude":49.430258,"longitude":17.8571512,"order":{"id":"cd16c00c-ed4e-492a-a052-77805f59fd80","item":"semper porta volutpat quam pede lobortis"}},
{"id":216,"pincode":494327,"latitude":33.97,"longitude":-118.07,"order":{"id":"56ae3f61-6969-4f43-aae1-5442c661d063","item":"aliquam sit amet diam"}},
{"id":217,"pincode":141073,"latitude":-7.6031332,"longitude":108.5344435,"order":{"id":"15cd679e-0608-465f-9987-2bd840e01f59","item":"nulla"}},
{"id":218,"pincode":324635,"latitude":41.733296,"longitude":125.5668499,"order":{"id":"33e0ed4d-e8e8-45aa-bb58-752329655ce4","item":"nulla integer pede justo"}},
{"id":219,"pincode":210249,"latitude":31.4151366,"longitude":51.5683274,"order":{"id":"8f3b7f8b-8523-4e80-9557-6a7ac9bdcedd","item":"ipsum primis in faucibus orci"}},
{"id":220,"pincode":484644,"latitude":"36.80752","longitude":"43.03831","order":{"id":"96decbb8-0c38-4482-9f4f-2991d72bfde9","item":"pede lobortis ligula sit"}},
{"id":221,"pincode":340330,"latitude":17.5767798,"longitude":104.5946633,"order":{"id":"643c8518-b993-48fa-b87e-1a067cb96a32","item":"sapien arcu"}},
{"id":222,"pincode":497026,"latitude":5.9840985,"longitude":116.0761121,"order":{"id":"2c30a28b-3807-4740-9a36-42f31b13d005","item":"hac habitasse platea dictumst morbi"}},
{"id":223,"pincode":317360,"latitude":59.6443858,"longitude":33.541032,"order":{"id":"d9046e23-060d-4552-b141-6619f3ec90cc","item":"turpis integer aliquet massa"}},
{"id":224,"pincode":507299,"latitude":38.6030067,"longitude":140.3923791,"order":{"id":"328d9c7e-3da6-452e-ae18-dc7bd8cd4bca","item":"in"}},
{"id":225,"pincode":241814,"latitude":47.594843,"longitude":1.3155028,"order":{"id":"6b0d92e9-1b73-4858-a38f-b3a736c4785d","item":"praesent blandit nam nulla integer"}},
{"id":226,"pincode":195259,"latitude":23.276324,"longitude":113.57676,"order":{"id":"f2fbc1a0-636e-43d8-a3e6-9d5e7e57334e","item":"pretium nisl ut volutpat"}},
{"id":227,"pincode":520055,"latitude":-8.681402,"longitude":115.1957203,"order":{"id":"4f7b227d-e685-4de8-b83c-f8e5959b8661","item":"felis ut at dolor quis odio"}},
{"id":228,"pincode":138646,"latitude":33.5142841,"longitude":36.3741834,"order":{"id":"ca4ce4e9-bc96-4681-bf10-bb56a0bbbabe","item":"dui"}},
{"id":229,"pincode":389354,"latitude":47.0914911,"longitude":40.7454595,"order":{"id":"83ed4ea3-c868-4524-ba7f-fa9d683336ec","item":"quam pede lobortis ligula"}},
{"id":230,"pincode":555424,"latitude":-7.45,"longitude":108.033333,"order":{"id":"e71281bb-f858-4113-a87c-a43de97d8fd8","item":"tristique tortor eu"}},
{"id":231,"pincode":105951,"latitude":23.681774,"longitude":113.056042,"order":{"id":"51e854f1-c80d-4afc-ae7e-a890bace8f16","item":"pede justo eu"}},
{"id":232,"pincode":483432,"latitude":-6.3929812,"longitude":-79.8226708,"order":{"id":"ff89c8bb-0361-4a34-ba69-8ac55de3974d","item":"vitae ipsum aliquam non mauris morbi"}},
{"id":233,"pincode":290444,"latitude":13.1089876,"longitude":-59.4706823,"order":{"id":"2dd099f5-81bc-4af9-9c4d-2d4c436f9ff5","item":"nam nulla integer pede justo lacinia"}},
{"id":234,"pincode":102764,"latitude":23.105394,"longitude":113.874335,"order":{"id":"fe3b38f6-4644-4d75-a3fb-2a24c0e5885b","item":"a ipsum integer a nibh"}},
{"id":235,"pincode":565796,"latitude":17.1056791,"longitude":120.4557309,"order":{"id":"a9457d7f-ba19-4ad2-907a-9bc76a3ea088","item":"felis eu sapien cursus"}},
{"id":236,"pincode":362169,"latitude":59.0897572,"longitude":9.6973548,"order":{"id":"6f38b92f-3ae3-4fcc-bb57-bb0cb159394c","item":"augue"}},
{"id":237,"pincode":237395,"latitude":18.1166668,"longitude":120.6999969,"order":{"id":"2b91fb38-d741-434d-8286-540cf0866d4d","item":"dignissim vestibulum vestibulum"}},
{"id":238,"pincode":102936,"latitude":18.4458276,"longitude":-96.3598367,"order":{"id":"aef26d29-11f7-4219-9c53-8c2fe07bc0f5","item":"phasellus in felis donec"}},
{"id":239,"pincode":110523,"latitude":62.2500936,"longitude":25.18352,"order":{"id":"0f3f172b-8918-40d7-b582-a009b00a0015","item":"aliquet massa id lobortis convallis tortor"}},
{"id":240,"pincode":138672,"latitude":34.5107638,"longitude":69.1173623,"order":{"id":"c62d4ea9-ed93-441d-84cd-fad81ffd51bb","item":"fusce consequat"}},
{"id":241,"pincode":153622,"latitude":38.033281,"longitude":22.1103462,"order":{"id":"945ca321-0d48-4a6d-809c-5d9731f1b1a7","item":"mauris lacinia sapien quis"}},
{"id":242,"pincode":137618,"latitude":34.23488,"longitude":108.250855,"order":{"id":"3383b4f5-f4f1-4acb-b571-d46858740079","item":"imperdiet et"}},
{"id":243,"pincode":441486,"latitude":-6.6597862,"longitude":107.7132895,"order":{"id":"bc01e04f-e2f4-4f46-a165-f829af8b081d","item":"maecenas tristique est et"}},
{"id":244,"pincode":387779,"latitude":8.1380673,"longitude":100.1255164,"order":{"id":"98be1022-6cea-4e54-adeb-05f9949b403d","item":"ac leo pellentesque ultrices mattis"}},
{"id":245,"pincode":514502,"latitude":25.435964,"longitude":119.110257,"order":{"id":"498c66e6-3319-47dc-a346-97e7670c143d","item":"amet"}},
{"id":246,"pincode":271473,"latitude":29.72277,"longitude":106.53519,"order":{"id":"5b16ac69-37ec-4967-9158-b0f6de6fd5c4","item":"mauris viverra diam vitae"}},
{"id":247,"pincode":594131,"latitude":-10.2530955,"longitude":123.5532073,"order":{"id":"e0454ac2-c460-4679-8140-339c14855c6f","item":"proin at turpis a"}},
{"id":248,"pincode":484751,"latitude":-11.24674,"longitude":-76.661598,"order":{"id":"cf961fa2-0655-4214-a5c8-d8597f14daaa","item":"at velit vivamus vel nulla"}},
{"id":249,"pincode":152472,"latitude":39.663147,"longitude":116.669972,"order":{"id":"5feba095-869c-4b25-b3a5-b6e5807f45fc","item":"adipiscing"}},
{"id":250,"pincode":409066,"latitude":44.634519,"longitude":41.9328118,"order":{"id":"544f00f3-a137-47e8-a66c-f513042ba5f9","item":"ultrices libero non"}},
{"id":251,"pincode":435541,"latitude":29.1513922,"longitude":31.1366715,"order":{"id":"f9fa9a13-2344-495d-8c36-1d642efb6b23","item":"vestibulum ante ipsum"}},
{"id":252,"pincode":183911,"latitude":32.478018,"longitude":117.167563,"order":{"id":"28408a76-15aa-4d81-ab11-f703a3af85c1","item":"posuere"}},
{"id":253,"pincode":256934,"latitude":40.6140785,"longitude":20.7778071,"order":{"id":"479cb3a7-167c-4b00-9307-41f1844af234","item":"ac"}},
{"id":254,"pincode":363254,"latitude":-23.0530355,"longitude":-46.3598167,"order":{"id":"04a5d7e5-44e9-494f-bc21-e82abcd66d4e","item":"quisque erat eros viverra"}},
{"id":255,"pincode":276324,"latitude":-8.0030419,"longitude":114.3103718,"order":{"id":"91288303-755a-43ae-850f-3474704eb6b6","item":"faucibus orci luctus"}},
{"id":256,"pincode":479881,"latitude":-31.1394114,"longitude":-64.2966774,"order":{"id":"3187b41b-4823-429d-9258-ef914195f707","item":"a nibh in quis justo"}},
{"id":257,"pincode":344922,"latitude":5.9840985,"longitude":116.0761121,"order":{"id":"40666e59-630f-48d0-8548-e0cefab4230a","item":"curae nulla dapibus dolor"}},
{"id":258,"pincode":221274,"latitude":29.9193861,"longitude":73.0747872,"order":{"id":"e4076425-a3af-4efd-91c6-298299bd5441","item":"in congue etiam justo"}},
{"id":259,"pincode":489463,"latitude":43.981544,"longitude":87.504934,"order":{"id":"c230cbf5-c05a-49fe-a3e4-6e2870dde407","item":"pede libero quis"}},
{"id":260,"pincode":218405,"latitude":37.7213799,"longitude":-25.510372,"order":{"id":"a928190e-ea24-4948-a6f2-44f8367ab03e","item":"quam a"}},
{"id":261,"pincode":280358,"latitude":17.8759173,"longitude":101.6271544,"order":{"id":"a5dcc2b9-a375-4b3f-9bf9-0f6459abfe02","item":"sed augue aliquam erat volutpat in"}},
{"id":262,"pincode":180155,"latitude":32.388662,"longitude":119.39402,"order":{"id":"4d829986-4fe1-4528-9262-9f2e14f93943","item":"est et"}},
{"id":263,"pincode":471490,"latitude":53.9384912,"longitude":36.6848996,"order":{"id":"f57d83d1-6f83-4c97-8385-ecd576d0f6df","item":"laoreet ut rhoncus aliquet pulvinar sed"}},
{"id":264,"pincode":579331,"latitude":20.9450221,"longitude":-97.3692131,"order":{"id":"387f0d5e-ff8d-4704-8801-9f6ca5c7c63a","item":"at diam nam"}},
{"id":265,"pincode":467054,"latitude":41.8036152,"longitude":20.9182981,"order":{"id":"ea52673b-666f-4cac-b5e6-f45f8c1b3412","item":"mi integer ac neque duis bibendum"}},
{"id":266,"pincode":393858,"latitude":62.153018,"longitude":-7.1475829,"order":{"id":"8f99aeab-b849-4eae-aca7-7e91784ea129","item":"sit amet nulla"}},
{"id":267,"pincode":361330,"latitude":"46.25006","longitude":"-83.5666","order":{"id":"27de6518-bb4c-4a00-911e-50bebf6ac21c","item":"donec odio justo sollicitudin ut"}},
{"id":268,"pincode":328880,"latitude":23.2654395,"longitude":113.3547602,"order":{"id":"db82c3be-47fd-496f-b7ba-d4b4259ccda9","item":"non mattis pulvinar nulla pede ullamcorper"}},
{"id":269,"pincode":437136,"latitude":10.5423489,"longitude":122.9635773,"order":{"id":"46ffe87c-0def-46e4-9fb9-23ef28b1229b","item":"nunc purus phasellus in felis"}},
{"id":270,"pincode":292435,"latitude":38.994349,"longitude":-1.8585424,"order":{"id":"0c2982a2-e111-4e49-b2fc-7f52b37148c2","item":"mauris vulputate elementum nullam"}},
{"id":271,"pincode":458104,"latitude":42.4782102,"longitude":78.3955986,"order":{"id":"6883870e-93bf-4e7b-84c6-b06e00862ae5","item":"posuere cubilia curae duis"}},
{"id":272,"pincode":491347,"latitude":-7.4873219,"longitude":111.4156647,"order":{"id":"6cea44af-81c4-4b5f-8756-1b183a192551","item":"varius ut blandit"}},
{"id":273,"pincode":564386,"latitude":49.7180346,"longitude":35.1228303,"order":{"id":"79c5e02a-0dfa-49cd-b13f-31cabcb68b88","item":"sit amet eros suspendisse accumsan tortor"}},
{"id":274,"pincode":186839,"latitude":53.8257473,"longitude":39.556825,"order":{"id":"cdaf26c2-203b-4442-86a6-eb89a8f58256","item":"mauris eget massa tempor"}},
{"id":275,"pincode":598990,"latitude":-16.3846284,"longitude":-51.2213044,"order":{"id":"b63ec106-d3a5-4707-9165-d0c037f73555","item":"tortor id"}},
{"id":276,"pincode":323923,"latitude":48.2441219,"longitude":28.2765218,"order":{"id":"52c8a50b-7298-4d5c-af35-04ae2474b1c2","item":"sollicitudin ut suscipit"}},
{"id":277,"pincode":185644,"latitude":45.5426102,"longitude":40.4010024,"order":{"id":"1d47bc6c-1202-40fd-83f1-db43df86a8bb","item":"morbi vel lectus in quam"}},
{"id":278,"pincode":212062,"latitude":50.7338713,"longitude":16.0708309,"order":{"id":"b7df2c0e-c840-4c98-8682-1c45042eef62","item":"dui vel nisl duis ac"}},
{"id":279,"pincode":467597,"latitude":14.4712676,"longitude":121.0441201,"order":{"id":"dff88f38-18a9-4a50-8121-0c9c56e0282f","item":"ipsum"}},
{"id":280,"pincode":306935,"latitude":31.4478222,"longitude":12.9838564,"order":{"id":"eca9e3dc-a784-4101-8ebd-cd8648642432","item":"potenti cras in purus eu"}},
{"id":281,"pincode":522851,"latitude":44.6658941,"longitude":20.9335169,"order":{"id":"e91cc4bd-9587-4327-b76c-4f454b8c5eac","item":"fusce"}},
{"id":282,"pincode":334244,"latitude":33.6781963,"longitude":-118.0127534,"order":{"id":"e2bd100c-c6f3-4065-a59b-d4f48837b089","item":"amet eros suspendisse accumsan tortor quis"}},
{"id":283,"pincode":440008,"latitude":9.338682,"longitude":123.291063,"order":{"id":"d5138af4-98c2-4239-8bd0-6f6a469485ae","item":"turpis"}},
{"id":284,"pincode":205748,"latitude":38.8974442,"longitude":-77.0296868,"order":{"id":"a547dc40-e82d-4fcf-ad93-a0caaad3aa57","item":"etiam faucibus cursus urna"}},
{"id":285,"pincode":421102,"latitude":62.3565057,"longitude":50.0762432,"order":{"id":"db7ca652-d800-4002-bbd5-acdb3409884b","item":"in consequat"}},
{"id":286,"pincode":236812,"latitude":36.6107151,"longitude":27.1320962,"order":{"id":"f7beb31d-1ee8-408b-9fe7-a04db6d5515c","item":"vestibulum quam"}},
{"id":287,"pincode":470177,"latitude":14.7902447,"longitude":-90.9740093,"order":{"id":"ecc713ff-5754-4b9c-94ea-f37622695520","item":"condimentum"}},
{"id":288,"pincode":220279,"latitude":38.6093672,"longitude":-8.887687,"order":{"id":"ac65ebe8-febf-4eaf-a780-3a542593b1af","item":"ultrices phasellus id"}},
{"id":289,"pincode":395798,"latitude":22.0983236,"longitude":-79.7231612,"order":{"id":"54070491-7cff-4898-a37f-ae6cf5b040ed","item":"sodales"}},
{"id":290,"pincode":436771,"latitude":57.903389,"longitude":53.715125,"order":{"id":"11294749-568e-457a-a602-8f518043faff","item":"consequat metus sapien ut"}},
{"id":291,"pincode":398574,"latitude":-0.7140022,"longitude":-80.109357,"order":{"id":"0a09a898-2534-4f26-a458-a922a6687c01","item":"nulla"}},
{"id":292,"pincode":423026,"latitude":41.5678915,"longitude":-8.4219601,"order":{"id":"fe614f73-5dc9-417f-a7f9-4cebfd912aac","item":"orci luctus et"}},
{"id":293,"pincode":335987,"latitude":44.387458,"longitude":-69.586443,"order":{"id":"c96ee597-0f10-4f4d-a688-c91e3cf67527","item":"lobortis convallis tortor risus"}},
{"id":294,"pincode":547902,"latitude":36.4707823,"longitude":140.5615795,"order":{"id":"8f332aca-974c-4105-b44b-0eff0b330f61","item":"duis faucibus accumsan odio"}},
{"id":295,"pincode":573984,"latitude":28.4499078,"longitude":68.4494842,"order":{"id":"25ff6daf-888f-44f4-b3ea-904dd3bd8f0b","item":"in lacus curabitur at"}},
{"id":296,"pincode":271731,"latitude":-28.4836381,"longitude":28.8480284,"order":{"id":"cf29d218-9944-44a7-83f1-55a4917df303","item":"lobortis vel dapibus at diam"}},
{"id":297,"pincode":177370,"latitude":27.08556,"longitude":112.949437,"order":{"id":"b36adbf8-2b21-4d59-844a-436c69d4009c","item":"luctus et"}},
{"id":298,"pincode":147006,"latitude":-26.8214685,"longitude":-55.0199394,"order":{"id":"54d2b99d-7b1e-49aa-976d-da10e251a417","item":"donec ut dolor morbi vel lectus"}},
{"id":299,"pincode":147970,"latitude":50.2836918,"longitude":24.6345078,"order":{"id":"8aa7142b-c516-48ef-88f0-33c5b2d51db3","item":"nunc donec quis orci"}},
{"id":300,"pincode":420258,"latitude":46.7976469,"longitude":16.233744,"order":{"id":"a7ea5029-2fc7-4ede-9857-0b85a85be41a","item":"morbi a"}},
{"id":301,"pincode":579698,"latitude":38.963066,"longitude":100.177294,"order":{"id":"c46d8b13-6202-4038-b4fa-addffe0dc6fa","item":"adipiscing elit proin interdum"}},
{"id":302,"pincode":454480,"latitude":10.6626096,"longitude":122.3214575,"order":{"id":"6ad4db30-7021-422b-96b1-babac4df9fca","item":"viverra"}},
{"id":303,"pincode":501238,"latitude":45.271697,"longitude":-66.0549467,"order":{"id":"a0d1f681-c34a-4fd8-8c72-b992dacf71ad","item":"ac"}},
{"id":304,"pincode":561470,"latitude":"-8.0146","longitude":"111.9856","order":{"id":"cee960b7-229a-44a8-8a82-c2dadc3840c1","item":"ut mauris eget"}},
{"id":305,"pincode":486516,"latitude":6.1097207,"longitude":102.2462087,"order":{"id":"e29e69be-e06b-4d29-b1e2-14c2b953c528","item":"erat"}},
{"id":306,"pincode":460110,"latitude":-7.1221059,"longitude":106.5701927,"order":{"id":"2713e6d4-bfc8-45b1-8f37-ed9c36612112","item":"dictumst"}},
{"id":307,"pincode":421148,"latitude":-32.8676273,"longitude":-68.8225775,"order":{"id":"bdc5b26b-bced-4505-abb0-8c47d41b602e","item":"eu est congue elementum in"}},
{"id":308,"pincode":187754,"latitude":-14.67278,"longitude":-75.225304,"order":{"id":"f44a5b5b-2912-40e5-8b2f-a243d4272613","item":"a ipsum"}},
{"id":309,"pincode":537019,"latitude":6.893618,"longitude":125.164477,"order":{"id":"f0f473c4-ae2a-4a0d-9883-9559486d3034","item":"sapien cursus vestibulum proin eu mi"}},
{"id":310,"pincode":364273,"latitude":36.320344,"longitude":113.536047,"order":{"id":"03b0a089-0eba-4b27-a01b-32a1d2ace8d8","item":"porttitor pede justo eu massa donec"}},
{"id":311,"pincode":275143,"latitude":32.9381361,"longitude":119.5968536,"order":{"id":"9646e553-9032-4343-b710-4f890dada97a","item":"est"}},
{"id":312,"pincode":128956,"latitude":44.874,"longitude":20.6475673,"order":{"id":"dc409e9b-cb80-4a27-8751-8cfc845780ce","item":"consequat nulla nisl nunc"}},
{"id":313,"pincode":423864,"latitude":20.5593774,"longitude":-101.2049226,"order":{"id":"f07338fd-0b24-4bd0-a2eb-9a80ac46b6f4","item":"venenatis tristique fusce congue diam"}},
{"id":314,"pincode":279137,"latitude":54.4762327,"longitude":26.3981493,"order":{"id":"7afd4306-4ef5-432c-ac99-a322f707b812","item":"quis odio consequat varius integer"}},
{"id":315,"pincode":336790,"latitude":41.2101265,"longitude":-7.7869527,"order":{"id":"6ed10ab0-d493-4014-8173-71b6f9f55114","item":"hendrerit at vulputate vitae nisl aenean"}},
{"id":316,"pincode":189032,"latitude":26.634672,"longitude":100.23509,"order":{"id":"8ff9b52d-3c07-483d-a400-0d98ac78b3a1","item":"eu massa donec"}},
{"id":317,"pincode":566804,"latitude":38.5642115,"longitude":-9.0940605,"order":{"id":"2d4dd9fd-da25-4647-a379-783cff9df6e9","item":"lobortis convallis tortor"}},
{"id":318,"pincode":397537,"latitude":"-10.5411","longitude":"123.2875","order":{"id":"6949620e-a656-47e4-8994-2d95a26b6576","item":"amet nulla quisque arcu libero rutrum"}},
{"id":319,"pincode":285532,"latitude":46.3194856,"longitude":-0.4546217,"order":{"id":"7f4a5086-343f-4170-a37f-2e03b5d86f1b","item":"in libero"}},
{"id":320,"pincode":175459,"latitude":49.7165109,"longitude":13.0706469,"order":{"id":"9a723ad0-2bfe-41fd-99b1-722b998f975d","item":"nulla neque libero convallis eget"}},
{"id":321,"pincode":486506,"latitude":13.9300945,"longitude":120.9522977,"order":{"id":"55af1ad3-2899-4cd8-ba9a-e1f79a8dd866","item":"in imperdiet et"}},
{"id":322,"pincode":556080,"latitude":36.1030036,"longitude":-86.8722146,"order":{"id":"de5a6df3-869e-4bdb-8662-b9958953d2e4","item":"vel est"}},
{"id":323,"pincode":502760,"latitude":23.681774,"longitude":113.056042,"order":{"id":"f1993fcf-237b-4fc1-ac56-35a29c343896","item":"rutrum neque aenean auctor gravida sem"}},
{"id":324,"pincode":162079,"latitude":41.634449,"longitude":22.4665446,"order":{"id":"4ea11a64-b610-4d99-97e0-c4bd7db60fc9","item":"etiam justo etiam"}},
{"id":325,"pincode":174097,"latitude":33.9498503,"longitude":-117.636429,"order":{"id":"aa171ded-d727-40a6-9938-f6e7a42bed80","item":"arcu libero rutrum ac lobortis vel"}},
{"id":326,"pincode":417765,"latitude":56.6338771,"longitude":47.8109854,"order":{"id":"b4923fb6-f254-4eff-b3a2-1419d522a23f","item":"nulla pede ullamcorper"}},
{"id":327,"pincode":468514,"latitude":37.8336281,"longitude":-122.2029832,"order":{"id":"026e8545-184e-490f-a840-248ae713461c","item":"ipsum aliquam non mauris"}},
{"id":328,"pincode":411229,"latitude":20.3983828,"longitude":104.2293297,"order":{"id":"babf3a30-c80f-4242-b8c9-dda2eac3dda5","item":"tortor duis mattis egestas metus aenean"}},
{"id":329,"pincode":526642,"latitude":-11.4077673,"longitude":-69.4887886,"order":{"id":"78f46523-e72e-4cb4-8c0a-2e6061ecc215","item":"tincidunt nulla"}},
{"id":330,"pincode":316402,"latitude":17.193029,"longitude":21.58589,"order":{"id":"36551e86-668c-4e31-be43-d62689c9799a","item":"eleifend pede libero quis orci nullam"}},
{"id":331,"pincode":432145,"latitude":52.2248754,"longitude":36.1135722,"order":{"id":"17fec1eb-8bee-45c4-9136-2fb461721e57","item":"turpis enim blandit"}},
{"id":332,"pincode":580276,"latitude":52.20775,"longitude":21.077623,"order":{"id":"07b087ae-213e-4893-a2ab-f4616429c4cc","item":"integer a nibh in"}},
{"id":333,"pincode":289115,"latitude":36.091367,"longitude":120.494295,"order":{"id":"462d2b87-9673-4e4c-ab89-4c80332540a7","item":"luctus et ultrices posuere"}},
{"id":334,"pincode":547302,"latitude":-6.1671806,"longitude":106.8340622,"order":{"id":"6d464a20-988b-4ef8-ac11-cdc66fdcc6ef","item":"platea dictumst maecenas ut massa"}},
{"id":335,"pincode":290150,"latitude":13.8156076,"longitude":102.6675575,"order":{"id":"00811d2e-5f60-4d08-a52b-48eb5f690ca7","item":"ultrices aliquet maecenas"}},
{"id":336,"pincode":461210,"latitude":26.960479,"longitude":114.762098,"order":{"id":"4633f72d-3e0b-4b99-9802-0311c6668ecf","item":"blandit ultrices enim"}},
{"id":337,"pincode":171389,"latitude":13.9483457,"longitude":100.791665,"order":{"id":"34b77e38-d220-4862-84dc-c2724d888091","item":"at dolor quis odio consequat varius"}},
{"id":338,"pincode":271516,"latitude":21.850061,"longitude":111.197459,"order":{"id":"7a4aaaa2-dc66-46b8-a076-1ce357c13167","item":"placerat"}},
{"id":339,"pincode":164380,"latitude":-6.9122585,"longitude":113.8257538,"order":{"id":"86ed6c36-bd50-4d98-b64d-cc34611eb76a","item":"metus vitae ipsum aliquam"}},
{"id":340,"pincode":370438,"latitude":45.4556955,"longitude":4.4135431,"order":{"id":"cf752fad-8ae9-4aba-ad8c-1b8d27529243","item":"etiam pretium iaculis justo"}},
{"id":341,"pincode":315114,"latitude":29.276219,"longitude":90.081241,"order":{"id":"f257048f-04aa-4a93-9cf7-4b4e9a4599fe","item":"quisque erat eros viverra eget congue"}},
{"id":342,"pincode":377382,"latitude":49.6877756,"longitude":6.3485626,"order":{"id":"5dc429fd-034e-4070-b4c2-febd9f222ce2","item":"placerat ante"}},
{"id":343,"pincode":462091,"latitude":50.1597084,"longitude":21.955679,"order":{"id":"64011d7f-6a2d-4f50-9bac-30e954df3eec","item":"ut nunc vestibulum ante ipsum"}},
{"id":344,"pincode":573623,"latitude":36.389401,"longitude":120.44716,"order":{"id":"6e3eb9bf-64de-46d8-b04e-931d2aba1183","item":"justo sollicitudin ut suscipit a feugiat"}},
{"id":345,"pincode":516327,"latitude":-23.3213892,"longitude":-46.5881754,"order":{"id":"2f94b47a-4d3d-4935-b9e2-4be808e7b4a0","item":"ultrices posuere cubilia"}},
{"id":346,"pincode":248566,"latitude":48.4089744,"longitude":135.123385,"order":{"id":"5c987368-bde5-4d07-b0ae-93afb6e90dbf","item":"tempus vivamus in felis"}},
{"id":347,"pincode":530374,"latitude":56.2270517,"longitude":15.3137401,"order":{"id":"67db5c17-83f2-490c-9e8e-d7f978d365a4","item":"nisi vulputate"}},
{"id":348,"pincode":467604,"latitude":-12.1943138,"longitude":44.3514414,"order":{"id":"02c7e9ca-7c9f-4547-b8cf-2cd762e77de4","item":"nulla sed vel enim sit"}},
{"id":349,"pincode":271414,"latitude":47.752551,"longitude":27.9413338,"order":{"id":"a6bfe11a-4a2b-4521-b552-8f6b532fe384","item":"massa volutpat convallis morbi odio"}},
{"id":350,"pincode":255276,"latitude":28.563927,"longitude":108.50387,"order":{"id":"7a41ac0a-a338-44b6-a32a-99ec55d2dd28","item":"odio justo"}},
{"id":351,"pincode":132414,"latitude":-7.7013097,"longitude":113.8882172,"order":{"id":"93d4ca1b-55ee-46e0-ba68-6ec8a6a0dc0b","item":"at dolor quis odio consequat"}},
{"id":352,"pincode":459529,"latitude":8.0828988,"longitude":-80.8460822,"order":{"id":"95a93b3b-5c9d-43dd-b333-033653d16b38","item":"massa volutpat"}},
{"id":353,"pincode":503026,"latitude":"35.90556","longitude":"14.47611","order":{"id":"a94cd391-7d2d-482a-946f-ee71a4a91bbb","item":"duis consequat dui nec nisi volutpat"}},
{"id":354,"pincode":371937,"latitude":-7.2634241,"longitude":109.399141,"order":{"id":"a2dbe1c3-9d61-4db6-8062-7ea48e74a863","item":"vivamus metus arcu"}},
{"id":355,"pincode":543387,"latitude":-6.334631,"longitude":106.9093,"order":{"id":"2d1ba371-3962-4d29-9ac2-e67124a4f723","item":"ultrices erat tortor sollicitudin"}},
{"id":356,"pincode":332097,"latitude":39.266576,"longitude":77.597552,"order":{"id":"e429bf19-3ab2-4a17-be96-743508a213b4","item":"mus vivamus"}},
{"id":357,"pincode":332097,"latitude":30.352134,"longitude":114.720925,"order":{"id":"7cd8585b-e0bd-429c-ab53-5f2728976d30","item":"vivamus tortor duis"}},
{"id":358,"pincode":579240,"latitude":49.0122792,"longitude":17.2425732,"order":{"id":"ea7ca45b-b70a-448d-bfe9-a1a8ffba00d9","item":"venenatis non"}},
{"id":359,"pincode":247631,"latitude":58.9412578,"longitude":23.5826177,"order":{"id":"ab3a1619-fd00-4f24-bcd7-baea8e722c9b","item":"in quis justo"}},
{"id":360,"pincode":406104,"latitude":6.7001345,"longitude":7.3246534,"order":{"id":"836d934d-926c-4e2e-b73f-3a96e2ccc947","item":"purus eu magna vulputate luctus cum"}},
{"id":361,"pincode":279126,"latitude":"34.66667","longitude":"61.06667","order":{"id":"2b8597cc-f256-4d98-aa9b-f3af58aa9c2d","item":"mattis egestas metus aenean fermentum donec"}},
{"id":362,"pincode":352186,"latitude":53.1042303,"longitude":15.0760167,"order":{"id":"66ef1b4d-455f-407a-86d2-59754a856d7a","item":"luctus et"}},
{"id":363,"pincode":354351,"latitude":29.696195,"longitude":106.79542,"order":{"id":"7f197323-3346-4179-8c30-38d0aa29811c","item":"porta volutpat quam pede lobortis ligula"}},
{"id":364,"pincode":445014,"latitude":40.6140785,"longitude":20.7778071,"order":{"id":"d6c73a85-184f-45ed-a0c5-b120a77d8cf4","item":"porta"}},
{"id":365,"pincode":305344,"latitude":13.6991663,"longitude":123.5183334,"order":{"id":"927e9bf1-29c1-4a2f-a962-d9f58486515f","item":"vitae"}},
{"id":366,"pincode":461489,"latitude":24.5412145,"longitude":67.6288048,"order":{"id":"4a4db9f0-5b75-4cb9-b038-29a0b326db27","item":"lacus curabitur at ipsum"}},
{"id":367,"pincode":152209,"latitude":-29.2950409,"longitude":-51.5008921,"order":{"id":"3036c3ab-7085-46bf-81e8-1e5224893bb9","item":"non ligula pellentesque ultrices"}},
{"id":368,"pincode":176998,"latitude":34.748808,"longitude":113.6656069,"order":{"id":"5d39ba9a-ccdd-49d6-91df-c326be97169f","item":"pretium"}},
{"id":369,"pincode":423025,"latitude":48.689836,"longitude":6.17445,"order":{"id":"47b068ca-a3b9-4438-8fde-2101b5441e65","item":"fringilla rhoncus mauris enim leo rhoncus"}},
{"id":370,"pincode":329991,"latitude":52.3620932,"longitude":16.8088394,"order":{"id":"c8a28d2d-8bc1-4452-8916-631ac7cacb91","item":"donec semper"}},
{"id":371,"pincode":420095,"latitude":25.386379,"longitude":114.922922,"order":{"id":"1735dbbf-a4eb-40e5-aaf2-79217dc50bfc","item":"nulla tellus in"}},
{"id":372,"pincode":390217,"latitude":-10.8416198,"longitude":39.6285874,"order":{"id":"e6e44a9d-e0c3-4c40-8839-f27952cacc04","item":"at"}},
{"id":373,"pincode":363074,"latitude":-7.3676762,"longitude":112.605342,"order":{"id":"a0b51664-26f3-41ea-a34a-c65b656daa45","item":"ut rhoncus aliquet pulvinar"}},
{"id":374,"pincode":363103,"latitude":48.7663087,"longitude":2.4119232,"order":{"id":"929dccc1-6c57-484c-983b-4bba865b93b0","item":"nec molestie sed justo pellentesque"}},
{"id":375,"pincode":175899,"latitude":16.7011823,"longitude":121.5954324,"order":{"id":"35090378-a266-4b5d-94fe-b0f54bcdf0bd","item":"vestibulum sed magna at nunc commodo"}},
{"id":376,"pincode":215718,"latitude":40.4869744,"longitude":-3.6116494,"order":{"id":"00a5f687-03ae-4e4b-a203-83ae64c8c648","item":"aliquam quis turpis eget elit"}},
{"id":377,"pincode":138266,"latitude":32.5539412,"longitude":130.4103077,"order":{"id":"f36d2bd9-0f53-42ba-81a5-656eb6fa37f6","item":"arcu"}},
{"id":378,"pincode":337707,"latitude":54.939834,"longitude":20.1270433,"order":{"id":"2736de09-8d6b-4dba-bf3f-f405b34ab1be","item":"ac"}},
{"id":379,"pincode":445343,"latitude":24.614944,"longitude":104.740588,"order":{"id":"eb8ee680-1ed1-4d88-9b1f-b932b8f8eed0","item":"blandit mi in porttitor"}},
{"id":380,"pincode":200333,"latitude":42.1589754,"longitude":19.494331,"order":{"id":"3223fe4d-e3b5-4a75-99e4-f46ff5a8236f","item":"lacus"}},
{"id":381,"pincode":338248,"latitude":13.9619203,"longitude":100.5461093,"order":{"id":"e455317d-9e06-49a9-ac7a-f2d5c7476b40","item":"integer a nibh in quis"}},
{"id":382,"pincode":155590,"latitude":6.485702,"longitude":-75.393831,"order":{"id":"dcef4430-30cf-45cd-a882-0f528bbd248f","item":"aliquam quis turpis eget elit sodales"}},
{"id":383,"pincode":498403,"latitude":30.453667,"longitude":114.872199,"order":{"id":"d622cab1-cd6c-4c3b-9c81-a490a87d5cf2","item":"dui luctus rutrum nulla tellus in"}},
{"id":384,"pincode":203157,"latitude":10.4818973,"longitude":124.0211737,"order":{"id":"a0352830-c4a2-483a-b77c-bfd115a83f54","item":"magna ac consequat metus"}},
{"id":385,"pincode":180358,"latitude":45.6429121,"longitude":29.3753657,"order":{"id":"dd8cc3af-96d0-46bd-ad4a-77272651c21c","item":"interdum mauris non"}},
{"id":386,"pincode":128786,"latitude":45.6592536,"longitude":40.7666934,"order":{"id":"a05dc458-2724-4b4b-b74d-d379cce5934d","item":"magna vulputate luctus cum sociis"}},
{"id":387,"pincode":425146,"latitude":-2.2875948,"longitude":139.6044141,"order":{"id":"5619a038-4a5e-459b-81a9-6eeecd2b6c6d","item":"eget tempus vel pede morbi porttitor"}},
{"id":388,"pincode":425427,"latitude":58.4705978,"longitude":41.5474702,"order":{"id":"7c4a2f4b-6edb-4b6b-b057-1cee932a01dc","item":"et ultrices"}},
{"id":389,"pincode":523860,"latitude":"43.34041","longitude":"44.01868","order":{"id":"32562bf9-7b4b-40e6-a697-92153eb92d4a","item":"vestibulum aliquet ultrices erat tortor sollicitudin"}},
{"id":390,"pincode":390553,"latitude":27.5632781,"longitude":68.2167517,"order":{"id":"26826811-41c0-4645-abb8-fa15c5313ac4","item":"nibh in quis"}},
{"id":391,"pincode":338041,"latitude":17.1238845,"longitude":-61.8233706,"order":{"id":"c1e267b4-bd19-485f-be42-337dc058e5f3","item":"duis mattis"}},
{"id":392,"pincode":324402,"latitude":-7.025202,"longitude":107.5259078,"order":{"id":"2ad09d0a-7879-4214-a9fa-13112ea849d1","item":"consequat ut nulla sed"}},
{"id":393,"pincode":513796,"latitude":23.875208,"longitude":112.542428,"order":{"id":"c7091ed9-0925-46c7-810a-3c86b1ef7831","item":"sit amet cursus id"}},
{"id":394,"pincode":172015,"latitude":21.2635582,"longitude":-78.1507423,"order":{"id":"8e6ecdb2-bb0f-4489-91b8-0327357709ab","item":"cubilia"}},
{"id":395,"pincode":250077,"latitude":38.1454503,"longitude":-7.7618365,"order":{"id":"94137ccc-4682-4a13-ab21-43dcc42a303d","item":"et"}},
{"id":396,"pincode":432749,"latitude":38.0818216,"longitude":140.0392974,"order":{"id":"088c67ca-8cd1-4c5c-97bf-f985db22afb3","item":"metus"}},
{"id":397,"pincode":355889,"latitude":37.0348033,"longitude":138.2465787,"order":{"id":"dc4f05f3-b0a2-46b5-8fba-e211e5a6f412","item":"blandit ultrices enim lorem"}},
{"id":398,"pincode":523514,"latitude":7.7906768,"longitude":4.8002333,"order":{"id":"54354a7a-4f52-417b-a8c0-02fbfee36c8d","item":"in consequat ut"}},
{"id":399,"pincode":521211,"latitude":48.7078478,"longitude":44.5139052,"order":{"id":"9857475d-a7b0-4d14-b3a7-940afe57ee99","item":"nec condimentum neque"}},
{"id":400,"pincode":264155,"latitude":-4.0447102,"longitude":121.6511258,"order":{"id":"1ef68ef8-8d8e-4f80-8b45-20a62968ae62","item":"vel"}},
{"id":401,"pincode":362496,"latitude":39.3131016,"longitude":-9.1836701,"order":{"id":"f789eaea-8caf-4b91-8e46-a146e32efc1c","item":"a nibh in quis justo maecenas"}},
{"id":402,"pincode":309638,"latitude":39.9276561,"longitude":23.5860574,"order":{"id":"dfe2aa74-cddf-42ea-a44f-e3638741b002","item":"sapien"}},
{"id":403,"pincode":219878,"latitude":13.0748879,"longitude":120.7213113,"order":{"id":"a366435c-42e6-481e-8e47-974bc8514a43","item":"pretium iaculis justo in hac habitasse"}},
{"id":404,"pincode":385166,"latitude":59.6124387,"longitude":16.5198698,"order":{"id":"8447dd33-dda2-4dc9-a6b9-712bb35d36e0","item":"vivamus vestibulum sagittis sapien cum"}},
{"id":405,"pincode":539001,"latitude":44.6077025,"longitude":-79.4294664,"order":{"id":"7027b748-b6e8-49e3-b4ec-761c805d6cff","item":"turpis eget elit sodales"}},
{"id":406,"pincode":239241,"latitude":11.3799005,"longitude":5.6457951,"order":{"id":"cdddfca0-cb42-4279-a29e-4bdb9695c75d","item":"morbi vel"}},
{"id":407,"pincode":596756,"latitude":51.4986953,"longitude":-0.1550173,"order":{"id":"0c034bb5-15fc-4da2-9f07-271ea0eadc29","item":"consequat varius"}},
{"id":408,"pincode":413006,"latitude":28.590337,"longitude":105.697472,"order":{"id":"5be02c72-5a14-4f32-9f6a-54769fec3b95","item":"bibendum"}},
{"id":409,"pincode":384882,"latitude":40.104663,"longitude":114.150348,"order":{"id":"aa1f3e1c-4391-4f91-b956-bc6a341980ab","item":"diam nam tristique"}},
{"id":410,"pincode":598878,"latitude":60.383333,"longitude":134.45,"order":{"id":"e45a83aa-9d3f-4d59-9445-03b2d88f9857","item":"justo"}},
{"id":411,"pincode":155738,"latitude":57.4145669,"longitude":15.0919158,"order":{"id":"79459d0b-8d08-4b00-a3e2-c4b6d024514b","item":"sed ante vivamus tortor duis"}},
{"id":412,"pincode":378713,"latitude":15.3993773,"longitude":120.9422852,"order":{"id":"ee8f6bd3-8633-4925-80de-6b234ea48508","item":"donec semper sapien a"}},
{"id":413,"pincode":489553,"latitude":8.8928524,"longitude":11.3771496,"order":{"id":"5b9ed965-0461-41f8-ab0a-e2113c446413","item":"congue"}},
{"id":414,"pincode":380690,"latitude":15.1385669,"longitude":-23.2066909,"order":{"id":"f0f00fce-7bbf-4dae-9728-0a5259d23d52","item":"nulla integer pede"}},
{"id":415,"pincode":541170,"latitude":22.919769,"longitude":113.618216,"order":{"id":"07ab5660-5679-4baf-8f37-e0c53af11e4e","item":"interdum eu tincidunt"}},
{"id":416,"pincode":463672,"latitude":34.3227574,"longitude":134.1742831,"order":{"id":"bf365a10-c370-448e-87d9-49312d178b4b","item":"in"}},
{"id":417,"pincode":229692,"latitude":57.162312,"longitude":23.2197229,"order":{"id":"76e78cd3-6815-4412-a998-45ea68db6aff","item":"interdum"}},
{"id":418,"pincode":406247,"latitude":"35.62231","longitude":"10.75696","order":{"id":"2721ca82-77d3-4d15-a83d-b835b159fd38","item":"curae nulla"}},
{"id":419,"pincode":381892,"latitude":38.8965627,"longitude":-77.0224418,"order":{"id":"f8e098fb-f14b-4835-b6b6-3286a32b33ea","item":"rutrum nulla tellus"}},
{"id":420,"pincode":444931,"latitude":29.275625,"longitude":110.790339,"order":{"id":"5759ef3d-08c3-4833-9fc4-db18df4b9c67","item":"proin"}},
{"id":421,"pincode":269272,"latitude":22.3179093,"longitude":-79.6558242,"order":{"id":"6e7d975c-13b7-4995-8227-047ac5d3f879","item":"quisque porta volutpat"}},
{"id":422,"pincode":415883,"latitude":-20.3855743,"longitude":-43.5035777,"order":{"id":"6f483984-42b8-46f0-ac70-514977c6e653","item":"magna"}},
{"id":423,"pincode":134341,"latitude":38.070311,"longitude":114.411459,"order":{"id":"051b56ce-c69d-4b08-aefe-9d4c82df23dd","item":"dictumst aliquam augue quam sollicitudin"}},
{"id":424,"pincode":430515,"latitude":33.720769,"longitude":115.000183,"order":{"id":"2f6e5d0d-c2da-4b1d-84a9-313b6921da72","item":"pellentesque quisque porta"}},
{"id":425,"pincode":159335,"latitude":31.123351,"longitude":121.510319,"order":{"id":"da97f22e-87e3-4529-89ad-6b11fb047bd8","item":"condimentum neque sapien"}},
{"id":426,"pincode":313497,"latitude":45.300292,"longitude":4.2531745,"order":{"id":"3da902e2-5d9d-45e0-be64-4473149753f6","item":"id"}},
{"id":427,"pincode":105149,"latitude":41.0184587,"longitude":23.5206341,"order":{"id":"108cb753-5dfb-4f4c-888f-67c90893fb46","item":"augue a"}},
{"id":428,"pincode":117752,"latitude":19.5663947,"longitude":109.949686,"order":{"id":"4d2a6bbe-a746-4681-b0e3-791dca46e2d8","item":"volutpat eleifend donec ut"}},
{"id":429,"pincode":536748,"latitude":-6.9561332,"longitude":110.2498957,"order":{"id":"a31d4f98-3cad-4ed3-831c-98a2e3ac1716","item":"imperdiet nullam orci"}},
{"id":430,"pincode":403668,"latitude":17.8261143,"longitude":121.714099,"order":{"id":"c9337046-8b44-4cec-aa52-d9b8b7412977","item":"posuere cubilia curae donec pharetra magna"}},
{"id":431,"pincode":498849,"latitude":5.8894555,"longitude":7.9538378,"order":{"id":"f7adc73a-b8f3-464b-803d-56d2615c1e24","item":"est congue elementum in hac habitasse"}},
{"id":432,"pincode":203675,"latitude":-33.8603461,"longitude":-55.5441311,"order":{"id":"258eb705-b88c-44fa-84b1-21a1c7de7e64","item":"interdum in ante vestibulum ante ipsum"}},
{"id":433,"pincode":281902,"latitude":30.304377,"longitude":103.686294,"order":{"id":"e23b7abf-986c-4c84-a5ee-4cb788fd4f82","item":"nulla ultrices aliquet maecenas leo odio"}},
{"id":434,"pincode":219829,"latitude":36.4203181,"longitude":140.5177769,"order":{"id":"471d4fc3-f8aa-4a94-8ed8-b3e49f7dd248","item":"quis lectus"}},
{"id":435,"pincode":406655,"latitude":4.2399992,"longitude":13.4482868,"order":{"id":"4a223d09-91b0-433f-adfe-b8f89e36722e","item":"id sapien in sapien iaculis"}},
{"id":436,"pincode":277505,"latitude":14.8190224,"longitude":-90.5131461,"order":{"id":"672afc6b-b610-48c2-aa02-ffea13ec6fc0","item":"mattis egestas metus aenean fermentum donec"}},
{"id":437,"pincode":481650,"latitude":-22.9763629,"longitude":-47.0060226,"order":{"id":"5c503d34-852d-4ae5-8110-4e5ed1bf4da6","item":"condimentum curabitur in"}},
{"id":438,"pincode":504778,"latitude":54.6410525,"longitude":22.7575987,"order":{"id":"84a5596c-9b2a-4fb7-a28e-6a7492ea0c1e","item":"sed nisl nunc rhoncus"}},
{"id":439,"pincode":111030,"latitude":49.929648,"longitude":22.153909,"order":{"id":"66a6433b-d00a-46c7-a828-fd357db1f707","item":"vestibulum velit id pretium iaculis"}},
{"id":440,"pincode":101392,"latitude":"-10.0798","longitude":"120.2781","order":{"id":"68a3fd4b-b576-4990-9da4-3c55c6477299","item":"orci pede venenatis non sodales sed"}},
{"id":441,"pincode":484856,"latitude":38.0068597,"longitude":-8.385532,"order":{"id":"03f15d8c-6be7-4a23-9f94-dd9193b460b5","item":"in hac habitasse platea"}},
{"id":442,"pincode":129273,"latitude":17.5385975,"longitude":120.6662294,"order":{"id":"37221eb3-c6bb-4c26-913c-633b80a4ce47","item":"viverra eget congue eget"}},
{"id":443,"pincode":117615,"latitude":27.8827043,"longitude":53.4284076,"order":{"id":"adcfd6b6-53c6-4b74-8ed2-1e5d7f5348e3","item":"sociis natoque penatibus et magnis"}},
{"id":444,"pincode":471227,"latitude":7.5421232,"longitude":124.1539783,"order":{"id":"1ebfdfff-f115-431e-a457-8729ca850ae5","item":"ultrices posuere cubilia curae nulla"}},
{"id":445,"pincode":241394,"latitude":60.9501559,"longitude":21.444609,"order":{"id":"979adaff-de2e-42ab-ad98-8373659358cd","item":"mus vivamus"}},
{"id":446,"pincode":177131,"latitude":36.1964847,"longitude":-95.8459341,"order":{"id":"6ae1cbc6-e466-44b0-93d9-3e9002191628","item":"vestibulum ante"}},
{"id":447,"pincode":524755,"latitude":0.0265717,"longitude":18.2970692,"order":{"id":"f0b2703d-c92d-4311-ab65-6d7ce2a6b356","item":"ipsum praesent"}},
{"id":448,"pincode":172740,"latitude":49.4382375,"longitude":1.0598119,"order":{"id":"f4622622-889e-461f-b4f5-53dc8a304b24","item":"curae"}},
{"id":449,"pincode":483862,"latitude":36.038046,"longitude":14.219377,"order":{"id":"12ea8e23-4bd7-4030-ad3c-1b0c711b636d","item":"nunc commodo"}},
{"id":450,"pincode":100638,"latitude":"-8.4985","longitude":"123.5226","order":{"id":"4919c1da-eb48-4059-8bc7-cc32fa14eccc","item":"lacinia nisi"}},
{"id":451,"pincode":354567,"latitude":51.341066,"longitude":21.063409,"order":{"id":"a0bf07a6-e243-4e4f-810f-ccdf32faf8c7","item":"est"}},
{"id":452,"pincode":400538,"latitude":14.5639944,"longitude":121.0326387,"order":{"id":"b32efa22-8593-4679-be3a-649b5326e1ff","item":"lorem ipsum dolor sit"}},
{"id":453,"pincode":227010,"latitude":36.7252955,"longitude":24.4447587,"order":{"id":"d356d0ac-c7d5-4141-9579-5f06f2f31870","item":"pellentesque quisque porta volutpat"}},
{"id":454,"pincode":477763,"latitude":14.7292218,"longitude":121.051001,"order":{"id":"20024c5b-d24d-4003-b517-87a8875a9640","item":"orci"}},
{"id":455,"pincode":587675,"latitude":35.7017899,"longitude":59.8468432,"order":{"id":"31030aac-fb9c-4ccf-8a00-dafa135cc96f","item":"lorem vitae mattis nibh"}},
{"id":456,"pincode":594517,"latitude":17.152756,"longitude":-25.027117,"order":{"id":"0fd46107-b198-4f80-8a22-2354937af774","item":"elementum in hac habitasse platea dictumst"}},
{"id":457,"pincode":199999,"latitude":-19.5722805,"longitude":-65.7550063,"order":{"id":"be20ffd6-e74f-4aad-8494-56eb7d724970","item":"consequat ut nulla sed"}},
{"id":458,"pincode":550009,"latitude":13.6332855,"longitude":100.4958678,"order":{"id":"ee9fdfd2-e5b0-40d4-a076-61954cb0a362","item":"et magnis dis parturient"}},
{"id":459,"pincode":158520,"latitude":48.0724737,"longitude":7.3469006,"order":{"id":"aacbbaff-c84e-4897-9dbe-c5c37e313972","item":"ligula sit"}},
{"id":460,"pincode":590189,"latitude":-7.8626843,"longitude":-35.5907317,"order":{"id":"7a38ca13-49cf-453c-84ba-84164ef1c0fd","item":"sollicitudin mi"}},
{"id":461,"pincode":141372,"latitude":22.254836,"longitude":113.467503,"order":{"id":"544eecc3-74a9-4055-995b-c07b6730ba4e","item":"sed interdum venenatis turpis enim"}},
{"id":462,"pincode":130090,"latitude":44.3337107,"longitude":40.7679998,"order":{"id":"c9125ae6-2c81-4b68-b7f9-c00ef28a89ae","item":"pede"}},
{"id":463,"pincode":479576,"latitude":59.4050955,"longitude":17.9551008,"order":{"id":"2b5b6078-c2dc-4896-bd7a-7ad5c14f766a","item":"ut ultrices vel augue vestibulum"}},
{"id":464,"pincode":406061,"latitude":-21.1867409,"longitude":-48.9081184,"order":{"id":"beeca9ba-9d39-47cb-8845-fdb9c0d07a6b","item":"nullam porttitor lacus at turpis"}},
{"id":465,"pincode":558887,"latitude":"53.10014","longitude":"-111.76844","order":{"id":"d040da0e-9836-4854-829f-e75d4f76484d","item":"mi sit amet lobortis"}},
{"id":466,"pincode":539564,"latitude":-7.3055182,"longitude":110.4947314,"order":{"id":"36e67797-883b-4221-86c4-fe66699a69cd","item":"ut dolor morbi vel lectus"}},
{"id":467,"pincode":292104,"latitude":31.018498,"longitude":109.463987,"order":{"id":"bdc0514b-943f-410b-a40c-a09e30ceb7d4","item":"cubilia curae duis faucibus"}},
{"id":468,"pincode":480826,"latitude":50.4351008,"longitude":15.2414232,"order":{"id":"933c7414-d2c0-4992-80fd-d2d38b81ec42","item":"sed sagittis nam"}},
{"id":469,"pincode":594663,"latitude":38.822691,"longitude":114.35056,"order":{"id":"25ac9d5e-7c1a-4f9e-a2c3-808a71433cae","item":"in porttitor pede justo eu"}},
{"id":470,"pincode":353078,"latitude":25.6775595,"longitude":-100.2596935,"order":{"id":"1aa54b81-58ce-41a6-8728-926f3b25bbe8","item":"duis"}},
{"id":471,"pincode":433905,"latitude":40.5369108,"longitude":21.2582079,"order":{"id":"97cd821e-402d-44c8-b0bc-44169d914173","item":"et ultrices posuere cubilia"}},
{"id":472,"pincode":248792,"latitude":62.587277,"longitude":40.61071,"order":{"id":"469ea4f3-985d-4811-92ca-b5a830cfb520","item":"sit amet nunc viverra dapibus nulla"}},
{"id":473,"pincode":408895,"latitude":50.0919002,"longitude":21.3924958,"order":{"id":"65292491-a4d7-421e-8493-e875cfb92c9d","item":"massa"}},
{"id":474,"pincode":183831,"latitude":-18.0833977,"longitude":-39.5499731,"order":{"id":"a3453ef9-1cb6-426e-9d61-971fd157ff15","item":"ut ultrices"}},
{"id":475,"pincode":379621,"latitude":-5.5844754,"longitude":105.4771084,"order":{"id":"5b35c583-82f8-4715-bf0c-af15a677fc62","item":"turpis sed ante vivamus tortor duis"}},
{"id":476,"pincode":197465,"latitude":-38.9459345,"longitude":-68.113957,"order":{"id":"7183c898-86ff-47f9-a7d5-6e5f0176d0cb","item":"amet"}},
{"id":477,"pincode":335637,"latitude":48.8242268,"longitude":16.0657342,"order":{"id":"613cca98-d33d-4c5a-9864-2806e4693a9a","item":"auctor gravida sem praesent id"}},
{"id":478,"pincode":448227,"latitude":58.402302,"longitude":24.6553157,"order":{"id":"44b068a2-5c0d-4301-b277-b9d6f59da0b2","item":"ultrices erat tortor sollicitudin mi"}},
{"id":479,"pincode":119417,"latitude":55.9070639,"longitude":52.2871629,"order":{"id":"b10ec1de-784e-4672-87f1-546c74c8945c","item":"feugiat et eros vestibulum ac"}},
{"id":480,"pincode":118435,"latitude":14.6927846,"longitude":121.1100951,"order":{"id":"63ffd800-4734-42e4-a81b-3489f77768a9","item":"odio consequat varius"}},
{"id":481,"pincode":507508,"latitude":-10.1683268,"longitude":31.3484448,"order":{"id":"48a9556d-e13d-4fc9-9e1a-65e316846d42","item":"nisi volutpat"}},
{"id":482,"pincode":137282,"latitude":43.609798,"longitude":1.495596,"order":{"id":"4a41973a-33e0-44d5-83e1-265424d66d40","item":"accumsan"}},
{"id":483,"pincode":351637,"latitude":-10.2122281,"longitude":-36.8371852,"order":{"id":"95d47ddc-e498-4d0c-aebc-44d000cffe16","item":"quisque erat eros viverra eget"}},
{"id":484,"pincode":292681,"latitude":53.6836301,"longitude":88.0813924,"order":{"id":"98b6ad25-a7c4-4255-8ac0-b6edb341376a","item":"libero quis"}},
{"id":485,"pincode":157426,"latitude":3.14405,"longitude":101.69676,"order":{"id":"08ab6514-61b3-40e5-afe6-ea2fa5031d61","item":"neque"}},
{"id":486,"pincode":243922,"latitude":-6.5912415,"longitude":105.9053689,"order":{"id":"e5833c8e-289a-4110-869e-df3c7c339126","item":"elementum"}},
{"id":487,"pincode":516267,"latitude":-11.434693,"longitude":-61.4566885,"order":{"id":"1f1f2cb6-d940-4c67-a813-2c7b025841cd","item":"quam fringilla"}},
{"id":488,"pincode":496049,"latitude":31.741456,"longitude":118.328116,"order":{"id":"62044dcb-5588-40cc-8c7d-24f42d0e13aa","item":"donec"}},
{"id":489,"pincode":531791,"latitude":49.7761881,"longitude":16.0289677,"order":{"id":"392f433d-dcbd-4c6d-9474-807b600f26b3","item":"dapibus at diam nam tristique"}},
{"id":490,"pincode":198117,"latitude":29.761159,"longitude":105.931414,"order":{"id":"be2addc7-1319-4d02-97cb-b64e54f13bc6","item":"porttitor lacus at turpis"}},
{"id":491,"pincode":463990,"latitude":6.9936468,"longitude":35.5821994,"order":{"id":"864a7df0-795c-4a51-8524-1a5cee33e555","item":"mauris non"}},
{"id":492,"pincode":545303,"latitude":-34.0508783,"longitude":23.0935283,"order":{"id":"0c129b6c-e34a-4389-bb94-02e80c9ee24a","item":"interdum eu tincidunt in leo maecenas"}},
{"id":493,"pincode":563192,"latitude":44.043297,"longitude":129.359811,"order":{"id":"91215cdb-7942-4147-b016-1ce635a7580c","item":"sem fusce"}},
{"id":494,"pincode":224863,"latitude":53.778695,"longitude":73.8784471,"order":{"id":"202863e0-bf17-4d1d-b2c8-0a92bfc73018","item":"at lorem integer tincidunt ante vel"}},
{"id":495,"pincode":446207,"latitude":50.1069802,"longitude":20.6303821,"order":{"id":"4f3385d9-ec3f-47b2-822e-ae880cb255ea","item":"justo etiam pretium iaculis justo in"}},
{"id":496,"pincode":306006,"latitude":22.529403,"longitude":103.93935,"order":{"id":"4c2f37c2-4ed5-45d4-b78e-f450bb0f166e","item":"nunc commodo placerat praesent blandit"}},
{"id":497,"pincode":412328,"latitude":35.3350072,"longitude":129.0371689,"order":{"id":"49659fb4-feb2-420d-a7b2-38c66a59c9ad","item":"elementum in hac"}},
{"id":498,"pincode":153048,"latitude":-6.9620686,"longitude":108.4854717,"order":{"id":"002a0dc8-d7ce-4369-ba5d-575bd5cba782","item":"dictumst aliquam augue quam"}},
{"id":499,"pincode":529928,"latitude":28.915608,"longitude":118.579936,"order":{"id":"d8d6daca-28db-43aa-beb2-8c593a2a233f","item":"at velit eu"}},
{"id":500,"pincode":216204,"latitude":56.036667,"longitude":39.9203466,"order":{"id":"280b8f21-6c04-4f1f-bbe4-9d2736a3e619","item":"eget vulputate ut ultrices vel augue"}},
{"id":501,"pincode":200132,"latitude":"-8.0806","longitude":"111.7084","order":{"id":"273447c6-eaa6-41fd-b469-4100d47cead7","item":"mattis egestas metus aenean"}},
{"id":502,"pincode":256031,"latitude":41.0623236,"longitude":-8.5828152,"order":{"id":"ddd584e9-5940-4e60-a470-c8a3f1efa768","item":"odio"}},
{"id":503,"pincode":544738,"latitude":34.759314,"longitude":108.992603,"order":{"id":"5334dc7c-e028-4eed-b5eb-c53e8c8853dc","item":"lacus purus aliquet at feugiat"}},
{"id":504,"pincode":182825,"latitude":47.0419512,"longitude":8.3140814,"order":{"id":"ceaa69b1-63df-4903-9556-2fbb712a41bb","item":"ligula suspendisse"}},
{"id":505,"pincode":513850,"latitude":16.2661738,"longitude":-3.4044187,"order":{"id":"81e20fda-c6fb-45ad-b4f1-c0864a86bd87","item":"integer aliquet massa"}},
{"id":506,"pincode":271544,"latitude":16.004175,"longitude":120.7806412,"order":{"id":"9c6bb5f6-814d-4e92-af65-b59aebb49693","item":"sit amet nunc"}},
{"id":507,"pincode":253260,"latitude":-8.178717,"longitude":112.2264794,"order":{"id":"75576d62-e626-4157-a3ad-4299f61dd804","item":"rhoncus dui vel sem sed sagittis"}},
{"id":508,"pincode":442388,"latitude":-6.2324516,"longitude":105.8583873,"order":{"id":"6c1b691c-53ab-4d72-aa33-6a61f4ef22f2","item":"eu est congue"}},
{"id":509,"pincode":281496,"latitude":-13.3261109,"longitude":-74.9975,"order":{"id":"09ad8274-723b-4650-903b-f3aef20bd596","item":"nisi vulputate"}},
{"id":510,"pincode":494076,"latitude":40.04,"longitude":-76.31,"order":{"id":"1d2f9b35-3bc0-4dcc-a5ee-6515d5e86a50","item":"blandit"}},
{"id":511,"pincode":157954,"latitude":26.3841358,"longitude":127.804829,"order":{"id":"88078250-6382-4f0f-a155-cc3d067684d5","item":"aliquet maecenas leo odio condimentum id"}},
{"id":512,"pincode":448641,"latitude":39.5557317,"longitude":21.7678951,"order":{"id":"157018ff-7a3b-4551-a80d-02a3dfc72c4c","item":"magna"}},
{"id":513,"pincode":449298,"latitude":42.2971095,"longitude":-71.4720787,"order":{"id":"c7cf017d-1a48-480d-b99e-471008050483","item":"quam nec dui luctus rutrum nulla"}},
{"id":514,"pincode":110968,"latitude":18.903521,"longitude":110.477642,"order":{"id":"76d4922b-efe2-49c3-9a54-7b948bef77af","item":"nibh ligula nec sem duis aliquam"}},
{"id":515,"pincode":495900,"latitude":31.363043,"longitude":72.98757,"order":{"id":"31634f4e-4d24-4961-99af-70a5e1a07dc1","item":"platea"}},
{"id":516,"pincode":217148,"latitude":14.3839328,"longitude":121.050126,"order":{"id":"26bc0e9c-dde4-485b-9f0a-c6c642928138","item":"interdum eu tincidunt in leo"}},
{"id":517,"pincode":219240,"latitude":"56.16974","longitude":"36.12545","order":{"id":"bf96f396-e596-4635-a307-da8ebcf91014","item":"morbi non lectus aliquam sit amet"}},
{"id":518,"pincode":113078,"latitude":52.4159683,"longitude":41.4278531,"order":{"id":"44a0a7c2-5912-4412-b77f-c9b9264365ad","item":"quam nec dui luctus"}},
{"id":519,"pincode":130972,"latitude":30.619516,"longitude":110.400306,"order":{"id":"dc454f26-a70d-4784-9750-b4e2a60768cc","item":"vel ipsum"}},
{"id":520,"pincode":153385,"latitude":"-8.1429","longitude":"112.2206","order":{"id":"59d58036-dff6-4bd4-83c2-f84b4602d0c2","item":"nec"}},
{"id":521,"pincode":475415,"latitude":49.6933676,"longitude":14.0095887,"order":{"id":"fedda25e-7788-4687-a681-ff330889174e","item":"lectus pellentesque at nulla suspendisse potenti"}},
{"id":522,"pincode":206831,"latitude":48.1967872,"longitude":6.4788333,"order":{"id":"2b78640a-b554-420c-9231-ac92b152b246","item":"semper interdum mauris ullamcorper purus sit"}},
{"id":523,"pincode":185488,"latitude":49.5474598,"longitude":16.2620907,"order":{"id":"5acdeb19-a42a-4e1f-8894-a7f191185092","item":"urna ut tellus nulla ut erat"}},
{"id":524,"pincode":331684,"latitude":34.470812,"longitude":103.982523,"order":{"id":"88fe5c40-454a-445c-9b84-0f007dde20d9","item":"nullam molestie nibh in"}},
{"id":525,"pincode":591393,"latitude":18.1096868,"longitude":-95.8803869,"order":{"id":"2239e590-5488-408f-bf64-097bff9dbbd0","item":"a"}},
{"id":526,"pincode":462255,"latitude":37.054943,"longitude":41.2282471,"order":{"id":"eb6f440a-22bf-4513-a4f5-dc5974b1a4fe","item":"odio odio elementum eu interdum eu"}},
{"id":527,"pincode":412182,"latitude":-6.9122509,"longitude":109.7457739,"order":{"id":"0a524035-4c03-4c9e-bc95-b07f81353662","item":"amet eros suspendisse"}},
{"id":528,"pincode":497978,"latitude":"33.23203","longitude":"35.75572","order":{"id":"c8c63c3a-0aec-4d43-a4b6-294d445cb394","item":"metus vitae ipsum aliquam non"}},
{"id":529,"pincode":157290,"latitude":-4.3383128,"longitude":-41.8402054,"order":{"id":"e42ac0ca-130a-4a9a-99e7-0342ba3f3178","item":"quam pede"}},
{"id":530,"pincode":527735,"latitude":34.682497,"longitude":103.359019,"order":{"id":"8103177c-229f-4eab-ae98-5c449c19be95","item":"a libero nam dui proin"}},
{"id":531,"pincode":530123,"latitude":10.1219025,"longitude":123.5393143,"order":{"id":"4c241d1c-34d1-41ec-8e64-206339053d71","item":"mi integer"}},
{"id":532,"pincode":408733,"latitude":23.7426988,"longitude":-99.1054986,"order":{"id":"bf776581-6b3b-413e-b1e5-c001391d9860","item":"non sodales sed tincidunt eu"}},
{"id":533,"pincode":552683,"latitude":57.0973349,"longitude":12.2573683,"order":{"id":"32b5121c-578f-43ea-b2b8-daf1ed11d864","item":"imperdiet nullam orci pede venenatis non"}},
{"id":534,"pincode":254822,"latitude":11.2220458,"longitude":12.0234318,"order":{"id":"0c2cfb36-7e29-4fcb-aedd-2f028f7d3e88","item":"erat volutpat in"}},
{"id":535,"pincode":277669,"latitude":"-6.9967","longitude":"112.8419","order":{"id":"068d283d-4855-41ca-8ca3-c533e516bd29","item":"vel augue"}},
{"id":536,"pincode":585162,"latitude":13.3050684,"longitude":-87.8660235,"order":{"id":"59986b81-6f41-45c9-8e37-54f89dd7207a","item":"et magnis dis parturient montes"}},
{"id":537,"pincode":373716,"latitude":46.3194856,"longitude":-0.4546217,"order":{"id":"2d78bf3a-9443-4826-9bc0-9936866839da","item":"lorem"}},
{"id":538,"pincode":473173,"latitude":42.76631,"longitude":129.427066,"order":{"id":"54739e7b-c889-4de1-868b-0240f522f949","item":"sapien cum"}},
{"id":539,"pincode":455768,"latitude":51.5731362,"longitude":5.0314656,"order":{"id":"87ac3a92-c55c-4eb8-80d9-b8d88c1c12fc","item":"consequat dui"}},
{"id":540,"pincode":399669,"latitude":8.4715413,"longitude":124.6404944,"order":{"id":"b163e757-2b5c-4a52-b972-e9114d5588be","item":"mauris ullamcorper purus sit amet nulla"}},
{"id":541,"pincode":207092,"latitude":44.8855006,"longitude":1.2172257,"order":{"id":"baf4ba98-e7c2-4694-90b3-9b675b1cfe6d","item":"nisl nunc nisl duis bibendum"}},
{"id":542,"pincode":133481,"latitude":17.0516148,"longitude":-13.9114989,"order":{"id":"e64f7373-e944-4d60-ad4f-8e8d79bc2a04","item":"quis libero nullam sit amet"}},
{"id":543,"pincode":537311,"latitude":-6.1226719,"longitude":106.8902366,"order":{"id":"4616ee80-c386-4bf2-85c8-e5fea8269249","item":"vitae quam"}},
{"id":544,"pincode":119571,"latitude":40.1324085,"longitude":64.4911086,"order":{"id":"77141f8c-4a5d-4910-bd29-c3d9111ead59","item":"vulputate luctus cum"}},
{"id":545,"pincode":204475,"latitude":-7.7256069,"longitude":38.9381031,"order":{"id":"0dde1ba7-ea3b-4e02-940f-889cf1dbaed9","item":"a ipsum integer"}},
{"id":546,"pincode":233450,"latitude":-27.2000865,"longitude":-54.9815915,"order":{"id":"8dbcb1fb-05f6-410b-96d2-9baf810f18c0","item":"enim blandit mi"}},
{"id":547,"pincode":514458,"latitude":"-6.9569","longitude":"106.428","order":{"id":"4297e5a3-04a4-41f7-9b0d-cc2ce14ffac2","item":"quisque id justo sit amet sapien"}},
{"id":548,"pincode":219962,"latitude":-0.7351026,"longitude":8.7591311,"order":{"id":"81fb146d-ee82-4ff4-b096-58dfea3b35af","item":"praesent blandit"}},
{"id":549,"pincode":117583,"latitude":34.6911,"longitude":106.221144,"order":{"id":"a4325c59-1a00-4e1e-bb40-19c0eed89081","item":"interdum in ante vestibulum"}},
{"id":550,"pincode":117413,"latitude":46.7260141,"longitude":142.5226178,"order":{"id":"49d1bc3a-9d20-4468-bd19-bed16df2a681","item":"nunc nisl duis bibendum felis"}},
{"id":551,"pincode":497422,"latitude":12.6226118,"longitude":9.3839598,"order":{"id":"d8748c79-7a40-46a1-861a-a6cf3631c030","item":"posuere cubilia curae mauris viverra diam"}},
{"id":552,"pincode":429345,"latitude":20.2109764,"longitude":105.4683193,"order":{"id":"736ba0ca-2f22-41d4-99be-a06a9b21f34c","item":"at nulla"}},
{"id":553,"pincode":375394,"latitude":21.0078386,"longitude":105.9376756,"order":{"id":"42460829-2db4-4a71-a2ff-abfd9d25d00a","item":"eu nibh quisque id justo sit"}},
{"id":554,"pincode":191452,"latitude":14.2157645,"longitude":109.1166566,"order":{"id":"6491cd38-d22c-49d4-9743-eaa84dbb866c","item":"pede"}},
{"id":555,"pincode":586536,"latitude":-6.4594857,"longitude":105.9141793,"order":{"id":"04a8e4a2-5e51-4cf5-aae5-389d1edaf66a","item":"maecenas ut"}},
{"id":556,"pincode":514572,"latitude":46.4244411,"longitude":16.4312318,"order":{"id":"4002b531-bfb8-4721-9f19-f82a0c0e6659","item":"at turpis"}},
{"id":557,"pincode":308493,"latitude":59.1743158,"longitude":18.236243,"order":{"id":"c9ddd18f-4466-4640-83cf-41e8bb3c0e9d","item":"ante ipsum primis in"}},
{"id":558,"pincode":524267,"latitude":-7.0453363,"longitude":108.2347863,"order":{"id":"08a42b92-41df-45a8-bc5c-e41649ff047b","item":"diam erat fermentum justo nec condimentum"}},
{"id":559,"pincode":205412,"latitude":34.747834,"longitude":113.022496,"order":{"id":"0850a991-1cb8-46e6-b395-c22790ff896c","item":"amet eleifend pede libero quis orci"}},
{"id":560,"pincode":321130,"latitude":-15.0705872,"longitude":-57.1882847,"order":{"id":"581ff957-08ae-4e36-a3bd-6edf7a667e34","item":"pellentesque eget nunc donec quis orci"}},
{"id":561,"pincode":355404,"latitude":15.429396,"longitude":100.0501736,"order":{"id":"5f8f7b46-57a9-42cd-a8c2-33c0e2b85eaa","item":"vivamus metus arcu adipiscing molestie"}},
{"id":562,"pincode":501494,"latitude":47.343506,"longitude":6.309262,"order":{"id":"6f2346bf-0fd2-4f89-ad7e-0ad11b69b16f","item":"viverra diam vitae"}},
{"id":563,"pincode":393540,"latitude":21.8628802,"longitude":106.5377839,"order":{"id":"e9553ce6-3e85-4f03-8e91-36c5381dd5eb","item":"neque vestibulum eget vulputate ut ultrices"}},
{"id":564,"pincode":207324,"latitude":49.8229025,"longitude":16.9204034,"order":{"id":"f77aab0d-e2d7-4186-8f55-50514623952d","item":"dolor morbi vel lectus in"}},
{"id":565,"pincode":235974,"latitude":17.9092223,"longitude":102.220463,"order":{"id":"d9b4791b-bf0f-43f4-8cc6-32d181ad9810","item":"nec"}},
{"id":566,"pincode":186427,"latitude":48.8270848,"longitude":2.5111543,"order":{"id":"98d315ad-5971-43be-a6eb-d30368ef566e","item":"mi sit amet lobortis sapien sapien"}},
{"id":567,"pincode":214204,"latitude":60.6130236,"longitude":15.6530104,"order":{"id":"6c8839ee-f297-46b1-a1cb-22e013cd2969","item":"venenatis turpis enim blandit"}},
{"id":568,"pincode":396909,"latitude":30.356669,"longitude":117.47637,"order":{"id":"0c958514-27bf-4591-a341-718d2a6991d4","item":"nisi"}},
{"id":569,"pincode":299889,"latitude":"51.88333","longitude":"116.25","order":{"id":"39190631-61a8-4bd8-b1f7-ed7b057e5dd4","item":"aliquam lacus"}},
{"id":570,"pincode":517418,"latitude":50.8747818,"longitude":15.7484458,"order":{"id":"fec0ad2c-cd28-4e86-be81-8d876718042d","item":"pede"}},
{"id":571,"pincode":204779,"latitude":"49.24993","longitude":"-55.04816","order":{"id":"ddc1fed3-df54-464d-9037-1df6de558404","item":"iaculis"}},
{"id":572,"pincode":516869,"latitude":55.6751524,"longitude":12.5742882,"order":{"id":"396b1f1a-f90c-4b00-8bf4-2fd74560df39","item":"consectetuer adipiscing elit proin interdum mauris"}},
{"id":573,"pincode":259678,"latitude":20.0932902,"longitude":99.8013351,"order":{"id":"c869922e-5123-4c2b-98f3-71ef632e1d35","item":"et ultrices posuere cubilia"}},
{"id":574,"pincode":126890,"latitude":26.463923,"longitude":107.905837,"order":{"id":"dfaf85d0-fce7-44a9-b910-2561f1f8be1e","item":"tristique in tempus sit amet"}},
{"id":575,"pincode":453298,"latitude":"58.6922","longitude":"59.832","order":{"id":"d442b1f9-bba0-42b1-b725-689046162512","item":"justo sollicitudin ut"}},
{"id":576,"pincode":377150,"latitude":49.0492373,"longitude":16.7374199,"order":{"id":"2c0eee91-e933-45e8-b04a-62c0a7fc7a28","item":"pellentesque quisque porta volutpat"}},
{"id":577,"pincode":104013,"latitude":52.55694,"longitude":17.0351289,"order":{"id":"daa4ced7-e621-49d5-90e5-73c07215920c","item":"massa id nisl venenatis lacinia"}},
{"id":578,"pincode":249918,"latitude":32.317719,"longitude":34.933615,"order":{"id":"8ce30871-a31f-4cb3-9fbf-d1783a665137","item":"vestibulum ac est"}},
{"id":579,"pincode":318559,"latitude":7.2675115,"longitude":28.678979,"order":{"id":"cb2fd4ca-5fe9-4f19-99dd-189c3a35e6c8","item":"placerat ante"}},
{"id":580,"pincode":278086,"latitude":36.796303,"longitude":106.957542,"order":{"id":"e706723f-6e33-4423-86d8-a1dc33804163","item":"mattis"}},
{"id":581,"pincode":175556,"latitude":"-6.7597","longitude":"111.3245","order":{"id":"5eed78ff-3062-4941-91d4-a30ab0356eb7","item":"id"}},
{"id":582,"pincode":335364,"latitude":17.1782591,"longitude":102.5704008,"order":{"id":"e3f72396-6b6d-41cd-a79f-88cc78a40ebc","item":"praesent id massa id nisl venenatis"}},
{"id":583,"pincode":255875,"latitude":11.0990419,"longitude":122.6533918,"order":{"id":"7aed9508-42aa-4273-8884-968d6b9504de","item":"adipiscing"}},
{"id":584,"pincode":356465,"latitude":38.656021,"longitude":-27.268149,"order":{"id":"c20fb496-3d1a-442e-b7ed-083752e8c19d","item":"orci vehicula condimentum curabitur in libero"}},
{"id":585,"pincode":483446,"latitude":57.0973349,"longitude":12.2573683,"order":{"id":"1e510475-5437-41a9-9b56-5c1cbebf370b","item":"ultricies eu nibh quisque"}},
{"id":586,"pincode":112274,"latitude":-7.0117033,"longitude":108.3682641,"order":{"id":"82190228-ace8-49a4-9cf9-83cca52a64c8","item":"interdum eu tincidunt in"}},
{"id":587,"pincode":354982,"latitude":51.898029,"longitude":21.6132509,"order":{"id":"cfa60c1e-0787-4e42-81c6-2f66095c8685","item":"nec molestie sed"}},
{"id":588,"pincode":408952,"latitude":22.0832638,"longitude":102.5757028,"order":{"id":"bf9b7a9a-abe4-4dad-956c-8b5284ed36b0","item":"sapien ut"}},
{"id":589,"pincode":134378,"latitude":39.325788,"longitude":111.962127,"order":{"id":"4befff9f-536b-407b-9ef9-8db9d620a30c","item":"bibendum"}},
{"id":590,"pincode":123233,"latitude":38.7519042,"longitude":-9.4389381,"order":{"id":"8714a774-5206-4fc7-83b2-f2eddba4d9c2","item":"neque aenean auctor"}},
{"id":591,"pincode":274600,"latitude":38.5731807,"longitude":140.7867576,"order":{"id":"538c33b0-b496-403e-8e45-34ba26a60d57","item":"sollicitudin vitae consectetuer eget rutrum"}},
{"id":592,"pincode":345155,"latitude":55.7742636,"longitude":37.5884971,"order":{"id":"40742942-7e25-4303-a8b2-d5d977984d9d","item":"dui maecenas tristique est et tempus"}},
{"id":593,"pincode":431676,"latitude":14.13,"longitude":122.967904,"order":{"id":"e97e94dd-01fa-4a97-b2c2-b3e1a42c1d45","item":"nulla nisl"}},
{"id":594,"pincode":416670,"latitude":"52.37923","longitude":"41.68192","order":{"id":"c24790b2-fada-404a-aa28-efb6e4fe841b","item":"facilisi cras non"}},
{"id":595,"pincode":337375,"latitude":53.7217952,"longitude":40.0305734,"order":{"id":"55ce1859-e06e-47ca-9abe-d9471c08fb43","item":"vestibulum proin eu"}},
{"id":596,"pincode":352087,"latitude":36.4745388,"longitude":66.9511459,"order":{"id":"9589db88-5fbe-4ba3-82ec-b34dcca883f9","item":"sit"}},
{"id":597,"pincode":387026,"latitude":46.3392772,"longitude":14.9599807,"order":{"id":"11f2faac-ef21-4233-9764-789df120dd8d","item":"in felis donec semper sapien a"}},
{"id":598,"pincode":202216,"latitude":31.26179,"longitude":121.423664,"order":{"id":"9f6a250b-0ef0-4b4d-b049-c833bb77f090","item":"potenti cras in purus"}},
{"id":599,"pincode":396661,"latitude":32.9578909,"longitude":-102.8518139,"order":{"id":"4638a3c8-a429-49c9-99b5-1b54113adb07","item":"at diam nam"}},
{"id":600,"pincode":593941,"latitude":10.5289556,"longitude":-73.7242486,"order":{"id":"cdcd6984-32b5-4512-975f-1b0fa3f796f8","item":"suscipit nulla elit"}},
{"id":601,"pincode":291587,"latitude":51.0149751,"longitude":2.343224,"order":{"id":"9b68bda6-45bb-47dc-99f7-67ca71208863","item":"justo nec condimentum neque sapien"}},
{"id":602,"pincode":471159,"latitude":-3.983424,"longitude":119.8612703,"order":{"id":"ac3cf8ee-fb15-4a09-8f24-3adf4e6a8430","item":"amet consectetuer adipiscing"}},
{"id":603,"pincode":533200,"latitude":-6.6664588,"longitude":111.1682495,"order":{"id":"4f5b5308-1f79-4c91-818b-42cb2b7cf6c7","item":"et eros vestibulum ac est"}},
{"id":604,"pincode":406039,"latitude":5.9840985,"longitude":116.0761121,"order":{"id":"665b1f2a-88f4-47bb-a7eb-f3fca61bbed9","item":"id consequat in consequat ut"}},
{"id":605,"pincode":369396,"latitude":-6.2236967,"longitude":106.9235943,"order":{"id":"e030ee80-c47f-4a6e-bd94-cfcaddc6d967","item":"leo pellentesque ultrices mattis"}},
{"id":606,"pincode":119852,"latitude":31.5655844,"longitude":73.170416,"order":{"id":"e1b4d7a9-e909-4c11-89d2-874302a4487f","item":"dis parturient"}},
{"id":607,"pincode":341518,"latitude":55.6658602,"longitude":12.5482906,"order":{"id":"662b413a-f05c-4eba-8e5f-e366c84d7445","item":"justo aliquam quis turpis"}},
{"id":608,"pincode":491678,"latitude":27.519549,"longitude":114.073416,"order":{"id":"717113c9-986f-449f-8656-308c9e76fb8b","item":"ultrices erat tortor"}},
{"id":609,"pincode":502040,"latitude":28.706919,"longitude":117.821005,"order":{"id":"61d6c858-4707-42c8-afd5-0d4b3e5fd504","item":"posuere cubilia"}},
{"id":610,"pincode":436219,"latitude":14.4409724,"longitude":120.9950071,"order":{"id":"24168606-5d32-449b-a37b-308c8a927d5d","item":"aenean fermentum donec ut"}},
{"id":611,"pincode":544077,"latitude":31.415251,"longitude":121.346638,"order":{"id":"3f306d0b-e87e-4dbb-a418-ae5b2cc84423","item":"nulla neque"}},
{"id":612,"pincode":478000,"latitude":-7.6695988,"longitude":109.9526633,"order":{"id":"78d85c5b-f5e6-457f-b9cd-8ce99bd82f72","item":"mauris sit amet"}},
{"id":613,"pincode":108582,"latitude":-6.9122509,"longitude":109.7457739,"order":{"id":"b0af76c8-51e9-47a0-94bf-ef555efe61d2","item":"mattis pulvinar nulla pede ullamcorper augue"}},
{"id":614,"pincode":103961,"latitude":61.2429355,"longitude":28.9205449,"order":{"id":"31edb22b-0695-4b01-baba-d0926a46523b","item":"ante vestibulum ante ipsum primis in"}},
{"id":615,"pincode":192288,"latitude":45.4698284,"longitude":13.6405292,"order":{"id":"77290abc-c30a-451a-8c66-cadd0dc4a83d","item":"mus etiam vel"}},
{"id":616,"pincode":332025,"latitude":30.741991,"longitude":121.341969,"order":{"id":"2e69e95b-1456-4117-b86e-035f25e723f1","item":"dapibus dolor vel"}},
{"id":617,"pincode":432985,"latitude":-19.4746347,"longitude":-42.5264409,"order":{"id":"454d3a46-7373-4ae1-a148-bc7fedfb0c8a","item":"iaculis congue"}},
{"id":618,"pincode":365740,"latitude":36.2469586,"longitude":138.8138456,"order":{"id":"e2106010-2d75-4388-8010-cdb5a24f1f8b","item":"volutpat dui maecenas tristique"}},
{"id":619,"pincode":236896,"latitude":19.6031486,"longitude":-99.0550357,"order":{"id":"c84ade63-f80a-440e-9fa9-e9282bbe3e5f","item":"massa id lobortis"}},
{"id":620,"pincode":247772,"latitude":33.3992452,"longitude":36.4553727,"order":{"id":"28689b48-35d2-485b-a127-912661af37e1","item":"in imperdiet et commodo vulputate justo"}},
{"id":621,"pincode":150511,"latitude":-6.9633557,"longitude":107.667407,"order":{"id":"8d1ae59f-8bff-49bc-859a-fb31d2d6edc8","item":"hac"}},
{"id":622,"pincode":304751,"latitude":13.751166,"longitude":121.0645073,"order":{"id":"cdca45f6-fa97-40bb-ae4d-3abb659dbc3b","item":"lectus aliquam"}},
{"id":623,"pincode":387396,"latitude":39.75,"longitude":19.683333,"order":{"id":"21ba4378-1f35-4784-80fd-89886d2dae50","item":"commodo"}},
{"id":624,"pincode":473078,"latitude":-8.4731006,"longitude":126.4553727,"order":{"id":"94d79c39-f7e4-4af4-a5ef-337aaa957a1b","item":"sit"}},
{"id":625,"pincode":198674,"latitude":-7.324188,"longitude":110.509841,"order":{"id":"4212c1bd-e1ac-4e33-bfb9-71e77a71a636","item":"donec ut"}},
{"id":626,"pincode":131465,"latitude":45.1099868,"longitude":20.7477906,"order":{"id":"a611200f-96b7-4a74-8503-f9f0a35806dd","item":"nulla"}},
{"id":627,"pincode":477513,"latitude":16.1991156,"longitude":103.2839975,"order":{"id":"548060bd-5e3d-4e97-82aa-2dcc48d2e429","item":"quis orci eget orci vehicula condimentum"}},
{"id":628,"pincode":204870,"latitude":-22.2592565,"longitude":-50.9706116,"order":{"id":"25aa8a7f-ca68-4036-a41a-342eb7b97e6d","item":"eleifend"}},
{"id":629,"pincode":150367,"latitude":-21.7034017,"longitude":-47.27079,"order":{"id":"8abe1d77-9412-43ab-a84d-573187c1d0e0","item":"diam"}},
{"id":630,"pincode":254873,"latitude":31.213534,"longitude":121.445448,"order":{"id":"67981911-99d5-4b89-9e7e-98773edca0b5","item":"sagittis"}},
{"id":631,"pincode":183914,"latitude":30.0118752,"longitude":-95.4463322,"order":{"id":"d3c7523b-2fa7-42c7-ab08-6fa3aa07c368","item":"ut volutpat sapien"}},
{"id":632,"pincode":174540,"latitude":-3.185681,"longitude":104.0362587,"order":{"id":"66879246-a558-4954-9288-dd5f7b9b03f1","item":"adipiscing elit proin"}},
{"id":633,"pincode":507883,"latitude":-7.6185371,"longitude":110.6013327,"order":{"id":"de17ed13-3c52-4d19-865e-d972ea5554fa","item":"donec ut"}},
{"id":634,"pincode":454883,"latitude":14.5919106,"longitude":121.0228804,"order":{"id":"cd94ef82-5141-4cee-aa84-5587d481022f","item":"luctus tincidunt nulla mollis"}},
{"id":635,"pincode":448832,"latitude":39.029567,"longitude":117.661082,"order":{"id":"745c9399-778c-43b9-9cc6-77af5cc83bf6","item":"enim leo rhoncus sed vestibulum"}},
{"id":636,"pincode":194700,"latitude":62.5898079,"longitude":50.8599404,"order":{"id":"a041ebad-d015-4923-8f3e-630935ae67c5","item":"vivamus tortor duis mattis egestas metus"}},
{"id":637,"pincode":138414,"latitude":35.008579,"longitude":37.22551,"order":{"id":"b64fe79a-64b8-4622-9d72-8a5657d19bc8","item":"integer"}},
{"id":638,"pincode":533628,"latitude":46.5328668,"longitude":30.6579315,"order":{"id":"51566c74-2a36-4962-8cc4-ecb1d01a3c0f","item":"ullamcorper augue a suscipit nulla elit"}},
{"id":639,"pincode":534748,"latitude":"43.05207","longitude":"58.84596","order":{"id":"1760de0a-27f3-4130-8c4e-a3a344ea7b0e","item":"nunc rhoncus"}},
{"id":640,"pincode":182462,"latitude":54.6629507,"longitude":17.21407,"order":{"id":"f78e2f99-5cad-4060-b2ad-b3412123f269","item":"cursus vestibulum"}},
{"id":641,"pincode":378510,"latitude":"-13.07361","longitude":"-74.41194","order":{"id":"46ffe670-fae4-4b2d-a2d1-2fa0b353d7bb","item":"dui luctus"}},
{"id":642,"pincode":176260,"latitude":58.5118215,"longitude":13.4761783,"order":{"id":"640c6dd7-542b-47da-b1c5-6b149d9a0b7f","item":"ultricies eu nibh quisque id justo"}},
{"id":643,"pincode":526545,"latitude":-9.9165208,"longitude":-70.1455805,"order":{"id":"1b4eff1e-f86e-4311-82c1-571eb0105f12","item":"in eleifend quam"}},
{"id":644,"pincode":155471,"latitude":28.5009486,"longitude":121.5101004,"order":{"id":"2fa3c633-e7b4-4dee-8a78-5c3678a1be50","item":"erat quisque erat"}},
{"id":645,"pincode":582041,"latitude":-31.4149049,"longitude":-64.1467066,"order":{"id":"fb9606ea-ce7e-41b4-af6c-79e751688d2e","item":"porta volutpat quam pede lobortis ligula"}},
{"id":646,"pincode":326935,"latitude":15.787298,"longitude":120.604649,"order":{"id":"a14dfd5b-96a8-4289-ab19-01b49e6eb477","item":"felis fusce posuere felis sed lacus"}},
{"id":647,"pincode":444810,"latitude":13.0578415,"longitude":44.8832833,"order":{"id":"97083ec5-266d-4a38-bf63-0b309aaceb7a","item":"dictumst morbi vestibulum"}},
{"id":648,"pincode":473504,"latitude":-3.3937106,"longitude":-44.3606211,"order":{"id":"b440c976-a9f0-4e45-930c-b0ed037ff809","item":"justo"}},
{"id":649,"pincode":193424,"latitude":54.0632737,"longitude":-128.6369607,"order":{"id":"9e2427de-4f23-4c14-bd1f-47a782511e4a","item":"mauris enim leo rhoncus"}},
{"id":650,"pincode":546595,"latitude":41.3929185,"longitude":-8.5496995,"order":{"id":"3ea38fcf-45a3-4fe0-b308-5bfed9a753e5","item":"iaculis congue vivamus metus"}},
{"id":651,"pincode":401533,"latitude":50.5372159,"longitude":15.2311161,"order":{"id":"f3d3cb3f-e8c8-43cd-aa43-2ac39150a030","item":"nec nisi vulputate nonummy maecenas tincidunt"}},
{"id":652,"pincode":202535,"latitude":22.980665,"longitude":116.342934,"order":{"id":"f184869c-f92e-44ad-a433-98fd490204fe","item":"varius nulla facilisi cras non"}},
{"id":653,"pincode":184868,"latitude":43.2038704,"longitude":44.8434843,"order":{"id":"af701446-0d7e-4c67-ba59-ef4c426eacb8","item":"risus praesent lectus"}},
{"id":654,"pincode":353682,"latitude":37.7467263,"longitude":126.4878731,"order":{"id":"491764e9-4e27-4378-a555-1c7d5525650d","item":"est quam pharetra magna"}},
{"id":655,"pincode":319796,"latitude":39.9566253,"longitude":44.5924796,"order":{"id":"74abd1f1-f861-4af6-a7e6-6826aa179ac5","item":"leo rhoncus sed"}},
{"id":656,"pincode":112912,"latitude":45.054535,"longitude":15.8966615,"order":{"id":"327e6d92-3d1b-42bd-a14b-50c750c17473","item":"fusce"}},
{"id":657,"pincode":484607,"latitude":14.11684,"longitude":-86.355797,"order":{"id":"aa77232b-626e-4efd-9b83-daff8a82cb1b","item":"ligula sit amet eleifend"}},
{"id":658,"pincode":371716,"latitude":14.3870657,"longitude":120.9396932,"order":{"id":"ffda65e7-419d-4882-b4e5-35edebc42347","item":"vestibulum ante ipsum primis in faucibus"}},
{"id":659,"pincode":501080,"latitude":24.546876,"longitude":107.04219,"order":{"id":"72484cff-3b3d-46bd-ae78-966938d1230e","item":"in hac habitasse"}},
{"id":660,"pincode":403004,"latitude":35.5955313,"longitude":36.0322459,"order":{"id":"cc1161b3-58fc-45cf-a47b-6e6d6216ce43","item":"orci vehicula condimentum curabitur in libero"}},
{"id":661,"pincode":157522,"latitude":45.6181396,"longitude":-73.8394482,"order":{"id":"988ea9ab-a503-4769-9f87-639f4838cf12","item":"ut odio cras mi pede malesuada"}},
{"id":662,"pincode":315500,"latitude":16.4328151,"longitude":100.5521142,"order":{"id":"6e3aa557-1b47-41b9-b6c3-12ebcdc5e97c","item":"et ultrices"}},
{"id":663,"pincode":528860,"latitude":47.8225694,"longitude":0.3908219,"order":{"id":"1c8817da-a52f-4e1c-9b26-d9cba7e5d2df","item":"nulla tempus vivamus in felis eu"}},
{"id":664,"pincode":358026,"latitude":59.3356837,"longitude":18.0778717,"order":{"id":"7389723b-f537-40f3-996d-4115c03b76de","item":"at nunc commodo placerat praesent blandit"}},
{"id":665,"pincode":188814,"latitude":13.9743478,"longitude":121.6910432,"order":{"id":"28b8ad41-239c-44e5-bfad-203db0eee09e","item":"aliquam augue quam sollicitudin vitae"}},
{"id":666,"pincode":400768,"latitude":-6.7354694,"longitude":105.8429054,"order":{"id":"c9725414-49b8-476e-bd6f-b33c4a5b0f54","item":"leo"}},
{"id":667,"pincode":107155,"latitude":-7.974394,"longitude":112.671469,"order":{"id":"eb8ef744-fda1-4ceb-ad63-29f194120fc3","item":"donec dapibus duis"}},
{"id":668,"pincode":588970,"latitude":-8.792325,"longitude":120.960602,"order":{"id":"dea5cc6f-2b76-4c8a-89f6-5e1cef3d8911","item":"nisl aenean lectus pellentesque"}},
{"id":669,"pincode":511947,"latitude":-9.8591671,"longitude":124.2729225,"order":{"id":"5af36dbf-fa51-4cd8-80a8-0fa1bb981e2f","item":"lacus"}},
{"id":670,"pincode":178004,"latitude":49.2952364,"longitude":14.4681017,"order":{"id":"49a402cf-d350-4a9e-8e56-585f0391be50","item":"platea dictumst"}},
{"id":671,"pincode":348648,"latitude":50.2689038,"longitude":17.2529709,"order":{"id":"07a850b8-c24c-4036-8e1f-bc2a63f1274c","item":"aenean"}},
{"id":672,"pincode":285524,"latitude":43.3514833,"longitude":77.4600674,"order":{"id":"7f71faba-4d87-474e-9367-74dfb9a6681d","item":"non mi integer ac neque duis"}},
{"id":673,"pincode":121425,"latitude":7.1774408,"longitude":124.5350175,"order":{"id":"364e04ba-34a7-469f-9979-a46026980229","item":"massa donec"}},
{"id":674,"pincode":512207,"latitude":44.0127932,"longitude":20.9114225,"order":{"id":"9959fa3b-06d8-4e72-bc74-4cc39585b88f","item":"consequat nulla nisl nunc nisl duis"}},
{"id":675,"pincode":442377,"latitude":27.029507,"longitude":113.732949,"order":{"id":"e58a3f13-a419-4f8b-89e1-d0577a47d249","item":"neque aenean"}},
{"id":676,"pincode":423710,"latitude":64.5950323,"longitude":30.6115492,"order":{"id":"bd17d52b-4d45-4df9-a693-32de01f40e3c","item":"eget"}},
{"id":677,"pincode":203165,"latitude":14.549965,"longitude":-86.8270545,"order":{"id":"7f410c92-6a6d-4e0c-83c9-f0e88d2c8395","item":"amet diam in magna"}},
{"id":678,"pincode":273023,"latitude":"6.53333","longitude":"124.03333","order":{"id":"744d34c8-5209-4cac-8cf3-ee2c069a0f7b","item":"enim blandit mi in porttitor"}},
{"id":679,"pincode":375005,"latitude":35.7297805,"longitude":140.2669505,"order":{"id":"4ba62627-a612-4318-b9cc-56ad1396367d","item":"sapien in sapien iaculis congue vivamus"}},
{"id":680,"pincode":327601,"latitude":5.9840985,"longitude":116.0761121,"order":{"id":"2af9ddc4-e8a4-43dd-bb55-2175c0dd014d","item":"quis libero nullam sit"}},
{"id":681,"pincode":532155,"latitude":35.604025,"longitude":110.983333,"order":{"id":"bf32ccd0-f6c6-45ac-80f1-6cf635d780f3","item":"interdum venenatis turpis enim blandit mi"}},
{"id":682,"pincode":390246,"latitude":40.407578,"longitude":118.949684,"order":{"id":"30d570a4-50db-4c65-84dc-6b848759d23b","item":"nunc proin at"}},
{"id":683,"pincode":354344,"latitude":-7.9576278,"longitude":111.3561103,"order":{"id":"b2d23bdb-2d2b-45b2-9a24-9606c5dc78f3","item":"sapien varius ut blandit"}},
{"id":684,"pincode":466277,"latitude":35.575064,"longitude":111.230547,"order":{"id":"67204e11-ede7-4921-9de9-de4b1f622f7d","item":"lacinia"}},
{"id":685,"pincode":478731,"latitude":24.479833,"longitude":118.089425,"order":{"id":"37f2fc69-637d-4f21-96aa-69538e3aac59","item":"eget rutrum at lorem integer"}},
{"id":686,"pincode":414431,"latitude":38.0549562,"longitude":23.807655,"order":{"id":"ce47ecb5-1943-4234-974e-954578382557","item":"nisl venenatis lacinia aenean sit amet"}},
{"id":687,"pincode":517020,"latitude":51.965973,"longitude":21.419225,"order":{"id":"3b0f0a59-a927-4c4f-8159-3aa604ada917","item":"justo morbi ut"}},
{"id":688,"pincode":543634,"latitude":35.544405,"longitude":129.3318295,"order":{"id":"6bbddc87-5c14-4f2c-a554-d6235de3dcd8","item":"orci pede venenatis non"}},
{"id":689,"pincode":444506,"latitude":53.3788495,"longitude":-6.1822287,"order":{"id":"a2768205-76ea-4a20-ac38-f9cf20546ecd","item":"ultrices"}},
{"id":690,"pincode":495697,"latitude":-32.5906095,"longitude":27.8838873,"order":{"id":"f6a8765f-988a-4a82-b807-3249e3a09429","item":"elit sodales"}},
{"id":691,"pincode":571179,"latitude":5.1625611,"longitude":5.9251211,"order":{"id":"52bb735a-bfbb-4644-a854-78dc8ad38c12","item":"habitasse platea dictumst etiam"}},
{"id":692,"pincode":331835,"latitude":"42.83528","longitude":"22.65167","order":{"id":"66bbc408-e707-4711-99d1-a3e42170cfd4","item":"risus dapibus augue vel accumsan tellus"}},
{"id":693,"pincode":486972,"latitude":50.5878419,"longitude":13.8083154,"order":{"id":"ad82c335-9518-430e-b810-e6f202196289","item":"leo pellentesque ultrices mattis odio"}},
{"id":694,"pincode":575067,"latitude":20.1527657,"longitude":92.8676861,"order":{"id":"d703f53e-27b2-4b0b-a4cc-c9fa23042893","item":"ut blandit non interdum"}},
{"id":695,"pincode":386710,"latitude":23.028956,"longitude":113.143441,"order":{"id":"37a0c8ba-3826-4353-afe4-9df5ab8eb0d4","item":"lectus in quam"}},
{"id":696,"pincode":435122,"latitude":29.028766,"longitude":111.697912,"order":{"id":"7aba6917-e7e2-4811-a0a4-674f72308dc2","item":"tempus vel pede morbi"}},
{"id":697,"pincode":401066,"latitude":31.0507836,"longitude":121.7458676,"order":{"id":"393ebd52-4f8d-4bb0-9772-8c50596ffe75","item":"justo in hac habitasse platea"}},
{"id":698,"pincode":174200,"latitude":47.395226,"longitude":8.5216392,"order":{"id":"975befaf-7c0a-42f2-a22f-a4c6382e6dfa","item":"tincidunt"}},
{"id":699,"pincode":529883,"latitude":57.492982,"longitude":12.0730996,"order":{"id":"123d871c-b89d-4ec2-820d-a0043f279198","item":"eu mi nulla ac enim"}},
{"id":700,"pincode":195186,"latitude":18.934217,"longitude":-70.4066437,"order":{"id":"09a243f5-4463-4d4c-860a-aec9108da3b0","item":"mi integer ac neque duis"}},
{"id":701,"pincode":410699,"latitude":-17.8502636,"longitude":36.9218584,"order":{"id":"dafda7f6-c7ab-4c30-bb80-83d58bbc09b3","item":"tellus nisi eu orci mauris lacinia"}},
{"id":702,"pincode":380814,"latitude":52.3582468,"longitude":5.5106628,"order":{"id":"5e46655b-17d2-4a66-be9e-36d9df2c484b","item":"mauris"}},
{"id":703,"pincode":480266,"latitude":-8.2359916,"longitude":113.6561725,"order":{"id":"b54db8bd-bae8-4c8b-8314-f0cf29a14b2f","item":"nisl nunc rhoncus dui vel"}},
{"id":704,"pincode":208257,"latitude":-6.5301408,"longitude":-76.7206652,"order":{"id":"539214bf-e2d7-46bb-842f-1459b57be274","item":"libero rutrum ac"}},
{"id":705,"pincode":202621,"latitude":59.884842,"longitude":12.2993128,"order":{"id":"03433e62-c64b-497e-8c00-4b80c67d92d6","item":"curae mauris"}},
{"id":706,"pincode":483576,"latitude":29.82,"longitude":-95.29,"order":{"id":"6e80c11e-2666-4284-9b66-3e0c6a89f68b","item":"donec odio justo sollicitudin ut suscipit"}},
{"id":707,"pincode":556577,"latitude":53.3276146,"longitude":83.7603436,"order":{"id":"341a9ae5-e6e6-434d-957a-c814d503398f","item":"consequat nulla nisl"}},
{"id":708,"pincode":451135,"latitude":50.6992259,"longitude":21.896691,"order":{"id":"841244d7-c53f-401e-ba2f-487c847b4308","item":"non velit nec nisi vulputate nonummy"}},
{"id":709,"pincode":147055,"latitude":26.885704,"longitude":120.005147,"order":{"id":"6ff94504-c2c1-4ff3-a882-7cb01c74f8db","item":"libero convallis eget eleifend"}},
{"id":710,"pincode":541963,"latitude":-6.6409658,"longitude":106.8030892,"order":{"id":"a34e54e1-0cc8-4051-b6d4-f319d6172636","item":"pede venenatis non sodales sed"}},
{"id":711,"pincode":440146,"latitude":51.9700801,"longitude":85.841294,"order":{"id":"ad303441-8df1-4a9f-aaf0-d4300a973868","item":"feugiat et"}},
{"id":712,"pincode":424652,"latitude":-17.5061578,"longitude":24.2806558,"order":{"id":"19a95988-4f7d-4b6a-a4a7-eb33976e3bb2","item":"ac tellus"}},
{"id":713,"pincode":280000,"latitude":-7.6144216,"longitude":110.7742709,"order":{"id":"abe9c4cd-52a0-4509-ae87-a9e3e59b08da","item":"hac habitasse platea"}},
{"id":714,"pincode":188126,"latitude":52.8358853,"longitude":21.8233603,"order":{"id":"69375d25-fede-4f03-8d69-431436d8c29b","item":"justo etiam pretium iaculis justo in"}},
{"id":715,"pincode":456515,"latitude":28.590337,"longitude":105.697472,"order":{"id":"2b9e60ae-d5c6-4ea8-bd35-a5385bad1e33","item":"donec ut"}},
{"id":716,"pincode":419193,"latitude":46.857141,"longitude":130.325723,"order":{"id":"466ee68c-4071-4376-8e73-042154fac67d","item":"vestibulum proin eu"}},
{"id":717,"pincode":118648,"latitude":59.3586958,"longitude":17.9687559,"order":{"id":"5e81821c-4dd5-4755-89c7-f5f88b32d406","item":"etiam faucibus"}},
{"id":718,"pincode":146618,"latitude":56.2884624,"longitude":46.2910589,"order":{"id":"3f538388-3dc6-4da9-a983-7f87fd721cea","item":"quam pede lobortis"}},
{"id":719,"pincode":377365,"latitude":10.4818973,"longitude":124.0211737,"order":{"id":"a536292c-91b2-4a96-854c-5e7143ce6034","item":"ridiculus mus etiam"}},
{"id":720,"pincode":126851,"latitude":-26.2171929,"longitude":28.327702,"order":{"id":"28745284-90ee-43fe-885e-43f056b9a40f","item":"nibh ligula nec sem duis aliquam"}},
{"id":721,"pincode":127933,"latitude":36.389401,"longitude":120.44716,"order":{"id":"99f18729-657f-4912-b6ba-2be84fd25a04","item":"in libero ut"}},
{"id":722,"pincode":521171,"latitude":50.7308185,"longitude":1.5948224,"order":{"id":"61c313b3-3020-466c-9597-e6cf14c16cfe","item":"primis"}},
{"id":723,"pincode":542447,"latitude":40.7316367,"longitude":20.0427329,"order":{"id":"75b44160-8431-49a7-8951-769e748ddc5d","item":"sed lacus morbi sem mauris laoreet"}},
{"id":724,"pincode":422501,"latitude":25.9375976,"longitude":-100.3638252,"order":{"id":"f7bb1650-2ffa-44ea-93aa-9858085c8c7d","item":"at nibh in hac habitasse platea"}},
{"id":725,"pincode":308538,"latitude":51.9701203,"longitude":5.9409472,"order":{"id":"1e168add-e19b-4835-b6e3-84ee16c3894e","item":"porttitor pede justo eu massa"}},
{"id":726,"pincode":505270,"latitude":61.1386519,"longitude":13.7844652,"order":{"id":"721ef551-874b-4f51-aba9-54dc6ab19dc7","item":"fusce congue"}},
{"id":727,"pincode":511531,"latitude":8.8729633,"longitude":-82.5834947,"order":{"id":"e7849455-ecb3-4c53-9b9e-128e3d890391","item":"iaculis"}},
{"id":728,"pincode":284191,"latitude":"-6.8602","longitude":"115.2711","order":{"id":"5d6da508-8b37-4266-816f-7ac5ded24758","item":"arcu sed"}},
{"id":729,"pincode":545160,"latitude":44.5047212,"longitude":38.1300171,"order":{"id":"72a1cc40-f051-4c5e-b2fd-8d1f915b0aee","item":"nisl"}},
{"id":730,"pincode":175977,"latitude":30.4659284,"longitude":30.9305801,"order":{"id":"70cbb8a9-05b1-4ad2-93ff-c835bc47cf34","item":"ipsum praesent"}},
{"id":731,"pincode":382613,"latitude":58.9607635,"longitude":57.6558829,"order":{"id":"99f95cb3-01b8-4969-a622-7c245268cd1d","item":"semper rutrum nulla"}},
{"id":732,"pincode":348273,"latitude":3.0782922,"longitude":101.5931076,"order":{"id":"1b9544cc-802d-46a8-b281-b45b128fd3ae","item":"nulla integer"}},
{"id":733,"pincode":574521,"latitude":18.2447388,"longitude":-71.2205376,"order":{"id":"ed26a2e5-2ebb-4723-bee5-b98299c0438d","item":"ut at dolor"}},
{"id":734,"pincode":271535,"latitude":"-9.5663","longitude":"119.8145","order":{"id":"753ca8cd-5bc8-408b-b258-52486ca1e7e4","item":"nam"}},
{"id":735,"pincode":268839,"latitude":4.566637,"longitude":-75.75012,"order":{"id":"97060cdb-7169-4df8-b63f-0da19c180f16","item":"massa id nisl venenatis"}},
{"id":736,"pincode":174252,"latitude":55.321347,"longitude":42.16866,"order":{"id":"90f9e7eb-f889-40f9-a0e4-405199198719","item":"ultrices libero non"}},
{"id":737,"pincode":306631,"latitude":53.4431223,"longitude":30.9995629,"order":{"id":"5eaad36d-f1a8-4809-a60c-68ba0b1c081e","item":"in leo maecenas"}},
{"id":738,"pincode":194944,"latitude":-7.0401751,"longitude":107.7132895,"order":{"id":"362b25e3-d1d7-4392-9d6f-6e150b961332","item":"libero nullam sit amet"}},
{"id":739,"pincode":121112,"latitude":-3.7710672,"longitude":103.98402,"order":{"id":"d57e1f2b-de89-4891-8578-e9fb27b368f8","item":"nibh quisque id"}},
{"id":740,"pincode":111820,"latitude":54.4900421,"longitude":59.5853599,"order":{"id":"a0f1de15-7f2a-4730-b6ad-e9e1e0f1b8ba","item":"sodales scelerisque mauris sit amet eros"}},
{"id":741,"pincode":453302,"latitude":7.743026,"longitude":124.210303,"order":{"id":"0adc4ba3-00c9-42a6-935a-6ca1d8813e9a","item":"in"}},
{"id":742,"pincode":519461,"latitude":"34.87725","longitude":"103.8617","order":{"id":"5d2a44e3-efc3-4966-a1b0-de7870079802","item":"lectus"}},
{"id":743,"pincode":397178,"latitude":50.4534011,"longitude":36.8469573,"order":{"id":"26cc0a1e-4f9e-4ae2-8157-b3d62cd16341","item":"metus sapien ut"}},
{"id":744,"pincode":424917,"latitude":41.57365,"longitude":120.4493879,"order":{"id":"7f296f38-71dd-4782-946d-9765e3e99b9f","item":"ut erat curabitur gravida nisi"}},
{"id":745,"pincode":505969,"latitude":50.9603536,"longitude":14.3596743,"order":{"id":"daf5142c-a555-43c7-b15d-713d243b94b1","item":"ultrices"}},
{"id":746,"pincode":277526,"latitude":37.509395,"longitude":103.929926,"order":{"id":"95977625-4662-4706-a44d-ea519276f190","item":"vestibulum ac est lacinia"}},
{"id":747,"pincode":208134,"latitude":55.2708406,"longitude":66.4858701,"order":{"id":"f5b1d5a4-f3c3-459d-97eb-647b420dc723","item":"felis donec semper sapien a libero"}},
{"id":748,"pincode":335870,"latitude":50.2914556,"longitude":15.4772549,"order":{"id":"de6069f5-5c87-447e-bb18-4f3e94aa2c14","item":"quam a odio in hac habitasse"}},
{"id":749,"pincode":295321,"latitude":42.6002262,"longitude":46.5477914,"order":{"id":"504c27fa-0580-4634-b83a-54a062f120dc","item":"lectus pellentesque eget"}},
{"id":750,"pincode":578148,"latitude":28.445007,"longitude":102.639837,"order":{"id":"eeaa214e-3a61-483c-a584-efa2b8554c99","item":"vestibulum ante ipsum"}},
{"id":751,"pincode":177093,"latitude":-6.9216971,"longitude":113.1650014,"order":{"id":"9f880509-58fd-4247-99b8-f5d2ed90d9f2","item":"tortor duis"}},
{"id":752,"pincode":343301,"latitude":23.0714717,"longitude":90.9120501,"order":{"id":"edad4803-c924-4119-ba62-ad1d35e56bc7","item":"et magnis dis"}},
{"id":753,"pincode":477491,"latitude":24.3482735,"longitude":116.6988851,"order":{"id":"3f0c4b53-7df2-44c3-8ac9-434e543520e4","item":"magna bibendum imperdiet"}},
{"id":754,"pincode":253390,"latitude":46.5884132,"longitude":14.2652932,"order":{"id":"c661c005-58ee-4824-a6b2-062a9367261b","item":"nisl venenatis lacinia"}},
{"id":755,"pincode":281970,"latitude":13.6782356,"longitude":102.5211986,"order":{"id":"0c0ea707-6c81-4b5e-b924-8ecbea8d0612","item":"magna"}},
{"id":756,"pincode":598886,"latitude":16.563709,"longitude":121.699742,"order":{"id":"d17473e0-5c8b-48ae-90e4-d680aab92b60","item":"nulla ut"}},
{"id":757,"pincode":164695,"latitude":-22.1037284,"longitude":-43.2110663,"order":{"id":"8ddd8496-e6ca-4c50-82b4-6547dea20f41","item":"id luctus nec molestie sed"}},
{"id":758,"pincode":543074,"latitude":-7.2947788,"longitude":110.3427968,"order":{"id":"029faab7-c1e9-4b57-965f-92061f40cb3e","item":"pede lobortis ligula sit amet eleifend"}},
{"id":759,"pincode":154903,"latitude":38.135288,"longitude":114.397004,"order":{"id":"46829e89-bdaa-4798-916d-6eb37fbf4d42","item":"sollicitudin mi sit amet"}},
{"id":760,"pincode":243037,"latitude":51.7173795,"longitude":15.4240467,"order":{"id":"d67c6485-d13b-4a4d-9613-eb816cb507df","item":"adipiscing molestie hendrerit at vulputate"}},
{"id":761,"pincode":261629,"latitude":31.920658,"longitude":120.284938,"order":{"id":"584dadcf-d328-4e9a-9913-17aedcac8d8d","item":"nisl ut volutpat"}},
{"id":762,"pincode":397356,"latitude":-2.5265605,"longitude":40.529246,"order":{"id":"3a8ab0b4-6e75-4bc2-99d6-4faeeea7b46e","item":"ut volutpat sapien arcu sed"}},
{"id":763,"pincode":488898,"latitude":"37.08571","longitude":"69.47958","order":{"id":"8def2469-dddf-4573-a6d7-9f7bdb96e06a","item":"id nisl venenatis lacinia aenean"}},
{"id":764,"pincode":249302,"latitude":31.88344,"longitude":107.426375,"order":{"id":"f3bf5b2d-9c71-4728-aefd-dbbfd6c30db2","item":"pulvinar"}},
{"id":765,"pincode":155098,"latitude":7.5129005,"longitude":124.9562226,"order":{"id":"84e8c497-eccc-4b59-b98b-6f2588b5417a","item":"proin interdum mauris non ligula pellentesque"}},
{"id":766,"pincode":259996,"latitude":49.757244,"longitude":22.2174725,"order":{"id":"77fc486a-c0b6-4353-89a4-ade9869e5f50","item":"pede ac diam"}},
{"id":767,"pincode":461336,"latitude":47.2262024,"longitude":27.7917874,"order":{"id":"bb5aedca-559b-4550-bce3-2a9f3cf43b3b","item":"morbi odio odio elementum eu interdum"}},
{"id":768,"pincode":113807,"latitude":8.5067807,"longitude":124.759938,"order":{"id":"de5c7b2c-dd51-420a-88df-f39d2b78118d","item":"at diam"}},
{"id":769,"pincode":211564,"latitude":23.112257,"longitude":114.415801,"order":{"id":"d281f784-1a31-4060-92eb-a78ae92d0d48","item":"ligula in lacus curabitur"}},
{"id":770,"pincode":327943,"latitude":"55.61667","longitude":"23.18333","order":{"id":"d1d505cd-bf8c-47bb-a127-60a874276f2f","item":"primis in faucibus orci"}},
{"id":771,"pincode":113257,"latitude":-6.8898362,"longitude":109.6745916,"order":{"id":"ab680ab1-667d-43d8-9437-0656cfcb3d44","item":"ipsum"}},
{"id":772,"pincode":317896,"latitude":48.3236333,"longitude":6.063383,"order":{"id":"ee376177-5e4f-473f-9941-0876557b7914","item":"integer pede justo lacinia eget"}},
{"id":773,"pincode":396136,"latitude":-3.0443341,"longitude":-69.097023,"order":{"id":"e49a610a-38f4-4970-91c7-e01315a8be31","item":"auctor sed tristique"}},
{"id":774,"pincode":120206,"latitude":43.4945737,"longitude":5.8978018,"order":{"id":"8184009f-6bbe-4095-8514-43decce6fee5","item":"dolor morbi"}},
{"id":775,"pincode":298427,"latitude":34.26645,"longitude":108.960747,"order":{"id":"9eb58ef3-1086-467e-96ca-73ec6aa1eb86","item":"fermentum donec ut mauris eget"}},
{"id":776,"pincode":185142,"latitude":51.7300614,"longitude":21.9829204,"order":{"id":"5d23e0ed-9453-48d4-ab20-e70dc4b9ac69","item":"non"}},
{"id":777,"pincode":471716,"latitude":3.9990545,"longitude":96.9638624,"order":{"id":"53fcb869-e486-43bb-b196-e6c7a9f22b96","item":"vel"}},
{"id":778,"pincode":525856,"latitude":44.3398061,"longitude":17.2712934,"order":{"id":"90d38761-7e43-4800-863f-0236030677c7","item":"posuere felis sed"}},
{"id":779,"pincode":167826,"latitude":-7.5893786,"longitude":109.1315198,"order":{"id":"72378337-8566-4659-b218-005745bcd1c1","item":"justo in hac habitasse platea"}},
{"id":780,"pincode":373003,"latitude":-6.9945321,"longitude":112.3918934,"order":{"id":"f1b7f4e4-6df8-4b7a-9c2a-7c09add0d128","item":"in faucibus"}},
{"id":781,"pincode":156509,"latitude":25.5562935,"longitude":-100.9383192,"order":{"id":"57a50f93-4bfc-4bfb-9f70-a158cd235b03","item":"vestibulum sagittis"}},
{"id":782,"pincode":168148,"latitude":29.648686,"longitude":109.864472,"order":{"id":"84bb5ba3-4c4f-4735-9373-c08c91f9b529","item":"ipsum ac"}},
{"id":783,"pincode":117844,"latitude":-27.7203552,"longitude":-48.563999,"order":{"id":"f08b1f02-25a8-451a-a916-bb418e7fb4ed","item":"at"}},
{"id":784,"pincode":266701,"latitude":10.0850213,"longitude":-67.9195741,"order":{"id":"9e54b4ca-95e1-47e0-a1cc-9d5d08f1ce0d","item":"donec dapibus duis"}},
{"id":785,"pincode":315193,"latitude":-18.4097245,"longitude":-49.2162908,"order":{"id":"0e77f792-b2d8-4421-8c5a-8a8d750d3594","item":"integer tincidunt ante vel ipsum"}},
{"id":786,"pincode":169623,"latitude":-6.8582288,"longitude":109.1508428,"order":{"id":"5571a7ad-b3d0-4dba-ba0a-31c5b0d71312","item":"quam suspendisse potenti nullam"}},
{"id":787,"pincode":397419,"latitude":59.2436305,"longitude":14.4319324,"order":{"id":"05a7f2bc-5c6f-4cc1-a426-18f0661312c3","item":"ante"}},
{"id":788,"pincode":452559,"latitude":38.9190379,"longitude":20.8889257,"order":{"id":"afcb318e-369a-461b-b52e-72e24dc96e85","item":"sem praesent id massa"}},
{"id":789,"pincode":565158,"latitude":-8.7367925,"longitude":116.4872482,"order":{"id":"ee09d5cb-8e96-4cde-b00b-c810664553ad","item":"etiam"}},
{"id":790,"pincode":217025,"latitude":10.5353285,"longitude":107.4055814,"order":{"id":"9c2db5bb-cc06-4cf2-84e8-95799c7e8845","item":"odio porttitor id consequat"}},
{"id":791,"pincode":499388,"latitude":28.1459758,"longitude":112.9889132,"order":{"id":"416a1593-2760-41af-8e9a-4526356fd5e9","item":"justo etiam pretium iaculis"}},
{"id":792,"pincode":376354,"latitude":25.8516667,"longitude":114.7766667,"order":{"id":"b41f0962-725d-4dd9-9c80-fa0fc72ef2ac","item":"montes nascetur ridiculus mus etiam"}},
{"id":793,"pincode":569359,"latitude":17.531858,"longitude":121.148087,"order":{"id":"365f6456-53e6-41dc-a7ca-c37d69f0b51f","item":"natoque penatibus et magnis dis"}},
{"id":794,"pincode":194419,"latitude":"42.54688","longitude":"72.20921","order":{"id":"1b801a1b-0c31-471a-838f-dad71b9ca766","item":"suspendisse potenti in eleifend quam"}},
{"id":795,"pincode":311418,"latitude":-21.1877747,"longitude":-41.8799408,"order":{"id":"064f656e-6557-4250-9da1-fa90f68212c9","item":"vestibulum vestibulum"}},
{"id":796,"pincode":229148,"latitude":44.1087666,"longitude":-79.4985091,"order":{"id":"72e6c8d9-b4ee-4419-a28f-0b703bdde318","item":"nec condimentum neque sapien"}},
{"id":797,"pincode":294702,"latitude":19.6092712,"longitude":-72.2134308,"order":{"id":"b978079a-6a02-4d31-99d3-fe5595cf714d","item":"porta volutpat quam pede"}},
{"id":798,"pincode":310963,"latitude":50.401499,"longitude":20.1667579,"order":{"id":"5e36a889-8fce-4762-bf0e-a9423a63898f","item":"consequat nulla nisl nunc"}},
{"id":799,"pincode":363421,"latitude":"14.18356","longitude":"43.22637","order":{"id":"9a6c2245-bb6e-4e3c-9cf0-874a82ef898e","item":"nunc donec quis orci eget"}},
{"id":800,"pincode":287417,"latitude":43.4914335,"longitude":5.3707209,"order":{"id":"c30b76a8-a7a7-460f-9ec2-9635ff49d274","item":"ut"}},
{"id":801,"pincode":329476,"latitude":-18.3349525,"longitude":-59.7602664,"order":{"id":"4397fa99-9a1c-448e-8878-645163b56157","item":"id nulla ultrices aliquet maecenas leo"}},
{"id":802,"pincode":286810,"latitude":31.7746473,"longitude":73.5953173,"order":{"id":"2bbe0a34-9e6e-43ae-b05b-d3f4e0542ff1","item":"ultrices enim lorem ipsum dolor sit"}},
{"id":803,"pincode":393464,"latitude":21.3873563,"longitude":106.1270717,"order":{"id":"f5235889-88be-4c0e-85f7-14e06c0ec335","item":"etiam vel augue"}},
{"id":804,"pincode":346571,"latitude":53.4913801,"longitude":-2.867264,"order":{"id":"6cfb02be-6075-431e-b401-7dc0e56e493b","item":"augue aliquam erat volutpat in"}},
{"id":805,"pincode":571163,"latitude":55.900378,"longitude":37.387813,"order":{"id":"3928b8bc-81b1-4487-a22d-c0c4463ab517","item":"dui vel nisl duis ac"}},
{"id":806,"pincode":178282,"latitude":31.266133,"longitude":121.611248,"order":{"id":"0f8b7267-2a46-4fc8-8c21-ee85b51bb9fa","item":"blandit lacinia erat vestibulum sed magna"}},
{"id":807,"pincode":475848,"latitude":47.3410322,"longitude":1.1586866,"order":{"id":"4beffa9f-d6e4-4257-ba1f-9ccb8ab0b845","item":"eleifend pede"}},
{"id":808,"pincode":438113,"latitude":53.3122864,"longitude":-6.336393,"order":{"id":"8af931ec-54d9-4b99-882d-35c7902ef4f4","item":"maecenas leo"}},
{"id":809,"pincode":305810,"latitude":53.9818262,"longitude":22.0325128,"order":{"id":"ef807f80-3eb2-45ea-a1ff-d3a34e33675c","item":"quis"}},
{"id":810,"pincode":478246,"latitude":-22.868411,"longitude":-42.462843,"order":{"id":"2b8b310c-16c2-4cbb-8a60-70f29781ec48","item":"ac leo pellentesque"}},
{"id":811,"pincode":307179,"latitude":42.0733374,"longitude":21.1202878,"order":{"id":"cdc6c504-d62f-4d96-860e-2b1adb6028ab","item":"ac lobortis vel dapibus at"}},
{"id":812,"pincode":183246,"latitude":24.479833,"longitude":118.089425,"order":{"id":"6638d60a-a40e-40d0-86a9-1864dd901fc2","item":"ligula in"}},
{"id":813,"pincode":392627,"latitude":-27.3607338,"longitude":-53.3963199,"order":{"id":"dbee301d-0127-4618-937f-0145aae62a55","item":"lorem"}},
{"id":814,"pincode":398214,"latitude":57.2490334,"longitude":16.4322461,"order":{"id":"5b41e223-8e4b-4b58-b38d-dc7b06b67e79","item":"sem fusce consequat nulla"}},
{"id":815,"pincode":325004,"latitude":36.068172,"longitude":120.395912,"order":{"id":"92abfbf7-851c-46f6-a5f2-e43d2423ccd2","item":"nunc viverra dapibus nulla"}},
{"id":816,"pincode":120730,"latitude":-8.3585481,"longitude":114.6118669,"order":{"id":"a58db3f3-695b-40c4-ac97-81fb6468b80a","item":"semper porta volutpat quam pede"}},
{"id":817,"pincode":127826,"latitude":23.365556,"longitude":116.70345,"order":{"id":"b00f6841-9c21-4aaa-85e7-77eb5f71d54e","item":"in sapien iaculis congue vivamus"}},
{"id":818,"pincode":162524,"latitude":-3.4816267,"longitude":-80.2453748,"order":{"id":"cf497ddc-abf3-4001-bf31-63e4fa495356","item":"ipsum integer a nibh in"}},
{"id":819,"pincode":465991,"latitude":3.5233855,"longitude":125.5110513,"order":{"id":"da11906d-13cc-4f61-8219-cc6df4f79abe","item":"in"}},
{"id":820,"pincode":269919,"latitude":40.0316754,"longitude":20.1789757,"order":{"id":"cc0d6998-92a2-4798-adf9-95ec7fcaad20","item":"proin leo odio"}},
{"id":821,"pincode":571491,"latitude":32.983101,"longitude":107.766613,"order":{"id":"a0116ddc-e68e-4aeb-9b7d-0907d9afd9ab","item":"in hac habitasse platea"}},
{"id":822,"pincode":432276,"latitude":39.8783781,"longitude":116.0313067,"order":{"id":"a676ae59-b5d0-4781-8442-b590dacb8026","item":"ut suscipit a feugiat et"}},
{"id":823,"pincode":243503,"latitude":24.625561,"longitude":118.431541,"order":{"id":"913783e3-7bc6-4d36-88b1-e6f244f745fb","item":"fermentum justo"}},
{"id":824,"pincode":190959,"latitude":-2.5082067,"longitude":112.1787896,"order":{"id":"6b133241-60ed-46fe-93ac-1ce9e7d5b133","item":"pulvinar lobortis est phasellus"}},
{"id":825,"pincode":389117,"latitude":-10.9057388,"longitude":-37.681228,"order":{"id":"90a92a83-7263-413a-85ee-3131e5cf6096","item":"sapien quis"}},
{"id":826,"pincode":529535,"latitude":21.941555,"longitude":111.426122,"order":{"id":"53f3c479-a35d-4191-b5f5-b89892785735","item":"accumsan felis ut at dolor quis"}},
{"id":827,"pincode":403241,"latitude":-6.9706827,"longitude":112.593047,"order":{"id":"6a9f6ecc-9a11-41bf-ac18-53481151b7e3","item":"interdum mauris ullamcorper purus sit amet"}},
{"id":828,"pincode":111391,"latitude":40.4749958,"longitude":22.9587865,"order":{"id":"9c6ba013-7d79-4ccf-922d-2fff29d4104d","item":"morbi porttitor lorem id"}},
{"id":829,"pincode":551178,"latitude":41.2499754,"longitude":-7.9522855,"order":{"id":"63406d27-4f67-48ec-acf7-c4423dd403ba","item":"sem mauris laoreet ut"}},
{"id":830,"pincode":314162,"latitude":45.1099574,"longitude":40.2950699,"order":{"id":"68ada963-3f67-447d-a93c-c92bdb3de030","item":"eleifend quam a odio in"}},
{"id":831,"pincode":240278,"latitude":14.63441,"longitude":-91.578904,"order":{"id":"296066c4-7a72-4335-a09f-64e68facc96b","item":"vehicula consequat morbi a"}},
{"id":832,"pincode":381914,"latitude":45.7164219,"longitude":4.8750727,"order":{"id":"b1bf25d1-06af-4232-94ef-c47b7f8d28d5","item":"et ultrices posuere cubilia curae"}},
{"id":833,"pincode":411386,"latitude":49.6000083,"longitude":15.8302054,"order":{"id":"a27f4098-c196-4ea8-acac-861c26f0ef8f","item":"platea dictumst aliquam augue quam"}},
{"id":834,"pincode":388857,"latitude":33.7071551,"longitude":8.9714623,"order":{"id":"52c918b6-fab1-42ea-953b-a1a8b4a1c5e0","item":"at lorem integer"}},
{"id":835,"pincode":369734,"latitude":34.1956019,"longitude":118.6733461,"order":{"id":"a50083cc-119c-44dd-b10f-2f3b1339b97a","item":"vulputate vitae nisl aenean lectus pellentesque"}},
{"id":836,"pincode":591004,"latitude":-7.9286951,"longitude":110.289179,"order":{"id":"de9a1bd6-3cee-4074-9f12-c2eb2a183fb3","item":"donec semper"}},
{"id":837,"pincode":138235,"latitude":-37.1954967,"longitude":174.9497836,"order":{"id":"3f4ad4f8-3655-418c-b5b6-23bacd96320f","item":"non"}},
{"id":838,"pincode":348125,"latitude":6.5592478,"longitude":124.6846104,"order":{"id":"d9345ddd-364d-4cf1-acc4-bb8f2f8a6230","item":"odio"}},
{"id":839,"pincode":204581,"latitude":-27.8341089,"longitude":25.9063474,"order":{"id":"b3f4f1d8-4fb4-403d-8b0f-c6534fcf30c9","item":"volutpat erat quisque erat"}},
{"id":840,"pincode":226873,"latitude":-10.0828864,"longitude":124.1253751,"order":{"id":"ec5be42a-c06b-42a5-adb4-dd6a6168e4d0","item":"neque aenean auctor gravida"}},
{"id":841,"pincode":553940,"latitude":-8.6873795,"longitude":115.1933778,"order":{"id":"c5e4b59c-1e0d-45ac-9125-4b3d891f076f","item":"metus"}},
{"id":842,"pincode":536870,"latitude":14.7247931,"longitude":121.0315758,"order":{"id":"e5562ad3-5421-4b3e-a139-10c601120314","item":"congue eget semper rutrum"}},
{"id":843,"pincode":102748,"latitude":13.6154575,"longitude":123.489418,"order":{"id":"f580862e-df9d-4784-a7fe-50e9cc13e466","item":"nec nisi vulputate nonummy maecenas tincidunt"}},
{"id":844,"pincode":490322,"latitude":5.1964397,"longitude":-74.2349232,"order":{"id":"f60e1a9f-8501-41ac-990a-24ffeef30a68","item":"nullam sit amet turpis elementum"}},
{"id":845,"pincode":347882,"latitude":43.9704382,"longitude":12.4867883,"order":{"id":"e48a326f-a63a-4e0f-bc50-43ec256a1973","item":"sapien cum sociis natoque penatibus et"}},
{"id":846,"pincode":227424,"latitude":32.8676912,"longitude":-80.017511,"order":{"id":"5452ca6c-dd29-4974-8c66-baee15a0ebe4","item":"enim in tempor"}},
{"id":847,"pincode":455616,"latitude":38.6134405,"longitude":-9.0019336,"order":{"id":"867ab300-ae8e-479e-a0e0-43fa8dd42afb","item":"vitae ipsum aliquam"}},
{"id":848,"pincode":368372,"latitude":12.72486,"longitude":30.635,"order":{"id":"b7cb6444-51c2-4cfa-874d-0f90afbe2e5a","item":"ut dolor morbi vel lectus in"}},
{"id":849,"pincode":176043,"latitude":1.424768,"longitude":103.6487041,"order":{"id":"06556bb8-c54f-4028-9ee7-26e2413a6967","item":"magnis dis parturient"}},
{"id":850,"pincode":415925,"latitude":-6.9044415,"longitude":112.9148168,"order":{"id":"5b7679d3-81b0-4d78-a80d-ae4f99c3383e","item":"augue quam"}},
{"id":851,"pincode":406300,"latitude":37.5697358,"longitude":140.4907047,"order":{"id":"9464c880-f60b-45a6-9fd2-1cb6cf2a1678","item":"adipiscing molestie hendrerit at vulputate"}},
{"id":852,"pincode":589765,"latitude":23.701262,"longitude":117.430061,"order":{"id":"b17b0383-be36-4367-9f3b-4d27bc18b8eb","item":"ut"}},
{"id":853,"pincode":348170,"latitude":62.3011539,"longitude":21.4081366,"order":{"id":"957fcf0f-ced2-4838-91dd-1270eedbaea5","item":"maecenas tristique"}},
{"id":854,"pincode":254561,"latitude":-29.0303854,"longitude":-51.2003761,"order":{"id":"067e3325-fe1d-4e6d-9957-282115cf4fd0","item":"magna at nunc commodo placerat praesent"}},
{"id":855,"pincode":377356,"latitude":17.4465041,"longitude":120.5273983,"order":{"id":"bffc2791-7678-48cf-afc5-6176194d1475","item":"sapien dignissim vestibulum"}},
{"id":856,"pincode":422209,"latitude":29.756501,"longitude":121.507191,"order":{"id":"628004b0-3c86-4753-a9a5-3445429a151e","item":"est congue"}},
{"id":857,"pincode":156288,"latitude":56.0895859,"longitude":63.672798,"order":{"id":"67bfd533-ec87-499c-af52-020e0f40bb4e","item":"nullam sit amet"}},
{"id":858,"pincode":380705,"latitude":49.3883262,"longitude":17.0710865,"order":{"id":"4f6936e9-99ea-4ba4-ad28-fa2a051f7e36","item":"justo etiam"}},
{"id":859,"pincode":580929,"latitude":44.0527811,"longitude":6.1717148,"order":{"id":"5ff41fc5-fbc1-4c56-a5eb-1d500df57a86","item":"elit"}},
{"id":860,"pincode":355648,"latitude":59.1499143,"longitude":9.6586061,"order":{"id":"a312e945-0650-42a5-92d6-889495dda10c","item":"in hac"}},
{"id":861,"pincode":481334,"latitude":44.521785,"longitude":125.72862,"order":{"id":"e8725f84-e7f7-4156-86ff-979768597137","item":"ultrices phasellus id sapien in sapien"}},
{"id":862,"pincode":221301,"latitude":-19.1054879,"longitude":33.4607744,"order":{"id":"19274c9b-b02e-475b-b200-6509f1c2186d","item":"orci"}},
{"id":863,"pincode":535659,"latitude":40.6318731,"longitude":48.6363801,"order":{"id":"76a1d4a6-1eff-45fb-976d-85d98367649a","item":"non ligula pellentesque"}},
{"id":864,"pincode":110733,"latitude":53.2650844,"longitude":22.9045174,"order":{"id":"7d5bbb36-264d-4e11-89ce-f0213ba793df","item":"faucibus orci luctus et ultrices"}},
{"id":865,"pincode":190300,"latitude":"-8.7733","longitude":"121.137","order":{"id":"cf0dd584-4c37-4187-b053-bb5fa35787e3","item":"eu"}},
{"id":866,"pincode":491372,"latitude":38.6087272,"longitude":-8.7312777,"order":{"id":"ab347381-0033-498a-a663-d96e3c8e67a5","item":"et tempus semper est"}},
{"id":867,"pincode":487508,"latitude":33.7356633,"longitude":130.7183918,"order":{"id":"705e3653-a1f7-47fa-a869-3b608907126c","item":"vulputate vitae nisl aenean lectus"}},
{"id":868,"pincode":560849,"latitude":6.6148458,"longitude":-71.1686168,"order":{"id":"507d907f-a043-48e0-bb1d-ac2b3bac7ceb","item":"dapibus at diam nam"}},
{"id":869,"pincode":360778,"latitude":-16.4359692,"longitude":-71.6050339,"order":{"id":"ba3f5916-8fca-436e-bf11-f3015a2c04cb","item":"eget rutrum"}},
{"id":870,"pincode":141893,"latitude":31.051908,"longitude":96.719767,"order":{"id":"286132b6-8400-4662-9f55-4e77f606e6ab","item":"euismod scelerisque quam turpis adipiscing"}},
{"id":871,"pincode":216414,"latitude":23.701262,"longitude":117.430061,"order":{"id":"eda505f3-78db-4a4c-a1aa-3431bb71bc6a","item":"urna pretium nisl ut"}},
{"id":872,"pincode":231494,"latitude":24.646975,"longitude":116.951541,"order":{"id":"e6884889-571d-4ed3-bdf9-80f0c8b672a9","item":"lacus morbi quis tortor"}},
{"id":873,"pincode":289984,"latitude":33.207199,"longitude":-87.5482025,"order":{"id":"22078ea5-1acf-4eda-8c4b-19d756be3bf3","item":"sit amet sem fusce consequat nulla"}},
{"id":874,"pincode":233864,"latitude":9.8539292,"longitude":-84.0911821,"order":{"id":"ef5fa36c-84d0-4fbe-ad47-82a8ff08493b","item":"libero convallis eget eleifend luctus"}},
{"id":875,"pincode":510931,"latitude":35.000262,"longitude":102.910493,"order":{"id":"bb066d96-c1ac-4bdf-8206-5b178d487b3c","item":"in"}},
{"id":876,"pincode":219136,"latitude":36.1457192,"longitude":-86.8066559,"order":{"id":"786eb316-005c-4748-85d0-0cd2298bee5d","item":"amet lobortis sapien sapien non"}},
{"id":877,"pincode":167331,"latitude":40.667433,"longitude":122.235084,"order":{"id":"fc050713-ffcd-4e27-83d3-9d0f86bb6aad","item":"orci luctus et ultrices"}},
{"id":878,"pincode":110844,"latitude":29.652491,"longitude":91.17211,"order":{"id":"7a234acc-7510-430b-b056-52c7be600570","item":"magna ac consequat metus sapien ut"}},
{"id":879,"pincode":385313,"latitude":21.6474788,"longitude":39.7137181,"order":{"id":"e216e083-0e45-49a1-b461-3b9d607addcb","item":"faucibus orci luctus et"}},
{"id":880,"pincode":319665,"latitude":55.1795454,"longitude":61.3396043,"order":{"id":"10f50426-ae13-4c7c-93f4-4cc760102d7a","item":"donec semper sapien a libero"}},
{"id":881,"pincode":535870,"latitude":27.754532,"longitude":112.723615,"order":{"id":"362f4442-d954-4de8-baa7-9f99c8f14cf1","item":"rhoncus"}},
{"id":882,"pincode":415043,"latitude":39.9149407,"longitude":-8.350634,"order":{"id":"bfd73513-5f87-493a-8405-72741cd7af19","item":"amet eros suspendisse accumsan tortor"}},
{"id":883,"pincode":571965,"latitude":35.5770451,"longitude":51.4624642,"order":{"id":"a665cb2a-33fa-465d-8aaf-b14755b445fd","item":"sit amet lobortis sapien sapien"}},
{"id":884,"pincode":183375,"latitude":41.8647615,"longitude":12.3864842,"order":{"id":"c022a646-4523-4a62-81a9-d51dcef4f2cb","item":"quam pede"}},
{"id":885,"pincode":532114,"latitude":58.2843499,"longitude":82.8176788,"order":{"id":"b122b076-4fbb-4eaf-bce9-17763552551c","item":"justo nec condimentum neque sapien placerat"}},
{"id":886,"pincode":542046,"latitude":48.0514345,"longitude":39.9041695,"order":{"id":"43e0f595-c3dc-425b-b415-094477d210ff","item":"pede"}},
{"id":887,"pincode":264501,"latitude":0.2826569,"longitude":32.5662219,"order":{"id":"6de1836e-135e-447b-bf69-d27e32fdd033","item":"ut ultrices"}},
{"id":888,"pincode":536940,"latitude":36.6484118,"longitude":9.6146499,"order":{"id":"b23eabd1-70e9-4481-b6b7-1b8b431875a8","item":"erat volutpat in"}},
{"id":889,"pincode":127819,"latitude":43.37822,"longitude":115.0594815,"order":{"id":"ee84a25a-1ee7-4169-9c18-7a7825e21236","item":"consequat dui nec nisi"}},
{"id":890,"pincode":128576,"latitude":-15.2159658,"longitude":-69.6892254,"order":{"id":"ad02b77b-9e8d-4b6e-a0ef-50815b3e538c","item":"quam suspendisse potenti"}},
{"id":891,"pincode":254825,"latitude":7.0115716,"longitude":39.9761012,"order":{"id":"c2c5ec2a-34ab-4e8c-8f90-f12fdc2ad511","item":"velit donec diam neque vestibulum"}},
{"id":892,"pincode":332927,"latitude":49.9846292,"longitude":20.293343,"order":{"id":"1b4d3a67-803e-4f05-a75a-73c61ab477b6","item":"dolor"}},
{"id":893,"pincode":181103,"latitude":42.0107787,"longitude":128.0660957,"order":{"id":"7a8e4429-1327-43d4-b019-063b303744c9","item":"praesent blandit lacinia erat"}},
{"id":894,"pincode":431347,"latitude":53.8386511,"longitude":22.9882406,"order":{"id":"e84b8c9d-0fdc-44ed-9fb1-eb6605959230","item":"ut nunc vestibulum ante ipsum primis"}},
{"id":895,"pincode":263358,"latitude":24.614944,"longitude":104.740588,"order":{"id":"6791a22e-ea0c-4016-ab9f-26b7b6546bf3","item":"nam dui proin leo"}},
{"id":896,"pincode":303553,"latitude":16.7702095,"longitude":-93.3791405,"order":{"id":"4b6b2f1e-edc5-453b-b1b4-340e680f18bd","item":"ac leo"}},
{"id":897,"pincode":428410,"latitude":28.572029,"longitude":109.482078,"order":{"id":"88521db4-3f40-4aa1-b00a-3b80bb6e4fe2","item":"a nibh in"}},
{"id":898,"pincode":403449,"latitude":43.881812,"longitude":87.409018,"order":{"id":"47a0530c-f5a4-4350-a1f9-12e4bbb4e010","item":"urna pretium"}},
{"id":899,"pincode":289540,"latitude":57.3423349,"longitude":13.7300442,"order":{"id":"b123fc67-c358-49fd-95ce-24e28b8fc3f7","item":"nulla nisl nunc nisl"}},
{"id":900,"pincode":545196,"latitude":31.919928,"longitude":35.036911,"order":{"id":"c3d0ca27-6fb0-4643-90ac-85fe4acf1f64","item":"maecenas leo"}},
{"id":901,"pincode":363575,"latitude":-7.1520459,"longitude":108.5196028,"order":{"id":"001a52d9-afd8-4fce-8636-c4774125a930","item":"ut at dolor quis"}},
{"id":902,"pincode":196265,"latitude":22.691253,"longitude":114.346251,"order":{"id":"bde4beed-b07d-4346-9462-b0b1dcfdfb69","item":"mi pede malesuada"}},
{"id":903,"pincode":262995,"latitude":"46.21659","longitude":"83.43329","order":{"id":"71141b29-456a-4c20-b119-fd792754c98d","item":"id pretium iaculis diam"}},
{"id":904,"pincode":209602,"latitude":51.3895069,"longitude":22.1851171,"order":{"id":"e169f9d5-1b30-41ef-a752-e6a968d2053e","item":"ligula pellentesque"}},
{"id":905,"pincode":410258,"latitude":49.0130083,"longitude":28.5042197,"order":{"id":"7ad410bc-84a2-40bf-8b5c-487b47306eae","item":"odio donec vitae nisi nam"}},
{"id":906,"pincode":381109,"latitude":40.1422779,"longitude":-7.6602365,"order":{"id":"72398f7b-1327-4504-82c3-ae562cdebf39","item":"sed justo pellentesque viverra"}},
{"id":907,"pincode":497409,"latitude":13.8494172,"longitude":99.408315,"order":{"id":"07323c5a-2774-42a2-a13a-fe7c5755faaa","item":"eu nibh quisque"}},
{"id":908,"pincode":157724,"latitude":-9.2957636,"longitude":-75.997859,"order":{"id":"b43b2a2c-1f56-4acc-8ae8-f427f537c2aa","item":"posuere metus vitae ipsum"}},
{"id":909,"pincode":411404,"latitude":-25.6177713,"longitude":-56.2817585,"order":{"id":"bbdf7ec5-66b9-43f9-b298-1abc2c8addbf","item":"suspendisse accumsan"}},
{"id":910,"pincode":461629,"latitude":39.4721887,"longitude":-84.4772033,"order":{"id":"75f35934-56b3-4e18-a145-18086293cc71","item":"penatibus et magnis dis parturient montes"}},
{"id":911,"pincode":466421,"latitude":44.666926,"longitude":19.2469148,"order":{"id":"21b9142a-fe85-4c11-9fb3-58b9bb0b85e0","item":"lacus at velit vivamus vel nulla"}},
{"id":912,"pincode":264624,"latitude":0.0132035,"longitude":109.3128909,"order":{"id":"b4240119-6c80-4e86-a96d-ab1f477988c3","item":"donec dapibus duis at velit"}},
{"id":913,"pincode":555875,"latitude":10.267698,"longitude":123.942247,"order":{"id":"61233413-1673-4379-a381-47a3fdbc91b6","item":"nascetur ridiculus"}},
{"id":914,"pincode":129046,"latitude":16.8782186,"longitude":-1.9209164,"order":{"id":"377054e3-a884-4337-89d7-cdcfd0f96d00","item":"risus dapibus"}},
{"id":915,"pincode":210026,"latitude":32.318255,"longitude":109.715304,"order":{"id":"fa906dd9-de34-4518-a713-138ec2bae25d","item":"dictumst maecenas ut"}},
{"id":916,"pincode":266997,"latitude":34.0506434,"longitude":109.3781809,"order":{"id":"5593d76c-5b14-4042-ba38-5fd69f2ad308","item":"sit amet turpis"}},
{"id":917,"pincode":271565,"latitude":50.5205623,"longitude":116.3132019,"order":{"id":"05ce6754-be60-4390-84d7-ac2af0e432bc","item":"in ante vestibulum ante ipsum"}},
{"id":918,"pincode":233749,"latitude":-2.9765098,"longitude":33.5140043,"order":{"id":"cc985fb1-0537-4308-93b2-e9675f40f8f1","item":"et eros vestibulum"}},
{"id":919,"pincode":559342,"latitude":-6.107046,"longitude":-78.5970229,"order":{"id":"56d60a30-e098-4a4e-85aa-9ff9c28affe5","item":"ultrices enim"}},
{"id":920,"pincode":298929,"latitude":40.7485192,"longitude":-7.8032048,"order":{"id":"17403ec8-fb88-493f-ac7f-65a186fb9109","item":"magnis dis parturient montes nascetur"}},
{"id":921,"pincode":371257,"latitude":49.4709886,"longitude":6.3640878,"order":{"id":"41cfce44-6207-4d66-9a6a-1eb3cd243e75","item":"commodo placerat praesent blandit"}},
{"id":922,"pincode":326823,"latitude":30.747842,"longitude":120.783024,"order":{"id":"f0fa7e18-15f1-405d-bcb9-38a679c316e5","item":"augue quam sollicitudin vitae consectetuer"}},
{"id":923,"pincode":239748,"latitude":-10.4911471,"longitude":-76.5155834,"order":{"id":"8619a995-767f-4102-8634-bdfcce3206f4","item":"in sagittis dui vel nisl duis"}},
{"id":924,"pincode":340856,"latitude":45.0454855,"longitude":39.6498995,"order":{"id":"6859d818-c4a4-4bd4-bb9a-7b147945c557","item":"pellentesque ultrices"}},
{"id":925,"pincode":402782,"latitude":-8.4382384,"longitude":114.0974489,"order":{"id":"48891f44-124d-4bae-b4cb-235701866a51","item":"odio porttitor id consequat in"}},
{"id":926,"pincode":488884,"latitude":22.529403,"longitude":103.93935,"order":{"id":"ad62e23a-4bbc-45bd-899f-b093165a9752","item":"luctus tincidunt nulla"}},
{"id":927,"pincode":367323,"latitude":-18.8228804,"longitude":-40.9050432,"order":{"id":"ea55a8f4-ff19-4279-a162-5b5817217ffe","item":"aliquet at feugiat"}},
{"id":928,"pincode":558174,"latitude":-7.666671,"longitude":111.8359916,"order":{"id":"1c2866fc-3331-45f5-b8d1-4ebd32c2b52e","item":"praesent blandit nam nulla integer"}},
{"id":929,"pincode":590984,"latitude":8.679187,"longitude":124.972309,"order":{"id":"8e911a4e-031c-4ec3-a699-a8d91dc1e792","item":"dui maecenas tristique est"}},
{"id":930,"pincode":332897,"latitude":49.8618582,"longitude":14.509899,"order":{"id":"28f77e31-81cc-4835-aa4d-d1a06815a9ea","item":"luctus ultricies eu nibh"}},
{"id":931,"pincode":235997,"latitude":34.0661547,"longitude":134.1688885,"order":{"id":"5115f461-7f74-43dd-985e-718593173446","item":"sapien non mi integer ac"}},
{"id":932,"pincode":479680,"latitude":13.4760557,"longitude":-13.8651056,"order":{"id":"65ef8f6f-ef70-453b-90ad-2786e33857c5","item":"erat quisque erat eros viverra eget"}},
{"id":933,"pincode":210594,"latitude":22.980665,"longitude":116.342934,"order":{"id":"23062f86-1a81-426f-9bf5-453f4faf0be4","item":"velit id pretium iaculis"}},
{"id":934,"pincode":186576,"latitude":23.5651914,"longitude":58.4201892,"order":{"id":"f63e01e5-1aea-43d2-9d17-c46dafdd0a7d","item":"lacinia nisi venenatis tristique fusce congue"}},
{"id":935,"pincode":197804,"latitude":57.4145669,"longitude":15.0919158,"order":{"id":"7fbf470f-6138-4cd8-b7ab-b13b62e7a458","item":"urna ut tellus nulla"}},
{"id":936,"pincode":442997,"latitude":23.36225,"longitude":103.374576,"order":{"id":"b5e4af3c-8963-4bbe-b08a-22b1904f4c2d","item":"interdum"}},
{"id":937,"pincode":158280,"latitude":13.8503992,"longitude":123.7585154,"order":{"id":"452b0956-60f2-480b-b2ed-2436b7f523dc","item":"nisl"}},
{"id":938,"pincode":108284,"latitude":14.5629719,"longitude":-89.349044,"order":{"id":"838f76ae-06cd-4b31-9378-90de6a2a157b","item":"amet eleifend pede libero"}},
{"id":939,"pincode":516331,"latitude":35.5732078,"longitude":8.6683097,"order":{"id":"87b54a4d-2e93-4784-983a-42037f362bf7","item":"dui maecenas tristique"}},
{"id":940,"pincode":112701,"latitude":50.6927144,"longitude":16.7525932,"order":{"id":"5ae36c8c-8be1-4e20-ad31-0a917b9c069c","item":"ut erat curabitur"}},
{"id":941,"pincode":344264,"latitude":26.1534361,"longitude":119.9306863,"order":{"id":"9758a633-650d-4ce7-91fb-2f2418669375","item":"nec nisi"}},
{"id":942,"pincode":151426,"latitude":52.5017027,"longitude":73.0947195,"order":{"id":"ccd1cc25-13ce-4f85-84b3-1c41f2124387","item":"purus eu magna vulputate luctus"}},
{"id":943,"pincode":303044,"latitude":14.5694528,"longitude":121.0168115,"order":{"id":"33865460-1539-4616-8eab-8e3baf715a8a","item":"libero rutrum ac lobortis vel"}},
{"id":944,"pincode":292669,"latitude":49.7241948,"longitude":20.4545876,"order":{"id":"6df973a3-ca93-4700-a040-5528bbb623a6","item":"magnis dis parturient montes"}},
{"id":945,"pincode":556403,"latitude":7.1069627,"longitude":39.2011716,"order":{"id":"690c9681-c7f7-45c0-b045-7e3e01780926","item":"sed vel enim sit amet"}},
{"id":946,"pincode":112492,"latitude":39.958194,"longitude":116.432774,"order":{"id":"48b40c25-dcf6-4ad6-b97d-436ee170bc63","item":"ac leo"}},
{"id":947,"pincode":369180,"latitude":26.641315,"longitude":100.222545,"order":{"id":"df36a567-b60c-483b-a871-0174ab032e98","item":"a pede posuere nonummy integer"}},
{"id":948,"pincode":317889,"latitude":65.691125,"longitude":-18.1061726,"order":{"id":"759a5484-1383-42cf-8bb1-5d26395a17f4","item":"phasellus sit amet"}},
{"id":949,"pincode":547510,"latitude":-6.864462,"longitude":111.9390257,"order":{"id":"132c2936-7fee-48dd-8b79-4c8d48bb4d59","item":"blandit non interdum"}},
{"id":950,"pincode":137993,"latitude":40.3698651,"longitude":48.1644626,"order":{"id":"ab8d2d1b-f226-40f1-9435-cc9831297b38","item":"duis"}},
{"id":951,"pincode":156142,"latitude":41.5608072,"longitude":-8.5863716,"order":{"id":"d91180c6-b6fe-4d53-8fcc-bb4da47f3a59","item":"ipsum primis"}},
{"id":952,"pincode":566687,"latitude":38.8491962,"longitude":-9.2710509,"order":{"id":"af748d15-fd60-45bc-83da-27a584255830","item":"tincidunt eget tempus vel pede"}},
{"id":953,"pincode":195942,"latitude":48.6366985,"longitude":2.7912279,"order":{"id":"431708db-e3f2-44a4-96e4-f5d526f59840","item":"pretium nisl ut volutpat sapien arcu"}},
{"id":954,"pincode":430801,"latitude":24.44218,"longitude":114.938684,"order":{"id":"635f24a8-9cd4-4b5c-a150-f0b3dbf7a762","item":"lorem integer tincidunt ante"}},
{"id":955,"pincode":420265,"latitude":25.521039,"longitude":112.309325,"order":{"id":"2684074b-c2b2-4066-812f-bdd7f3ef469e","item":"sed justo pellentesque viverra pede"}},
{"id":956,"pincode":422613,"latitude":34.6982972,"longitude":69.2758336,"order":{"id":"d9261644-52ae-4612-a9bb-caebedeb5a11","item":"duis bibendum morbi non"}},
{"id":957,"pincode":480733,"latitude":42.5530523,"longitude":70.0024837,"order":{"id":"f3bd41b0-cece-48da-ab86-b67c69bc3dca","item":"imperdiet nullam orci pede"}},
{"id":958,"pincode":391025,"latitude":48.8708001,"longitude":2.166848,"order":{"id":"8d06c7b1-4431-4ce9-8e4d-3d69c14effae","item":"nulla sed vel enim sit"}},
{"id":959,"pincode":225276,"latitude":38.3080648,"longitude":23.6391172,"order":{"id":"bd41c717-b5e8-4554-9bb7-44e7efb731d0","item":"suspendisse"}},
{"id":960,"pincode":154559,"latitude":1.3483826,"longitude":125.0498292,"order":{"id":"b6007f1b-ab8d-4fa9-a6f2-1fd88f0bad74","item":"libero ut massa volutpat"}},
{"id":961,"pincode":494287,"latitude":0.9463536,"longitude":-74.4994517,"order":{"id":"f0e6ec10-f3dd-496c-bce5-b149af28f8c4","item":"est quam pharetra magna ac"}},
{"id":962,"pincode":286381,"latitude":14.0804623,"longitude":-90.3793599,"order":{"id":"2bfcf473-83f8-4d47-acda-cd50dce7e885","item":"curabitur at"}},
{"id":963,"pincode":535365,"latitude":7.54326,"longitude":126.0733316,"order":{"id":"b07c7d0a-bbcd-4376-8f7e-beaba05b8b22","item":"amet lobortis sapien sapien non"}},
{"id":964,"pincode":369834,"latitude":58.909448,"longitude":17.9555203,"order":{"id":"a10b3bcf-93be-491b-8c2b-cc61e3ba9cc5","item":"ac consequat metus sapien ut nunc"}},
{"id":965,"pincode":453982,"latitude":20.4416309,"longitude":106.1081103,"order":{"id":"4a4158ac-1bcb-4cda-98f1-baf1811fa976","item":"velit"}},
{"id":966,"pincode":125724,"latitude":63.6182729,"longitude":22.7568858,"order":{"id":"84912b3a-c8ca-4dc6-912d-e4d73e111f09","item":"iaculis congue"}},
{"id":967,"pincode":420532,"latitude":33.8941622,"longitude":133.1395202,"order":{"id":"10daa2c8-2791-4932-9730-17de521b2acb","item":"donec"}},
{"id":968,"pincode":336983,"latitude":49.5216159,"longitude":22.937308,"order":{"id":"921e6e61-8e22-4c7b-a954-8c83981b6f3a","item":"nam tristique tortor eu pede"}},
{"id":969,"pincode":312153,"latitude":46.3392772,"longitude":14.9599807,"order":{"id":"dfc179a1-283d-4c7a-a3cf-f040a6bb12a7","item":"nulla ac enim in tempor"}},
{"id":970,"pincode":474298,"latitude":14.5697429,"longitude":121.0190818,"order":{"id":"c476c3b8-f6c9-402d-87c2-8451916f3aef","item":"magna ac consequat"}},
{"id":971,"pincode":209834,"latitude":-6.314167,"longitude":-78.693932,"order":{"id":"c756cc0a-459c-4b52-ac69-2ad4fb2add6d","item":"consectetuer eget rutrum at lorem"}},
{"id":972,"pincode":163591,"latitude":-14.6737265,"longitude":-39.465738,"order":{"id":"5e59ca6a-dde7-4a0b-a02e-dc2e9b1855d6","item":"eros vestibulum ac est lacinia nisi"}},
{"id":973,"pincode":326611,"latitude":22.197186,"longitude":-75.7240654,"order":{"id":"7721ffa2-46b9-476f-b09d-fa984132d41b","item":"ut nulla sed"}},
{"id":974,"pincode":342583,"latitude":54.1458603,"longitude":49.7613122,"order":{"id":"20d1d8e0-de8c-4d40-a685-3aca6e8a7927","item":"duis ac nibh fusce lacus purus"}},
{"id":975,"pincode":507865,"latitude":55.583006,"longitude":13.0105903,"order":{"id":"4501336c-f19a-48fc-9e9f-180eed46fbae","item":"quisque ut erat curabitur"}},
{"id":976,"pincode":312811,"latitude":2.0259109,"longitude":-75.994964,"order":{"id":"bfcf1383-ebcc-4163-b0cf-c089b06b8166","item":"eu est congue elementum in"}},
{"id":977,"pincode":114223,"latitude":37.0657211,"longitude":136.7827153,"order":{"id":"4e05c470-d379-494b-887f-45b7816838b7","item":"odio"}},
{"id":978,"pincode":184954,"latitude":52.7387427,"longitude":58.6660975,"order":{"id":"fb1dd9cd-9f32-4def-bbae-f8859b775314","item":"dapibus at"}},
{"id":979,"pincode":356044,"latitude":36.9564827,"longitude":118.1147469,"order":{"id":"16f7434b-7cd4-48b6-82c3-f62f65696af7","item":"mus vivamus"}},
{"id":980,"pincode":401875,"latitude":27.756339,"longitude":112.555087,"order":{"id":"dd85c028-c79d-4f4b-9b56-8c2698fadcea","item":"nulla sed accumsan felis"}},
{"id":981,"pincode":191490,"latitude":33.5050373,"longitude":130.3331069,"order":{"id":"9d2ba1e4-6b78-4fe2-ba25-025ee8964ee7","item":"at turpis a pede posuere nonummy"}},
{"id":982,"pincode":110031,"latitude":59.3687545,"longitude":17.9778073,"order":{"id":"b7b8d479-b94e-4fd2-95ef-06ddd98289bd","item":"nascetur ridiculus mus vivamus"}},
{"id":983,"pincode":289733,"latitude":"-8.6603","longitude":"117.1735","order":{"id":"324df59b-1b7e-461a-a1e9-ed883d30cd21","item":"pretium iaculis diam erat fermentum"}},
{"id":984,"pincode":230563,"latitude":6.027632,"longitude":-75.431596,"order":{"id":"c48bd73f-d63f-42ce-a2d5-d4ff5c7588f7","item":"velit nec nisi vulputate nonummy maecenas"}},
{"id":985,"pincode":574316,"latitude":39.8032712,"longitude":113.9849159,"order":{"id":"13da2da5-20ae-44a0-af36-d71f3c5b64de","item":"ante"}},
{"id":986,"pincode":562817,"latitude":37.690551,"longitude":116.293767,"order":{"id":"65ac5490-41b4-4bba-a96c-b8cb51ba1803","item":"odio"}},
{"id":987,"pincode":335059,"latitude":30.7298739,"longitude":-9.2162139,"order":{"id":"959734d0-7c60-4080-99fa-8ed7fa1167db","item":"pharetra magna ac consequat metus sapien"}},
{"id":988,"pincode":485915,"latitude":-21.9111483,"longitude":-56.4719928,"order":{"id":"157c0358-449e-4821-b200-21f7bd5dc61c","item":"felis sed lacus morbi"}},
{"id":989,"pincode":429796,"latitude":29.046809,"longitude":110.482084,"order":{"id":"83e72456-71f7-4641-b6d0-c7a707e57eae","item":"consectetuer adipiscing elit proin risus praesent"}},
{"id":990,"pincode":515624,"latitude":48.9101028,"longitude":2.234305,"order":{"id":"601f9c23-cd87-43ab-936c-568c851879ec","item":"purus eu magna vulputate luctus"}},
{"id":991,"pincode":108654,"latitude":-3.3186067,"longitude":114.5943784,"order":{"id":"d3c0a444-e9ed-4c8b-bde9-7721746e9aff","item":"amet erat nulla tempus"}},
{"id":992,"pincode":529769,"latitude":10.752961,"longitude":122.49448,"order":{"id":"ed7a5c57-2263-4ee9-89c6-6409d574826a","item":"nisi nam ultrices libero non mattis"}},
{"id":993,"pincode":286179,"latitude":"50.03332","longitude":"-113.58524","order":{"id":"0c2a54e6-f697-4517-beeb-adaddfe0ceb9","item":"ac neque"}},
{"id":994,"pincode":361703,"latitude":-2.6242355,"longitude":-56.7346167,"order":{"id":"f6235215-c960-4054-9a5a-94f8689ebe17","item":"adipiscing"}},
{"id":995,"pincode":570770,"latitude":6.394353,"longitude":-75.256581,"order":{"id":"8ece7ff9-2d98-480b-8b93-6de3f32cc654","item":"semper porta volutpat quam"}},
{"id":996,"pincode":148925,"latitude":22.935289,"longitude":113.670324,"order":{"id":"14fd470b-b1c7-468a-9829-b2ff8366d44f","item":"nulla neque libero"}},
{"id":997,"pincode":591637,"latitude":59.334679,"longitude":18.0899315,"order":{"id":"78a19a5e-52cf-4534-9575-3e5f50baec93","item":"risus dapibus augue vel"}},
{"id":998,"pincode":292767,"latitude":49.9406828,"longitude":19.7770123,"order":{"id":"a971133b-0242-4332-8fc1-0cf5d67f8ce8","item":"vivamus in felis eu sapien cursus"}},
{"id":999,"pincode":561686,"latitude":26.641315,"longitude":100.222545,"order":{"id":"930d5efb-53bf-4b2e-9610-0963eed3c394","item":"nonummy maecenas"}},
{"id":1000,"pincode":255600,"latitude":34.56505,"longitude":95.661523,"order":{"id":"c216e74c-3773-4ea6-b9a3-a47fa5f4b816","item":"duis mattis egestas metus aenean"}}]